{"type":"FeatureCollection","features":[{"geometry":{"coordinates":[[[-41.193416391333706,81.92045970448599],[-41.186295159479634,81.91901053366111],[-41.181024412818516,81.91695490806816],[-41.18188521642629,81.91467627034753],[-41.18318717684075,81.91239765062876],[-41.1826564647959,81.91023057709737],[-41.17871029309655,81.90821949765088],[-41.18045830936978,81.90594532771996],[-41.176159630513425,81.90374259140394],[-41.16923476304797,81.9014505532627],[-41.16446780000371,81.89977393307984],[-41.163491258387374,81.90042502122631],[-41.16471306758926,81.9025341751883],[-41.170973604619576,81.90482161519164],[-41.16991698399947,81.90703785447033],[-41.168021643228094,81.90868322918475],[-41.16862383642254,81.91022161952169],[-41.171254668909576,81.9112516826128],[-41.16052156428879,81.91133642069536],[-41.168458904308636,81.91291938020437],[-41.16774511580424,81.91441761311974],[-41.16472205147043,81.91655357781067],[-41.17125901709985,81.91827479081181],[-41.1813813959482,81.92043742921318],[-41.18337877238786,81.92233698992614],[-41.18990695155805,81.9222121079886],[-41.193416391333706,81.92045970448599]]],"type":"Polygon"},"id":"00000000000000000000_00000000000000000000","properties":{"area":456584.31596932805,"elevation":1122.1469942883941,"id":"00000000000000000000","region":"NO","surface":0.0,"year":2018},"type":"Feature"},{"geometry":{"coordinates":[[[-58.86639878535122,80.61035799878204],[-58.86620725103031,80.6098541108226],[-58.86465988093629,80.60939925444526],[-58.8612845469818,80.60925661636877],[-58.857636729660584,80.60893106945046],[-58.85452872439477,80.60896230832724],[-58.8514206837091,80.60899351687148],[-58.84844204571785,80.60911388387139],[-58.846070225559096,80.60963115070217],[-58.84315806818019,80.60979611584594],[-58.84024621693786,80.60996109400719],[-58.837802551660765,80.61043378646227],[-58.835096000446995,80.61072807429859],[-58.834748310598584,80.61107143896449],[-58.835212009104566,80.61156642252087],[-58.836759039491774,80.6120212675495],[-58.83911351241641,80.61244039678576],[-58.84262733416206,80.61267672965919],[-58.84580260701917,80.61268565030166],[-58.84911543079186,80.61278818017082],[-58.85149214874193,80.61227094588676],[-58.85305283025352,80.61197663903478],[-58.855692419804484,80.61163331817247],[-58.85860455892716,80.61146831339553],[-58.860981300435235,80.61095107972457],[-58.863821568737904,80.61074594155524],[-58.86639878535122,80.61035799878204]]],"type":"Polygon"},"id":"00000000000000000001_00000000000000000001","properties":{"area":151186.35665230703,"elevation":612.645118166627,"id":"00000000000000000001","region":"NO","surface":0.0,"year":2018},"type":"Feature"},{"geometry":{"coordinates":[[[-56.71397725699405,80.44746705594066],[-56.71319704548543,80.4462675206485],[-56.708983212171205,80.4451839377862],[-56.70519321778769,80.44424753936231],[-56.706428321334144,80.4431372725771],[-56.70012298683645,80.44228558112928],[-56.70223231302295,80.44130455238012],[-56.69798689549101,80.4403815269844],[-56.691566105507,80.44000697211422],[-56.6861524932176,80.43967697460762],[-56.67945080931685,80.44022548201804],[-56.67939290446565,80.44113959220745],[-56.679374842271756,80.44188874769482],[-56.6819834110082,80.4430257494533],[-56.676356313891375,80.4431015778207],[-56.676908908821055,80.44430997727461],[-56.67873243998485,80.44539356348808],[-56.68294230993452,80.44647712054672],[-56.68532344502424,80.44762308926403],[-56.688159176436656,80.44875122105813],[-56.69342120055294,80.44971886442897],[-56.70123352313155,80.4504412708891],[-56.70785053707231,80.44981699099911],[-56.71325950141642,80.4488003447975],[-56.70679851394129,80.44878245760245],[-56.70974597200678,80.44808687273493],[-56.71397725699405,80.44746705594066]]],"type":"Polygon"},"id":"00000000000000000002_00000000000000000002","properties":{"area":507351.949012463,"elevation":1107.6965920669195,"id":"00000000000000000002","region":"NO","surface":0.0,"year":2018},"type":"Feature"},{"geometry":{"coordinates":[[[-56.69446890475138,80.46862551372921],[-56.69215921318577,80.46826428336216],[-56.68926516088368,80.46849618212823],[-56.68717393456664,80.4685273954516],[-56.68909568796579,80.46815277117379],[-56.69004549979562,80.46763554557276],[-56.69181140011808,80.46713612543776],[-56.69117822957245,80.46662776628543],[-56.687962826400515,80.4666055048458],[-56.68645594144634,80.46710044282351],[-56.68355754797393,80.46732785986276],[-56.680873300014674,80.46772918317302],[-56.67823784013318,80.46817068650799],[-56.67819321584651,80.46834900784272],[-56.67984294914926,80.468821658296],[-56.680984363964704,80.46930773134049],[-56.68187219508632,80.4698071389671],[-56.68250090916301,80.47031100117914],[-56.68491768486428,80.4707569103937],[-56.68605918385912,80.47124746014275],[-56.68897516094648,80.471452535758],[-56.69181999659868,80.47118054116405],[-56.690932943950195,80.47068111373328],[-56.69157494517844,80.47013263436338],[-56.69201195174494,80.46963322622739],[-56.693831247131925,80.46917839590981],[-56.69446890475138,80.46862551372921]]],"type":"Polygon"},"id":"00000000000000000003_00000000000000000003","properties":{"area":88656.20745159534,"elevation":1116.5840850782088,"id":"00000000000000000003","region":"NO","surface":0.0,"year":2018},"type":"Feature"}]}