{"type":"FeatureCollection","features":[{"geometry":{"coordinates":[[[-35.75219833311384,81.56575606098949],[-35.75105686103137,81.56432472196634],[-35.748216007491955,81.56298697852294],[-35.74330708781491,81.56166709734964],[-35.73546309677661,81.5609491611143],[-35.72637117763668,81.56052998131172],[-35.715869799222645,81.56137725557183],[-35.71403304057672,81.56180083921411],[-35.710737447192244,81.56312516770527],[-35.70669761167666,81.5642979123687],[-35.70185085254966,81.5655866379969],[-35.69714632679425,81.56510504276153],[-35.688125374876385,81.56461900186844],[-35.682047731094016,81.56557774636133],[-35.680370827413675,81.5668708243205],[-35.68816144746025,81.56846275324334],[-35.69467607565495,81.56915390571545],[-35.704409788931564,81.56818626984014],[-35.71477757614775,81.56746393687168],[-35.720070165000976,81.56618859751609],[-35.723588588737144,81.56650519903033],[-35.73180646505012,81.56730336930003],[-35.731753150680966,81.56817287905783],[-35.731182604919724,81.56909144371052],[-35.74169727656997,81.56824425864716],[-35.746909859952275,81.56703140762318],[-35.75219833311384,81.56575606098949]]],"type":"Polygon"},"id":"00000000000000000007_00000000000000000007","properties":{"area":597266.0412680414,"elevation":1104.930112053121,"id":"00000000000000000007","region":"NO","surface":0.0,"year":2019},"type":"Feature"},{"geometry":{"coordinates":[[[-60.25385713627729,81.2122920727037],[-60.25366097765882,81.2116543907317],[-60.25215820743561,81.2110747571064],[-60.251743531432126,81.21045042390365],[-60.25024062627414,81.20987073791729],[-60.247436208394475,81.20934456022474],[-60.242691690636505,81.2090413790225],[-60.23883884171856,81.20923755689718],[-60.23492846006553,81.20940257102296],[-60.23142793918755,81.20979939918593],[-60.229470196294116,81.21027203665666],[-60.22697779443657,81.21044601106162],[-60.22377610610584,81.21100781852637],[-60.22462339421752,81.21161423550123],[-60.22650056556289,81.21214491337342],[-60.223927588265354,81.21214489170883],[-60.2233523374578,81.21273791964227],[-60.22798129405643,81.21297428296641],[-60.23173564695216,81.21324634779185],[-60.23515561290468,81.21346028867605],[-60.23600285185815,81.21406677099138],[-60.24021241241538,81.21407122669872],[-60.243418394311924,81.21350937459596],[-60.2470973250575,81.21321507485814],[-60.25089164300029,81.21298322377308],[-60.25385713627729,81.2122920727037]]],"type":"Polygon"},"id":"00000000000000000000_00000000000000000000","properties":{"area":196443.39296778914,"elevation":1120.5765367916974,"id":"00000000000000000000","region":"NO","surface":0.0,"year":2019},"type":"Feature"},{"geometry":{"coordinates":[[[-50.40144662495264,80.83775433603013],[-50.39657735412255,80.83684467004554],[-50.39288065783624,80.8359929882027],[-50.390356849451635,80.83519920616675],[-50.38391788265111,80.83471326070163],[-50.38187989819646,80.83550693692617],[-50.3746427634536,80.83521708672932],[-50.36834667258192,80.83574329239376],[-50.362375929092835,80.83605093524123],[-50.35605744202025,80.83654585813237],[-50.350599290613644,80.83695615026674],[-50.34395082123629,80.83766957786563],[-50.343308667778835,80.83851681246068],[-50.34750479101978,80.83866845343984],[-50.353413044485684,80.83825372581967],[-50.35513902891988,80.83924809032717],[-50.36229133957027,80.83939525160244],[-50.36423977343212,80.83921692924498],[-50.37135214412494,80.83929275580297],[-50.37256958413617,80.83942199187301],[-50.379722028036184,80.83956917078642],[-50.385179866871006,80.83915897540244],[-50.39181920852614,80.83920350501928],[-50.39522194224439,80.83878882159831],[-50.401009600519444,80.83931946401866],[-50.40021583718582,80.83875313851335],[-50.40144662495264,80.83775433603013]]],"type":"Polygon"},"id":"00000000000000000001_00000000000000000001","properties":{"area":339638.9652512016,"elevation":1295.4294866310158,"id":"00000000000000000001","region":"NO","surface":396.46274509803925,"year":2019},"type":"Feature"},{"geometry":{"coordinates":[[[-47.256638950836965,81.20060031719007],[-47.25449393100983,81.19990913076879],[-47.25601003845664,81.19899496631781],[-47.25308949113824,81.19870964836701],[-47.254792709669324,81.19766177716724],[-47.24793909824812,81.19824144746711],[-47.24456367126584,81.19872743297505],[-47.23798624610041,81.19866950050302],[-47.230624351507394,81.19898167125709],[-47.22327576591042,81.19932498638559],[-47.21689042309788,81.20003397434215],[-47.211169346529225,81.20076970035277],[-47.20543486091886,81.20147429333677],[-47.2068843583545,81.20200046858169],[-47.1995712620367,81.20251324331065],[-47.20553759358856,81.2027451576513],[-47.207494871225755,81.20357005969583],[-47.21264968340276,81.20404274362963],[-47.21691259918113,81.20445292609962],[-47.22169708164952,81.2043236277983],[-47.229188696050436,81.20451090767834],[-47.23283143423969,81.2033515642429],[-47.23982790156286,81.20331145484704],[-47.24713660179771,81.202798622836],[-47.252701494021935,81.20229478649908],[-47.25481066334809,81.20114426767005],[-47.256638950836965,81.20060031719007]]],"type":"Polygon"},"id":"00000000000000000002_00000000000000000002","properties":{"area":406630.2728405126,"elevation":1218.461115203769,"id":"00000000000000000002","region":"NO","surface":0.0,"year":2019},"type":"Feature"},{"geometry":{"coordinates":[[[-45.519493787883775,81.20733353299681],[-45.51835667901349,81.20682966604244],[-45.51810661430965,81.20632131830236],[-45.51675081805474,81.20581743759966],[-45.51494993789498,81.20531354931819],[-45.51162323802995,81.20511288287109],[-45.50829207237459,81.20488104528803],[-45.504961062439236,81.2046491743719],[-45.50164814647275,81.20468933748474],[-45.49834869762821,81.204996954467],[-45.495062104041146,81.2055053177249],[-45.49506193251519,81.20557666763303],[-45.493764760888645,81.20608497915475],[-45.4933542690311,81.20659334740242],[-45.49338093846374,81.20709716693275],[-45.496716465486124,81.20740043324365],[-45.50005611919717,81.2078329363318],[-45.50251795693098,81.20826994057816],[-45.505835353355,81.20830117013088],[-45.50518390768697,81.20853748054158],[-45.50477390289499,81.20904585167004],[-45.507449625344655,81.20944716237004],[-45.51075797558185,81.2092375882541],[-45.513607608330325,81.20879611953673],[-45.51692947773031,81.20885854725083],[-45.51756265571086,81.20835021379284],[-45.51797310053964,81.2078418788068],[-45.519493787883775,81.20733353299681]]],"type":"Polygon"},"id":"00000000000000000004_00000000000000000004","properties":{"area":153064.0855153424,"elevation":1310.5647014325568,"id":"00000000000000000004","region":"NO","surface":0.0,"year":2019},"type":"Feature"},{"geometry":{"coordinates":[[[-37.65943595383323,81.74092740495989],[-37.658258829423474,81.74024511751546],[-37.65405407544007,81.73950492695464],[-37.64892593280575,81.7392240686845],[-37.64396275053897,81.73876475806652],[-37.63860792177007,81.73873799167005],[-37.6333190430938,81.73863984102506],[-37.62806195795557,81.73850610428973],[-37.62234971915595,81.73887620918308],[-37.623303806725296,81.73952276395336],[-37.62741545682962,81.74007570678884],[-37.623571508588284,81.74008017822982],[-37.62191256941508,81.74078472693681],[-37.62299210997625,81.74157843374695],[-37.62815069467808,81.74181922188085],[-37.630411603880525,81.74215814706535],[-37.62910087639697,81.74276009142564],[-37.627910145207466,81.7435092492083],[-37.63320305107684,81.74360732575664],[-37.63778289078286,81.74336206550458],[-37.63423762549335,81.74274226755186],[-37.63641794342811,81.74259953693532],[-37.64193853155323,81.7424435000854],[-37.64709755560976,81.74268877708329],[-37.652943801109835,81.74217149364533],[-37.65800026845001,81.74167648367832],[-37.65943595383323,81.74092740495989]]],"type":"Polygon"},"id":"00000000000000000005_00000000000000000005","properties":{"area":219604.20662148527,"elevation":1306.1224040801362,"id":"00000000000000000005","region":"NO","surface":14.0,"year":2019},"type":"Feature"},{"geometry":{"coordinates":[[[-36.64262720524173,81.63040854306227],[-36.64004540783621,81.63020797156791],[-36.637298688715305,81.62966834702978],[-36.63578674246918,81.6291555475188],[-36.63267903118785,81.62872307706174],[-36.62917414811448,81.62868285600723],[-36.62584759830651,81.62846446383806],[-36.62252131529258,81.62824592817078],[-36.61897610052052,81.62824589888758],[-36.61547130169853,81.62820576616872],[-36.611667672925066,81.62845545265769],[-36.60783318012603,81.6287408901034],[-36.60682507301335,81.62923583564208],[-36.60904140179722,81.62980215118804],[-36.61154748977463,81.63007860415816],[-36.61425861672297,81.6306493423699],[-36.615311032241024,81.63111759488083],[-36.6185614174732,81.63140740593099],[-36.61805338491871,81.63191128680182],[-36.621415344535,81.6320941541153],[-36.62481313761824,81.63224126080146],[-36.62846947599149,81.63213427449799],[-36.632126123211584,81.63203165351642],[-36.63603656807617,81.63167054625477],[-36.63987165171424,81.6313851018677],[-36.64186902838694,81.63091243062867],[-36.64262720524173,81.63040854306227]]],"type":"Polygon"},"id":"00000000000000000006_00000000000000000006","properties":{"area":164675.3569652972,"elevation":1295.4064794056883,"id":"00000000000000000006","region":"NO","surface":0.0,"year":2019},"type":"Feature"},{"geometry":{"coordinates":[[[-33.0980211279668,81.19116930918776],[-33.09384278178187,81.18977808351654],[-33.083595606659436,81.18989844874511],[-33.07988563941444,81.19106672266905],[-33.07825376181314,81.19194521041722],[-33.073781131650584,81.19077242634344],[-33.06797097781158,81.19087497941725],[-33.061857733494975,81.1918024916123],[-33.05257826447729,81.19137436769192],[-33.04481941279864,81.18999650976762],[-33.03368492631323,81.19014819709672],[-33.03351556955817,81.19027301968788],[-33.03916543743293,81.191806967351],[-33.04194306530719,81.19343897358924],[-33.03651212365214,81.19493726438603],[-33.04484620163188,81.19620359476876],[-33.038559044235015,81.1972559754924],[-33.03792128814751,81.19878094015299],[-33.04851168584201,81.19902625123741],[-33.05515998571267,81.19801850324711],[-33.0571711882349,81.19641315640555],[-33.0603907449213,81.19651573268293],[-33.06154990313174,81.19613669177653],[-33.0714761227909,81.19487927588254],[-33.08193250636164,81.19354600450478],[-33.08535702551438,81.19243126462764],[-33.0980211279668,81.19116930918776]]],"type":"Polygon"},"id":"00000000000000000009_00000000000000000009","properties":{"area":544498.2485803649,"elevation":1183.0517397555707,"id":"00000000000000000009","region":"NO","surface":0.0,"year":2019},"type":"Feature"},{"geometry":{"coordinates":[[[-32.338894616536535,81.0499495418039],[-32.336228128650326,81.048870490794],[-32.332001038621755,81.04773336595774],[-32.32727443138309,81.0469485846283],[-32.32104930727386,81.04654728222238],[-32.3142757769889,81.04652945848693],[-32.307248312927854,81.04668554627098],[-32.3005107824604,81.04728746135828],[-32.29402746531432,81.04739004473653],[-32.29600248808516,81.04796970045983],[-32.29768352151265,81.04843344824171],[-32.29090583179862,81.04841118837146],[-32.2838205362304,81.04893287706987],[-32.28633941422194,81.0494590624158],[-32.29322418705245,81.04908002144526],[-32.293291473464926,81.04952147262544],[-32.29742078961838,81.05039546743126],[-32.303493753038794,81.05089934390281],[-32.309317390309324,81.05157713533444],[-32.31594807124583,81.05170196481853],[-32.314423092675504,81.05226831132774],[-32.317513123835596,81.05288814576213],[-32.323363753374146,81.05225046170747],[-32.32920930284225,81.05161727864707],[-32.33326702570433,81.05092164896642],[-32.337940274323984,81.05060953484751],[-32.338894616536535,81.0499495418039]]],"type":"Polygon"},"id":"0000000000000000000c_0000000000000000000c","properties":{"area":365974.6334844531,"elevation":1198.4623434466853,"id":"0000000000000000000c","region":"NO","surface":0.0,"year":2019},"type":"Feature"},{"geometry":{"coordinates":[[[-31.608150714829545,81.104413045229],[-31.606206323765146,81.10382884167427],[-31.6037225083861,81.1034453794659],[-31.600159736258192,81.1028389955518],[-31.596489992453154,81.1022993920132],[-31.59266405754613,81.10186688089738],[-31.58861995541743,81.10156810993456],[-31.584526365127797,81.10130946229785],[-31.580267712659598,81.1011533957124],[-31.575799837997046,81.10113114516757],[-31.571224689162754,81.10118459770071],[-31.566435425458387,81.10137189771248],[-31.562074361071627,81.1012827321761],[-31.56411687698911,81.10180002521625],[-31.563153835949304,81.10242424254159],[-31.564380141829247,81.10316447216071],[-31.567438774505444,81.10378874104146],[-31.571692825636735,81.10394923497661],[-31.575684066811867,81.1042792380704],[-31.58036564683975,81.10415885722921],[-31.583982340412906,81.10472962532675],[-31.58840131119631,81.10478313932265],[-31.592178120601087,81.10525134878738],[-31.596432211153306,81.10540738981771],[-31.601064931715616,81.10532270852758],[-31.605118570599025,81.10499717526992],[-31.608150714829545,81.104413045229]]],"type":"Polygon"},"id":"0000000000000000000d_0000000000000000000d","properties":{"area":231672.2937627554,"elevation":1137.321828268979,"id":"0000000000000000000d","region":"NO","surface":9.360784313725489,"year":2019},"type":"Feature"},{"geometry":{"coordinates":[[[-31.013899370421523,81.0578867430386],[-31.01222709700797,81.05672292603346],[-31.01028783589311,81.05719562602623],[-31.00729107410815,81.05818110455732],[-31.002123018255215,81.05889902220672],[-30.998738667417776,81.05983096373593],[-30.991621651218786,81.05985320928617],[-30.98556215663171,81.05950542308885],[-30.98067044629251,81.05872955211201],[-30.978779636720642,81.05769951589544],[-30.98622627623821,81.0568879477737],[-30.981611277176196,81.05652673600754],[-30.975943537686714,81.05725801657127],[-30.96894317323921,81.05750328622071],[-30.962829410199852,81.05807407622262],[-30.964608773460682,81.05872950029762],[-30.961830724525107,81.05972392749807],[-30.967109980470426,81.06055331964811],[-30.973005145806507,81.06099918637928],[-30.979787396356535,81.06119097949178],[-30.987457001134295,81.06082979054608],[-30.994186081759473,81.06105271769425],[-31.000856522040795,81.06131138191753],[-31.008026902506447,81.06096357638992],[-31.012133740543938,81.06002263628564],[-31.01290535319036,81.05895248827011],[-31.013899370421523,81.0578867430386]]],"type":"Polygon"},"id":"00000000000000000010_00000000000000000010","properties":{"area":240189.3232057539,"elevation":1146.3570714911536,"id":"00000000000000000010","region":"NO","surface":0.0,"year":2019},"type":"Feature"},{"geometry":{"coordinates":[[[-31.240158686815604,81.03163602236057],[-31.236916881303927,81.03070407491676],[-31.231432398030076,81.0307531294022],[-31.225407830242705,81.03114550378679],[-31.22019548001888,81.03102068589955],[-31.214875482454516,81.03096270855723],[-31.2118879633688,81.03121684517869],[-31.206024196406194,81.03150672763039],[-31.200539668077806,81.03155130883877],[-31.19645072737854,81.03190806911952],[-31.195875603055768,81.03122581437161],[-31.18995790904964,81.03155129215384],[-31.19213417707267,81.03210869522346],[-31.193467644544427,81.03230931451911],[-31.198024658964993,81.03284888412989],[-31.194644939726462,81.03290242726031],[-31.192223534916824,81.03354454384095],[-31.197601036809086,81.03356683028618],[-31.202978887926932,81.03358910071755],[-31.207201208435013,81.03404393049972],[-31.21290492624855,81.03385664499004],[-31.218389343707305,81.03381208900447],[-31.22386058790152,81.03317887075477],[-31.229777715550053,81.03285335221786],[-31.23513794132104,81.03228707506231],[-31.240158686815604,81.03163602236057]]],"type":"Polygon"},"id":"00000000000000000012_00000000000000000012","properties":{"area":187874.75801512305,"elevation":1197.7770112299256,"id":"00000000000000000012","region":"NO","surface":0.0,"year":2019},"type":"Feature"},{"geometry":{"coordinates":[[[-30.369840003173366,80.99767996347832],[-30.369242943592184,80.99709134704213],[-30.36758850950502,80.99645817142351],[-30.364538516999676,80.99612371002698],[-30.36159536349065,80.99571795435689],[-30.357992516041612,80.99571349251319],[-30.354666019233353,80.99553965550965],[-30.35083994961456,80.99566889610668],[-30.34756700487785,80.99546379688807],[-30.343910640080917,80.99549059366278],[-30.33991991789398,80.99571348848211],[-30.336406188452873,80.99592755372106],[-30.33436379019217,80.9963377641421],[-30.33369045990158,80.99687289419737],[-30.33343620709523,80.99743027655545],[-30.335300117057997,80.99807237160016],[-30.335273624917757,80.99849599579647],[-30.338278856751764,80.99872337755652],[-30.341070225917587,80.99894640447914],[-30.34434796467672,80.99915149687675],[-30.347727962318157,80.9992897300572],[-30.351500118929593,80.99919609336882],[-30.35543741210382,80.99900437123921],[-30.35880396721867,80.99861190227249],[-30.362683334670958,80.99845138549766],[-30.36684392344664,80.99812589029243],[-30.369840003173366,80.99767996347832]]],"type":"Polygon"},"id":"00000000000000000013_00000000000000000013","properties":{"area":197694.92863150447,"elevation":1221.9606736458798,"id":"00000000000000000013","region":"NO","surface":0.0,"year":2019},"type":"Feature"},{"geometry":{"coordinates":[[[-30.199217438736056,81.0016039838299],[-30.19847695977938,81.00097076752452],[-30.19527537122682,81.00059173453572],[-30.19195785341408,81.0002796702547],[-30.18847969781755,81.00006557591193],[-30.18499737621165,80.99984706574377],[-30.181211305985787,81.00008344807132],[-30.177171350092504,81.00019934981181],[-30.172850862831883,81.00048028608214],[-30.17074167130047,81.0009217564373],[-30.169581979145207,81.00147464493534],[-30.1718115854319,81.0020276260075],[-30.16791437686078,81.00232637608919],[-30.165537792985045,81.00279452583463],[-30.16337485378368,81.00327168347802],[-30.16674178414408,81.00355259472495],[-30.169541763865567,81.00310221772729],[-30.171026975488996,81.00369526346313],[-30.17450920047634,81.00390932804827],[-30.177363102035393,81.00342332140352],[-30.18036867464932,81.0036551565312],[-30.184689537877663,81.00337420498052],[-30.186531283682594,81.00295506331867],[-30.19045948999589,81.00290602804208],[-30.1948918584845,81.00255822373761],[-30.199114700295333,81.00220151304853],[-30.199217438736056,81.0016039838299]]],"type":"Polygon"},"id":"00000000000000000014_00000000000000000014","properties":{"area":168480.30649761038,"elevation":1208.4916146645862,"id":"00000000000000000014","region":"NO","surface":125.50588235294117,"year":2019},"type":"Feature"},{"geometry":{"coordinates":[[[-29.643328042108706,81.04769770711572],[-29.64044269290694,81.0473989659579],[-29.641142933069386,81.04660973507796],[-29.64215501711378,81.04590961805492],[-29.637513446621174,81.04557071216163],[-29.633165346001366,81.04506237352241],[-29.62916584272164,81.04436234782484],[-29.623689871663373,81.04462092681344],[-29.619609993490446,81.04409475056322],[-29.614098464423574,81.04424634390087],[-29.61338948841332,81.0450312061934],[-29.612261405760115,81.04580259182384],[-29.60880107138712,81.04646698884493],[-29.606683155538537,81.04637780639831],[-29.604667641823056,81.04700211560996],[-29.607164480958364,81.0477824761773],[-29.610196777260477,81.04851370188597],[-29.613394192158225,81.04890166082278],[-29.61761241211709,81.04922271420256],[-29.623007582254136,81.04913354905926],[-29.624350061521426,81.04837544326845],[-29.626423552389895,81.04771998563663],[-29.628595154684497,81.04816592307762],[-29.632581571918383,81.04862073157283],[-29.637825240709674,81.0484914209521],[-29.642413928487663,81.04847358002178],[-29.643328042108706,81.04769770711572]]],"type":"Polygon"},"id":"00000000000000000015_00000000000000000015","properties":{"area":244997.45556985112,"elevation":1027.2234640237386,"id":"00000000000000000015","region":"NO","surface":0.0,"year":2019},"type":"Feature"},{"geometry":{"coordinates":[[[-28.393477706332412,80.70735684020569],[-28.390762017550983,80.70665229616314],[-28.388786861158557,80.70606370630063],[-28.385615991647118,80.70560440382866],[-28.38251272685393,80.70510939465797],[-28.37964988865644,80.70474380795848],[-28.37691641833794,80.7043068514372],[-28.37310381615599,80.70419982044294],[-28.368836661165933,80.70433798047208],[-28.36599163515976,80.7037048676743],[-28.361791167220332,80.70380733853972],[-28.36107770020298,80.70419082283856],[-28.36385583252293,80.70485968198118],[-28.364899406677058,80.70506039635535],[-28.364230294346864,80.70568017282089],[-28.365425373840495,80.70630896003553],[-28.366928313059006,80.7070313132918],[-28.368341464389164,80.70766895438818],[-28.371636848575363,80.70805689722427],[-28.375021393647735,80.70814605181792],[-28.377928627289034,80.70874360113818],[-28.38232962406692,80.70853401421654],[-28.385237009797656,80.7091315302494],[-28.388006420182755,80.70865444466779],[-28.390195820450074,80.7084938974536],[-28.392598921855225,80.70796327161304],[-28.393477706332412,80.70735684020569]]],"type":"Polygon"},"id":"00000000000000000016_00000000000000000016","properties":{"area":186742.30583971145,"elevation":1265.44744137692,"id":"00000000000000000016","region":"NO","surface":0.0,"year":2019},"type":"Feature"},{"geometry":{"coordinates":[[[-28.35526305440808,80.68785715626062],[-28.354438246328268,80.68728191119779],[-28.353180705685187,80.68668892327166],[-28.35192334377398,80.68609139978868],[-28.3497339687313,80.68548938301008],[-28.34729022650047,80.68503010684486],[-28.344650622276227,80.68467336988563],[-28.341556031893266,80.68456192518093],[-28.338724166860118,80.68430776894755],[-28.335241531821765,80.68440583136015],[-28.33187071934907,80.68470011454885],[-28.33174111463482,80.68477148901613],[-28.330835862299182,80.68526198098542],[-28.330577403470382,80.68578373966032],[-28.330537441378237,80.68631428848863],[-28.33049262239548,80.68684939807075],[-28.331750328959163,80.68744244202134],[-28.332142579210498,80.68799542090629],[-28.33478269433826,80.68835213734567],[-28.337096708654162,80.68888279345104],[-28.339544678505142,80.68934650834146],[-28.342768747571757,80.68938662223137],[-28.34560455581589,80.68964079746011],[-28.34934593894164,80.6894000480702],[-28.352761683110334,80.6893376133452],[-28.35518307681817,80.68891844518238],[-28.35435791634231,80.68834765966655],[-28.35526305440808,80.68785715626062]]],"type":"Polygon"},"id":"00000000000000000017_00000000000000000017","properties":{"area":189233.26776454074,"elevation":1280.0568716794921,"id":"00000000000000000017","region":"NO","surface":0.0,"year":2019},"type":"Feature"},{"geometry":{"coordinates":[[[-59.71190246119459,79.77469121799089],[-59.71180449292989,79.77401793277494],[-59.71107312362983,79.77337134780522],[-59.71076510841199,79.77270696262046],[-59.707724388519765,79.77217184976635],[-59.70458512439806,79.77263564840423],[-59.70073255272884,79.7726177865603],[-59.69829335841602,79.7732509666354],[-59.695212095085225,79.7737548777055],[-59.69190789957498,79.77410714436981],[-59.691818760142624,79.7743524003187],[-59.69275508398428,79.77498554023607],[-59.691403773716864,79.77528878449922],[-59.68858569374786,79.77581938480252],[-59.691622619710564,79.77619842950551],[-59.691421617121826,79.77636787460028],[-59.68838062296862,79.77674686111183],[-59.69121677536141,79.77729534967293],[-59.69509162402599,79.77763427409482],[-59.69465914023632,79.77825406987773],[-59.69793652709265,79.77833878716108],[-59.69678598001837,79.77771451699225],[-59.70009039838969,79.77736224265789],[-59.70345254898291,79.77704561658236],[-59.70669864729996,79.77665323519003],[-59.709780000197675,79.77614939990367],[-59.711576903237145,79.77538682021422],[-59.71190246119459,79.77469121799089]]],"type":"Polygon"},"id":"00000000000000000019_00000000000000000019","properties":{"area":186247.0815077897,"elevation":1254.0441960683993,"id":"00000000000000000019","region":"NO","surface":0.0,"year":2019},"type":"Feature"},{"geometry":{"coordinates":[[[-56.908599494506426,80.40960925489905],[-56.906419147872505,80.40767845681503],[-56.89625211883078,80.40790587377677],[-56.89608249921498,80.40922135076278],[-56.89858862821181,80.41078649797565],[-56.897759171542596,80.41281981843308],[-56.89509725244462,80.41112539456354],[-56.88481896808062,80.4112680544776],[-56.88049829173723,80.41198593901498],[-56.877729030307464,80.41104067132045],[-56.866215452156915,80.40978763962688],[-56.85414910420435,80.40933727249522],[-56.84360340674155,80.40822694052886],[-56.83650912400797,80.4069516293759],[-56.826988734166044,80.40893593324391],[-56.82855391248886,80.40914554126657],[-56.83678577459635,80.4100774805745],[-56.84495927928516,80.41179422524407],[-56.85807796580204,80.41307844216155],[-56.869912262834866,80.41375175191862],[-56.875026857343244,80.41283316678911],[-56.879454920979036,80.41467925480416],[-56.887744048347486,80.41482638871467],[-56.89622113442227,80.41553093248073],[-56.905945959467985,80.41370719171083],[-56.908523546857126,80.41161584936773],[-56.908599494506426,80.40960925489905]]],"type":"Polygon"},"id":"0000000000000000001d_0000000000000000001d","properties":{"area":611752.3534964062,"elevation":1050.1286886053485,"id":"0000000000000000001d","region":"NO","surface":0.0,"year":2019},"type":"Feature"},{"geometry":{"coordinates":[[[-56.7145347657157,80.44826965576267],[-56.71413349367847,80.44711026715882],[-56.71297863741655,80.44597321515994],[-56.71156963840483,80.44484957017046],[-56.70865333817337,80.44377043385904],[-56.706994599443775,80.44265564738546],[-56.70182184824742,80.44165684903506],[-56.69815198956622,80.44060897143909],[-56.69113361384135,80.44002035755341],[-56.684132840124335,80.43986872818843],[-56.677658108198855,80.4403547600477],[-56.67588320469909,80.44124211520716],[-56.675526672822755,80.44242822122445],[-56.68103805846476,80.44306589011866],[-56.68047148883021,80.44408704788897],[-56.67825134567174,80.44525085806683],[-56.68357542378437,80.44615603872747],[-56.68687077230018,80.44669563396594],[-56.685136152363924,80.44740904563442],[-56.689055661948665,80.44845253663243],[-56.694968311391285,80.4489875569227],[-56.69786657402999,80.44962969309952],[-56.69493705403096,80.4506419148837],[-56.702298971346956,80.45086935389702],[-56.708465869817346,80.45013360657282],[-56.7121090538291,80.44926854885702],[-56.7145347657157,80.44826965576267]]],"type":"Polygon"},"id":"0000000000000000001e_0000000000000000001e","properties":{"area":546101.0934999646,"elevation":1107.2318314489874,"id":"0000000000000000001e","region":"NO","surface":0.0,"year":2019},"type":"Feature"},{"geometry":{"coordinates":[[[-58.48083387294655,80.84145091034405],[-58.47775265014387,80.84089796239645],[-58.480797968998864,80.84010871197928],[-58.4764640048387,80.83987687150228],[-58.47351640127754,80.84006856949397],[-58.46953459833973,80.8399036442455],[-58.4668322198517,80.83992586013535],[-58.462319541746666,80.83974309305455],[-58.45803434476262,80.83970741729306],[-58.45448498143358,80.84015780662237],[-58.451796110151555,80.84085337692565],[-58.452179701370035,80.8412769879942],[-58.45148819613394,80.84197709481728],[-58.45291989994285,80.84259685605143],[-58.454819420275044,80.84319885950207],[-58.456719165068456,80.84380084939716],[-58.46120966882859,80.8443002615368],[-58.46561045335913,80.84441173180721],[-58.46973065624605,80.8443359935861],[-58.47356570566721,80.84406838267886],[-58.477400421207996,80.84380535540876],[-58.47855960251438,80.84308739840996],[-58.47783745986327,80.84244085981308],[-58.47451957710466,80.84189235632736],[-58.47242839975371,80.8414954916741],[-58.47727962144001,80.84190575418833],[-58.48083387294655,80.84145091034405]]],"type":"Polygon"},"id":"00000000000000000022_00000000000000000022","properties":{"area":205838.88612087315,"elevation":835.210208039492,"id":"00000000000000000022","region":"NO","surface":0.0,"year":2019},"type":"Feature"},{"geometry":{"coordinates":[[[-58.169976530584066,80.70266587437277],[-58.16718055148399,80.7022600998562],[-58.1639746530539,80.70190331794947],[-58.162271330530885,80.7015733992315],[-58.15935924197509,80.70176065376027],[-58.15590801758133,80.70157784433529],[-58.152884999878914,80.7016892980174],[-58.149705680468465,80.70169377052676],[-58.146958699996844,80.70199256611538],[-58.1438818520035,80.70206832740483],[-58.14135352237102,80.70252317479233],[-58.138927537854926,80.70304934814278],[-58.13885628235765,80.7031697070718],[-58.140261242743264,80.70363347667292],[-58.140269915815914,80.70414623618387],[-58.1428337922084,80.704565411479],[-58.14609376751601,80.70495336641034],[-58.14949571188415,80.7051049820695],[-58.15300084717466,80.70532794594382],[-58.156077448604314,80.70525209107292],[-58.15936856565492,80.70532347948738],[-58.162391852562905,80.705212001258],[-58.164919678020325,80.70475718010707],[-58.166074917343956,80.70419982246419],[-58.1683712502516,80.70375831372564],[-58.16859403575051,80.70323218406828],[-58.169976530584066,80.70266587437277]]],"type":"Polygon"},"id":"00000000000000000024_00000000000000000024","properties":{"area":170031.5520610334,"elevation":1080.180028845338,"id":"00000000000000000024","region":"NO","surface":0.0,"year":2019},"type":"Feature"},{"geometry":{"coordinates":[[[-33.44755182763104,81.20635700162241],[-33.444996818927855,81.2054428430914],[-33.4416303974323,81.20450198903573],[-33.43704646997533,81.2038420259702],[-33.432466924736914,81.20318652579445],[-33.42986709949952,81.20229917903568],[-33.42495805111042,81.20188897700214],[-33.41938385427195,81.20197371548296],[-33.41494266739509,81.20215648817253],[-33.41209750515273,81.20270944410294],[-33.41461723134607,81.20349424954745],[-33.41777421765708,81.20442615563228],[-33.4158968918649,81.20520655663253],[-33.414782137531525,81.20462239112166],[-33.41565608932461,81.20381534479768],[-33.410233677721955,81.20425678957346],[-33.410652823937724,81.20504156435912],[-33.411357343902,81.2057683835946],[-33.41570507136975,81.20612953304246],[-33.4184784487766,81.20657102379322],[-33.41990565870316,81.20738704647327],[-33.4242488150488,81.2079087723484],[-33.42945224155749,81.20810494745356],[-33.434830443001886,81.2078552703518],[-33.44052910885892,81.20767688754756],[-33.445153200976144,81.20705263729633],[-33.44755182763104,81.20635700162241]]],"type":"Polygon"},"id":"00000000000000000008_00000000000000000008","properties":{"area":277697.06439820194,"elevation":1202.8201899392775,"id":"00000000000000000008","region":"NO","surface":0.0,"year":2019},"type":"Feature"},{"geometry":{"coordinates":[[[-60.40216234300725,79.82803096888456],[-60.397507329093415,79.82737552766831],[-60.39158969728702,79.82678244430872],[-60.38567283049287,79.82618493999857],[-60.38091496332247,79.82633654704999],[-60.377160451939936,79.82684042549185],[-60.3736954519212,79.82753162047861],[-60.36928547330773,79.82790620182988],[-60.37242024264091,79.82831190324275],[-60.36858543322837,79.82861961786874],[-60.36916950326847,79.8294311623606],[-60.36906267900212,79.83023828515388],[-60.36830449344806,79.83091607310617],[-60.36661868328823,79.8314422200696],[-60.363997182494884,79.83208877706572],[-60.367573094855025,79.8326372672663],[-60.36927199177064,79.83343539280354],[-60.37348149085207,79.83395268492296],[-60.37801199526494,79.83365393341657],[-60.38265358379559,79.83342653114174],[-60.38665825896402,79.83279335443963],[-60.391420490122016,79.83264175570447],[-60.39447942884556,79.83169193715234],[-60.39615133244804,79.83072879631678],[-60.39773438892679,79.82985034894861],[-60.40069530399436,79.82898530196658],[-60.40216234300725,79.82803096888456]]],"type":"Polygon"},"id":"00000000000000000018_00000000000000000018","properties":{"area":398507.5254525321,"elevation":1132.8299183303088,"id":"00000000000000000018","region":"NO","surface":56.0,"year":2019},"type":"Feature"},{"geometry":{"coordinates":[[[-57.53047476806105,80.55058375904535],[-57.529881697797954,80.54995054955548],[-57.52802191531031,80.54936197661748],[-57.52419173022648,80.54888926986067],[-57.520169634669294,80.54886249788015],[-57.515862178941134,80.54862621866046],[-57.512058510858125,80.54876442408349],[-57.50792040709384,80.54865292671396],[-57.50428626268408,80.54891608281334],[-57.500937397964755,80.54938870565138],[-57.49752624352119,80.54981682842872],[-57.497160668929226,80.55013784960401],[-57.49699092157551,80.55079779835046],[-57.49859210808595,80.55139532957003],[-57.50045125299306,80.55198392107644],[-57.503827173950846,80.55251453038159],[-57.50785353560828,80.55293817258045],[-57.51238845176618,80.55333950975404],[-57.51670024398609,80.55357579156951],[-57.52072700933512,80.55360261331523],[-57.5246419249882,80.55354908576167],[-57.528445436133794,80.5534063652585],[-57.530246917382236,80.55277318052683],[-57.52838755245925,80.5521890255883],[-57.526782318064505,80.55159150332663],[-57.52979656589941,80.55126155437753],[-57.53047476806105,80.55058375904535]]],"type":"Polygon"},"id":"0000000000000000001a_0000000000000000001a","properties":{"area":259235.52167459804,"elevation":1021.0545041529629,"id":"0000000000000000001a","region":"NO","surface":0.0,"year":2019},"type":"Feature"},{"geometry":{"coordinates":[[[-56.70002057671683,80.46843816400168],[-56.69817887896168,80.46780495964475],[-56.69759482216935,80.46713167229625],[-56.696002822487074,80.46648957270784],[-56.693153449962345,80.46588758859244],[-56.68875667230926,80.46573594450275],[-56.684935630468765,80.46603919891733],[-56.68131912052271,80.46651186662449],[-56.677809624186445,80.4670692628233],[-56.6779123520938,80.46714949205665],[-56.675219158062546,80.46793876885796],[-56.67378286380965,80.46868345553382],[-56.67335533114887,80.46939687788785],[-56.67494675240063,80.47003900428382],[-56.6752727457802,80.47072570829697],[-56.67762220130801,80.47134105767556],[-56.67971367517765,80.4719652934301],[-56.68357514593504,80.47252721276658],[-56.68748160243064,80.47291956424198],[-56.69140976993206,80.47269662926857],[-56.69507976169428,80.47226408518961],[-56.69890562691169,80.47196084964027],[-56.69882534751686,80.47126526198878],[-56.69824130983492,80.47059192636597],[-56.698919027564926,80.46986956006164],[-56.69959698391075,80.46915166342882],[-56.70002057671683,80.46843816400168]]],"type":"Polygon"},"id":"0000000000000000001c_0000000000000000001c","properties":{"area":281843.90260054544,"elevation":1116.6684513793273,"id":"0000000000000000001c","region":"NO","surface":0.0,"year":2019},"type":"Feature"},{"geometry":{"coordinates":[[[-33.204223270262275,81.16258197286332],[-33.20353209230929,81.16201570637199],[-33.20155257914406,81.16146722458599],[-33.19818574957441,81.1613290109177],[-33.19477888846163,81.1612175584122],[-33.19107772005739,81.16132451943896],[-33.188321979635106,81.16104361228916],[-33.18466131667095,81.16111937198549],[-33.1842954691356,81.16123537083698],[-33.18627117095291,81.16177933710657],[-33.18584303926141,81.16225201780192],[-33.184126150961575,81.16274253065939],[-33.18313624445803,81.16316163304865],[-33.18058992481729,81.16272469448005],[-33.1777142149038,81.16314832119234],[-33.17820453439132,81.16371015820522],[-33.18004155542792,81.16389739007012],[-33.17857007894776,81.16436560936741],[-33.18202157812604,81.16444145382751],[-33.185133694683,81.16476696487317],[-33.18867025867327,81.16478479365995],[-33.19199646455492,81.16495424159535],[-33.19511798045914,81.16450834212151],[-33.19610305415755,81.16408916678367],[-33.19967946233071,81.16407579274426],[-33.20179760387574,81.16359865127377],[-33.203509917160616,81.16310814787008],[-33.204223270262275,81.16258197286332]]],"type":"Polygon"},"id":"0000000000000000000a_0000000000000000000a","properties":{"area":125888.2316815485,"elevation":1217.9594053415542,"id":"0000000000000000000a","region":"NO","surface":0.0,"year":2019},"type":"Feature"},{"geometry":{"coordinates":[[[-33.00592296649835,81.17521909485629],[-33.00498649473574,81.17483115979022],[-33.00476764322183,81.17453687686631],[-33.00503963778096,81.17418907935355],[-33.004504530961235,81.1738189687037],[-33.0043709134885,81.17346217068993],[-33.00259162665793,81.17308319948509],[-33.00029957034626,81.17306977136354],[-32.99800758991749,81.17306091287328],[-32.99567103743111,81.17308319371068],[-32.99308063483173,81.17328830102315],[-32.990405080552584,81.17355138074652],[-32.99003483178972,81.17366733366781],[-32.98956208503822,81.1740062114595],[-32.98849198321302,81.1743272956638],[-32.98802406319755,81.17466617425488],[-32.989762899982274,81.17507641763882],[-32.99127031353086,81.17535286362285],[-32.992603406170446,81.17574971207088],[-32.9923359376594,81.17609309550438],[-32.994199666375195,81.17641409131238],[-32.996496175254094,81.17642299350294],[-32.999127031161,81.17618670487764],[-33.00062082672609,81.17616889567219],[-33.00291259043966,81.17618222396392],[-33.005588247871025,81.17591468819585],[-33.0050530342712,81.17554458477159],[-33.00592296649835,81.17521909485629]]],"type":"Polygon"},"id":"0000000000000000000b_0000000000000000000b","properties":{"area":82423.01570580777,"elevation":1190.1951608729403,"id":"0000000000000000000b","region":"NO","surface":0.0,"year":2019},"type":"Feature"},{"geometry":{"coordinates":[[[-31.73971181320925,81.04697534853186],[-31.73934619101375,81.04659632845326],[-31.737642773756896,81.04616822498322],[-31.735466999395847,81.04604784377557],[-31.73324143672751,81.045967562361],[-31.730700196091664,81.04609241121439],[-31.72831429842311,81.04611471330797],[-31.725612195086352,81.04634661970343],[-31.72452418334903,81.04660079249817],[-31.723556527730928,81.04693078653422],[-31.722361742912838,81.04725181520861],[-31.720497539944937,81.04755052457807],[-31.71952994048754,81.04788057473888],[-31.719226963937707,81.0482328051692],[-31.720479874777748,81.04864750411569],[-31.722392664216713,81.04893737526471],[-31.724622331157605,81.04901757879632],[-31.727163668156297,81.04889274751847],[-31.729549522972,81.04887042279837],[-31.731828244885314,81.04891953801234],[-31.734111213766276,81.04896408095826],[-31.735970759862933,81.04866534716554],[-31.737165736203764,81.0483442343806],[-31.736800169863056,81.0479652162444],[-31.737103168137523,81.04760856026486],[-31.73851680450143,81.04729640377508],[-31.73971181320925,81.04697534853186]]],"type":"Polygon"},"id":"0000000000000000000e_0000000000000000000e","properties":{"area":83639.65390702165,"elevation":1188.705730843529,"id":"0000000000000000000e","region":"NO","surface":0.0,"year":2019},"type":"Feature"},{"geometry":{"coordinates":[[[-31.37233552531514,81.02966960170102],[-31.372148002812345,81.0291834963161],[-31.369423651299375,81.02896944731087],[-31.366645901656934,81.02879113558032],[-31.363274241466645,81.02899623211128],[-31.360554569282492,81.02878217858155],[-31.35718320353786,81.02898284307169],[-31.354079753454936,81.0290141074591],[-31.351306027080568,81.02883570667991],[-31.34843010494834,81.02901858052405],[-31.345384661806353,81.02901407594263],[-31.34228562249386,81.02904530025839],[-31.338914454832135,81.02924592240095],[-31.3378754242564,81.02961162106277],[-31.33972596229305,81.03008427979977],[-31.3426111339459,81.03019126026963],[-31.345223951394875,81.03047663818178],[-31.347948494361233,81.03068621894222],[-31.35006675695413,81.03098946493004],[-31.353170387892796,81.03095827645359],[-31.35605533349284,81.03106973101556],[-31.359265726457043,81.03097163255026],[-31.362364819943732,81.03094040063864],[-31.36557541995491,81.03084231216938],[-31.36760875670893,81.03044101119073],[-31.36919644540161,81.03002631956815],[-31.37233552531514,81.02966960170102]]],"type":"Polygon"},"id":"0000000000000000000f_0000000000000000000f","properties":{"area":105492.95721088295,"elevation":1207.0126377966276,"id":"0000000000000000000f","region":"NO","surface":0.0,"year":2019},"type":"Feature"},{"geometry":{"coordinates":[[[-31.08578035028144,81.04621731065525],[-31.08516041730886,81.04571787936553],[-31.083657467110925,81.0451827923646],[-31.082596280114323,81.04466104754152],[-31.079871638005457,81.04444703027069],[-31.077151956774568,81.04423302265418],[-31.074374023856564,81.04405015043852],[-31.07099407182078,81.0442508461753],[-31.067720635498585,81.04438014516887],[-31.067002800744245,81.04453618167882],[-31.065843459596532,81.04496876427052],[-31.06668195828511,81.04548152049232],[-31.067074121965266,81.04597202533215],[-31.06446131057716,81.04568662706832],[-31.06285620954135,81.04610137650799],[-31.06369420507372,81.0466141748543],[-31.066472287794348,81.0467925472802],[-31.06763182810899,81.04635996932916],[-31.06852360836478,81.04639562739676],[-31.06958003545576,81.04691289646297],[-31.071698347905606,81.04736332237697],[-31.075136578052536,81.04712696227065],[-31.077967758054246,81.04727412725711],[-31.08085737246783,81.04738559806997],[-31.084348779838297,81.04711355243798],[-31.084397883661275,81.04664089695223],[-31.08578035028144,81.04621731065525]]],"type":"Polygon"},"id":"00000000000000000011_00000000000000000011","properties":{"area":99764.4213933621,"elevation":1201.7892597968068,"id":"00000000000000000011","region":"NO","surface":0.0,"year":2019},"type":"Feature"},{"geometry":{"coordinates":[[[-57.37216774875144,80.5070985906809],[-57.37066054551073,80.5067597018113],[-57.36839495978336,80.50644756431001],[-57.36612990477614,80.50613545219285],[-57.363525733923716,80.5059704034776],[-57.36103346782194,80.50588570379962],[-57.35842894149197,80.50571625010865],[-57.356047671332945,80.50571630033441],[-57.35377831478552,80.50579652442217],[-57.35178062042879,80.50608642056837],[-57.34989423415406,80.50646095546374],[-57.34801271366438,80.50683550869809],[-57.34803494314705,80.50705400158797],[-57.348534263764606,80.50742859453757],[-57.349029295102646,80.50780312684947],[-57.35053628329949,80.50814204472138],[-57.352801718565814,80.50844969204752],[-57.355463857760135,80.50865924383689],[-57.3581212178977,80.5088688535073],[-57.36039578241301,80.50878859155588],[-57.362723136390045,80.50874841834788],[-57.36477436195575,80.50849871904018],[-57.367101749838625,80.50845862467268],[-57.36937193019644,80.50837835014391],[-57.37089239727591,80.5079280030588],[-57.370901133414364,80.50753557164666],[-57.37216774875144,80.5070985906809]]],"type":"Polygon"},"id":"0000000000000000001b_0000000000000000001b","properties":{"area":109411.52038476667,"elevation":1042.58788077301,"id":"0000000000000000001b","region":"NO","surface":0.0,"year":2019},"type":"Feature"},{"geometry":{"coordinates":[[[-56.3739576132112,80.35679564862123],[-56.371059004644465,80.35654596121609],[-56.36876299450103,80.35636312746323],[-56.368513122592866,80.35593511875942],[-56.36676530040781,80.35556050072647],[-56.363817710314194,80.3552707145708],[-56.36172657437132,80.35568535981066],[-56.35898400981382,80.35556050651033],[-56.35679016269275,80.3558949572395],[-56.354096897236275,80.35581464088152],[-56.3515995379026,80.35589939028482],[-56.34885711290488,80.35577455968658],[-56.346761902021825,80.35618922616156],[-56.34686417981716,80.35627393782107],[-56.34811273018399,80.35666640487939],[-56.347862997019995,80.35710779693117],[-56.347368007304006,80.35756267773168],[-56.348117248394864,80.35797290467161],[-56.35086410167944,80.35809777028379],[-56.35320955341742,80.35832065331952],[-56.356103645792906,80.35857038881228],[-56.35879671732937,80.35865515014176],[-56.361695154625984,80.35890479347297],[-56.36404051000106,80.35869525827668],[-56.36648434831083,80.3585703799559],[-56.368526446458674,80.35811113650927],[-56.37061757982673,80.35769197450915],[-56.37271376021398,80.35727277427631],[-56.3739576132112,80.35679564862123]]],"type":"Polygon"},"id":"0000000000000000001f_0000000000000000001f","properties":{"area":127628.65809235907,"elevation":1175.5807572657714,"id":"0000000000000000001f","region":"NO","surface":0.0,"year":2019},"type":"Feature"},{"geometry":{"coordinates":[[[-56.27670039002209,80.3344377617799],[-56.275456238187175,80.33404089878975],[-56.273717084586174,80.33366633033229],[-56.273467440442275,80.33323821565541],[-56.27097899941864,80.33289046263326],[-56.2702346935828,80.33248020125967],[-56.26849555346764,80.33210118750586],[-56.26595841171533,80.33214574822094],[-56.26446449632433,80.3326273931915],[-56.26421014874276,80.33307328580267],[-56.26242226257253,80.33308663553808],[-56.26017908547904,80.3333809409924],[-56.26027726701417,80.33346563951422],[-56.260772307805865,80.33388035473989],[-56.26201620477705,80.33427720698849],[-56.260767881709754,80.33474989600536],[-56.26251134837205,80.33512890670082],[-56.26549447539003,80.33546337961745],[-56.26598955423159,80.33588251770051],[-56.26698378776655,80.33628376423879],[-56.26897244367849,80.33664948522642],[-56.27146078035951,80.33700170841637],[-56.273703798901686,80.33670746876878],[-56.27495200371179,80.33623029683245],[-56.275696889952926,80.33577106082463],[-56.27570130625635,80.33533848855032],[-56.275701446010835,80.33490147259786],[-56.27670039002209,80.3344377617799]]],"type":"Polygon"},"id":"00000000000000000020_00000000000000000020","properties":{"area":99368.18193496509,"elevation":1172.0943100113147,"id":"00000000000000000020","region":"NO","surface":0.0,"year":2019},"type":"Feature"},{"geometry":{"coordinates":[[[-58.50378935707092,80.66342579411771],[-58.503530773495136,80.66291742265928],[-58.50165358797879,80.6624759843437],[-58.49885764136221,80.66207016657063],[-58.495593623590395,80.66168228570228],[-58.49312754038349,80.66149943530844],[-58.4907909832167,80.66107582309957],[-58.487402137297735,80.66092871483272],[-58.48412467163932,80.66086174980568],[-58.48067778815084,80.66067893091106],[-58.47745377130151,80.66064329068472],[-58.47395328654945,80.66042480221036],[-58.471393947046046,80.66083952214979],[-58.469110810820794,80.66144595054276],[-58.46916018266625,80.66164211107818],[-58.469877881652565,80.66212816484715],[-58.47348985085958,80.66242249156538],[-58.476526475654616,80.66266326528891],[-58.47840365836941,80.66310474581863],[-58.48168086797933,80.66317603431874],[-58.48483371499713,80.66348814926666],[-58.48822269796975,80.66363531396468],[-58.491611474800884,80.66377805726722],[-58.49494702175964,80.663885030199],[-58.498117604144575,80.66388058871226],[-58.50128748351573,80.66387614571218],[-58.50378935707092,80.66342579411771]]],"type":"Polygon"},"id":"00000000000000000023_00000000000000000023","properties":{"area":141506.46351930746,"elevation":848.2171532846714,"id":"00000000000000000023","region":"NO","surface":0.0,"year":2019},"type":"Feature"},{"geometry":{"coordinates":[[[-48.364400077371315,81.05648213218294],[-48.35864776871684,81.05582661577245],[-48.35083122249437,81.0560451547703],[-48.34997029824498,81.05631715096912],[-48.34759802611031,81.05764153511225],[-48.34498521844218,81.05896586682249],[-48.34260798787638,81.06029022049326],[-48.34070897270712,81.0616101109916],[-48.33880911402236,81.0629300351806],[-48.336427963928074,81.06425886271009],[-48.33476488354725,81.06557423659712],[-48.337641003836865,81.06684953819075],[-48.33884958363799,81.06814268349588],[-48.34148462299713,81.06942246557533],[-48.34780759656812,81.0702964641678],[-48.351901329532275,81.06906572997082],[-48.34997911962551,81.06778153783796],[-48.34413330688492,81.06690310480298],[-48.34053946225032,81.06563224468208],[-48.34196174835972,81.06431682006301],[-48.344128898065094,81.0630682049862],[-48.34650583235104,81.06174388060069],[-48.349359445797745,81.06041509537634],[-48.35149554131551,81.05909517013869],[-48.351486257825854,81.05779312241087],[-48.357394615849955,81.05695478447372],[-48.364400077371315,81.05648213218294]]],"type":"Polygon"},"id":"00000000000000000003_00000000000000000003","properties":{"area":207460.30045939426,"elevation":1099.0975861357547,"id":"00000000000000000003","region":"NO","surface":0.0,"year":2019},"type":"Feature"},{"geometry":{"coordinates":[[[-56.90579026230187,80.40501191355804],[-56.90220513978185,80.40378565694724],[-56.89756761036914,80.40355829949604],[-56.895708269915595,80.40231864675668],[-56.888613782222585,80.4019886700763],[-56.88459159675768,80.40086938388785],[-56.87913815387223,80.40091401597267],[-56.87644907090448,80.39970560692123],[-56.874755021793675,80.3983589750579],[-56.86969378570322,80.39940683256818],[-56.86258607184349,80.39975464666733],[-56.860614937794125,80.39842139955162],[-56.8550411079281,80.39929087826293],[-56.861399835946614,80.40042352834895],[-56.85694965638035,80.40149814335051],[-56.85092075140888,80.40224284057187],[-56.85920144096252,80.40282253425045],[-56.862608537366945,80.40299640863914],[-56.86881092649142,80.40330854901732],[-56.875477407491815,80.40399525121867],[-56.88124292817128,80.403504776958],[-56.888658401495746,80.40362960298079],[-56.89121782033218,80.40450809901408],[-56.90027424020718,80.40501196240542],[-56.90263310953302,80.40618915403962],[-56.90579026230187,80.40501191355804]]],"type":"Polygon"},"id":"00000000000000000021_00000000000000000021","properties":{"area":289394.79050824174,"elevation":1051.0857178110923,"id":"00000000000000000021","region":"NO","surface":0.0,"year":2019},"type":"Feature"}]}