{"type":"FeatureCollection","features":[{"geometry":{"coordinates":[[[-23.923210906647626,74.74294349426569],[-23.922470690099164,74.73963488216538],[-23.910297311317194,74.7400629791007],[-23.899849569760406,74.73880993986533],[-23.888225013607666,74.73988013991227],[-23.894672628567843,74.74259574181643],[-23.904620911560826,74.74419654471475],[-23.914752207087,74.74287219882518],[-23.909004168339948,74.7455209323436],[-23.89758012632415,74.74544061846962],[-23.887502543546372,74.74392901236052],[-23.876305547011253,74.7431798625058],[-23.865340757157167,74.74481188355995],[-23.854902134023295,74.74659554948127],[-23.843700615389167,74.74584644411274],[-23.83375692087541,74.74424561160538],[-23.83280702042829,74.74463797377499],[-23.830934190875396,74.74768353886833],[-23.838001919815113,74.74997551590478],[-23.848200017634092,74.75140244291916],[-23.859967401057396,74.75024750026076],[-23.87305044364855,74.74971685546177],[-23.88487597890577,74.75003351840992],[-23.89651430302705,74.74896332001],[-23.908799160567867,74.74795108628716],[-23.922006896617727,74.74605599292315],[-23.923210906647626,74.74294349426569]]],"type":"Polygon"},"id":"0000000000000000000c_0000000000000000000c","properties":{"area":1799096.8900643769,"elevation":1564.2180101989477,"id":"0000000000000000000c","region":"NE","surface":0.0,"year":2018},"type":"Feature"},{"geometry":{"coordinates":[[[-23.706837434595165,77.70208772400042],[-23.706534515515806,77.70161059679337],[-23.70501379385425,77.70128508800725],[-23.703493248409444,77.70095505758287],[-23.70165155902204,77.70080349894187],[-23.69980975578775,77.70065184743432],[-23.698209032238573,77.70036645629935],[-23.695890478162976,77.70047349495435],[-23.69365188380822,77.70054038082253],[-23.69125287499527,77.70069204903692],[-23.6908072458801,77.70080796286021],[-23.690909735294685,77.70126725795818],[-23.691212753307738,77.7017443482058],[-23.69233662003708,77.70228838050814],[-23.6937766589911,77.70265845103957],[-23.694900372333265,77.70320249755682],[-23.69666167845652,77.70339869669453],[-23.69655952032947,77.70384461228431],[-23.697428974369334,77.7042681960448],[-23.698543683424028,77.70456246210507],[-23.7011030142659,77.70432176380511],[-23.703457576112854,77.70406756849111],[-23.702944788206278,77.70357257608147],[-23.70550422247932,77.70333180164347],[-23.705811751002916,77.70290817249617],[-23.705713702664852,77.70244440660665],[-23.706837434595165,77.70208772400042]]],"type":"Polygon"},"id":"00000000000000000011_00000000000000000011","properties":{"area":111017.9850446878,"elevation":808.971913739669,"id":"00000000000000000011","region":"NE","surface":0.0,"year":2018},"type":"Feature"},{"geometry":{"coordinates":[[[-24.65381672645123,77.43875100219172],[-24.652420961148945,77.43809108221586],[-24.65042808347953,77.43777896958616],[-24.648586182477825,77.43738207447332],[-24.64652189522882,77.43711453705215],[-24.64407797085367,77.4370699564028],[-24.64119310231629,77.4372839717273],[-24.638958978927178,77.43765413165058],[-24.63632379121708,77.43798851832507],[-24.63464258528757,77.43830062834807],[-24.632814513190233,77.43870199105844],[-24.633202266282595,77.4392816397778],[-24.632778718851274,77.43979446108911],[-24.633568165084597,77.44040979827419],[-24.634963821736758,77.44106975853592],[-24.63650664865665,77.4416449583106],[-24.639320246324896,77.44147112047412],[-24.639940215690217,77.44097168120359],[-24.64193339778461,77.44128376248457],[-24.644822733580767,77.4410697626981],[-24.64733785533834,77.44106973816473],[-24.650151524057705,77.44090029119705],[-24.64956733227858,77.44030276883863],[-24.65175219573129,77.44023141041696],[-24.653379757902815,77.43981226003966],[-24.65359817245922,77.43928168712502],[-24.65381672645123,77.43875100219172]]],"type":"Polygon"},"id":"00000000000000000012_00000000000000000012","properties":{"area":180664.93975283275,"elevation":1107.0929725443555,"id":"00000000000000000012","region":"NE","surface":0.0,"year":2018},"type":"Feature"},{"geometry":{"coordinates":[[[-29.84786239065558,71.63060690473857],[-29.846578251633247,71.62917552481466],[-29.841102371603696,71.62970172764174],[-29.84268537238273,71.63102613366343],[-29.841026601677292,71.6324663540264],[-29.838105920192753,71.63367029730317],[-29.832893337745396,71.63388882751157],[-29.82821549861835,71.63494115547105],[-29.82538419629334,71.63628338983526],[-29.82780098279892,71.637612157784],[-29.825999503443942,71.63898112656939],[-29.824144521709858,71.6404080165708],[-29.822088713406,71.64181711529534],[-29.820818037436776,71.64329302027456],[-29.824108827215614,71.64483149408011],[-29.82946423719804,71.64396642485838],[-29.83278174555612,71.64352489105205],[-29.83741478240914,71.64398424951904],[-29.840246358483206,71.64264204222944],[-29.84229738598727,71.64123296885846],[-29.843764555374502,71.63977034616575],[-29.84464312455622,71.6382587515538],[-29.84454490348481,71.63666686358637],[-29.84639974776944,71.63523990048986],[-29.847278279036107,71.63372832569941],[-29.847376486769793,71.63214979529613],[-29.84786239065558,71.63060690473857]]],"type":"Polygon"},"id":"00000000000000000002_00000000000000000002","properties":{"area":861608.1465181997,"elevation":1467.6135006784245,"id":"00000000000000000002","region":"NE","surface":0.0,"year":2018},"type":"Feature"},{"geometry":{"coordinates":[[[-29.315205070458788,70.94013741594523],[-29.314571841647265,70.9395041878276],[-29.313399017140316,70.93881753812977],[-29.312070137141436,70.93831363108822],[-29.310665542004614,70.93789445522253],[-29.308882032895436,70.93792573850125],[-29.30709380413543,70.93795248993591],[-29.305310221573826,70.93797922170286],[-29.303370418760903,70.9381843580108],[-29.301279206118814,70.93856785621786],[-29.300699553734276,70.93890229040069],[-29.2988801166957,70.93930805509417],[-29.29678446580589,70.93969153263005],[-29.29578109819511,70.94017755353099],[-29.2955938663747,70.9407349239146],[-29.29677101310373,70.94142167420148],[-29.298327286222726,70.94165800428758],[-29.299883546290523,70.94189875299647],[-29.301439683023748,70.94213508954782],[-29.303227869970478,70.94210836048626],[-29.30516744836475,70.94190322226515],[-29.3068754884821,70.94196566462034],[-29.308739239500166,70.94184522417018],[-29.31083061498583,70.9414617395374],[-29.312926350676047,70.94107826642139],[-29.31501774568401,70.94069480389463],[-29.315205070458788,70.94013741594523]]],"type":"Polygon"},"id":"00000000000000000005_00000000000000000005","properties":{"area":241926.42683640152,"elevation":1603.7125198424355,"id":"00000000000000000005","region":"NE","surface":0.0,"year":2018},"type":"Feature"},{"geometry":{"coordinates":[[[-23.561734039263737,75.85805320166352],[-23.555999531570052,75.85690719346864],[-23.549569402920312,75.85695628010947],[-23.542836310999785,75.85756714309518],[-23.535559023159387,75.85738879570334],[-23.527773561482583,75.85789715833248],[-23.527688587331326,75.85870428922438],[-23.526944152579627,75.86048345382393],[-23.526930716553917,75.86218235866669],[-23.52555275517093,75.86360478067526],[-23.52977570903522,75.8651209019639],[-23.53368180756022,75.8664586329686],[-23.53601366021407,75.86764473456479],[-23.541993390895367,75.86806835353468],[-23.542470568208188,75.86626691948032],[-23.54571222335644,75.86613307330055],[-23.54464682871271,75.8673593850155],[-23.55010892942696,75.86603502116557],[-23.54766535327345,75.86454564833802],[-23.542961152727287,75.86276204328252],[-23.53786430233747,75.8619727644191],[-23.54385293923012,75.86070190856107],[-23.549324372528325,75.86181671379767],[-23.555861404203583,75.86170522414506],[-23.559223584291995,75.86018022342442],[-23.5578768280158,75.85857047903785],[-23.561734039263737,75.85805320166352]]],"type":"Polygon"},"id":"0000000000000000000a_0000000000000000000a","properties":{"area":710556.2609104004,"elevation":1182.9084669165538,"id":"0000000000000000000a","region":"NE","surface":0.0,"year":2018},"type":"Feature"},{"geometry":{"coordinates":[[[-23.905945288121764,74.683771207425],[-23.90569989434394,74.6826698245097],[-23.902770364892273,74.68188056718803],[-23.900589978698356,74.68057848879974],[-23.89766026828011,74.67978923579332],[-23.893986056067302,74.67951279761934],[-23.891056355320003,74.67872350015699],[-23.88775660770246,74.67819292347347],[-23.883957389329993,74.67800116626788],[-23.880158176972735,74.67780944592522],[-23.87523541462998,74.67838463585896],[-23.87436152035074,74.67898214582493],[-23.877166245366578,74.67985618853021],[-23.879966609505548,74.68073013784567],[-23.882396775962036,74.68186279856839],[-23.88544681564032,74.6825672757121],[-23.88710562615067,74.68371329929818],[-23.888644156108427,74.68494847500541],[-23.886949521458483,74.68585807532956],[-23.88860845699644,74.68700409749576],[-23.891662749509397,74.68770868494774],[-23.89546185265858,74.68790035129308],[-23.900139395208704,74.68749458791876],[-23.902801584503862,74.68668750978482],[-23.905463541838767,74.68588039554842],[-23.905544133699067,74.68481023154354],[-23.905945288121764,74.683771207425]]],"type":"Polygon"},"id":"0000000000000000000d_0000000000000000000d","properties":{"area":566096.4641862318,"elevation":1494.4619812139474,"id":"0000000000000000000d","region":"NE","surface":0.0,"year":2018},"type":"Feature"},{"geometry":{"coordinates":[[[-23.38753470998663,77.91204447487543],[-23.38636176192782,77.91139346731117],[-23.38395393662961,77.91114374650363],[-23.381876078850286,77.91072013917727],[-23.379641965332123,77.9111348314381],[-23.376654363082984,77.91119279693851],[-23.376453821157735,77.91167879310827],[-23.375258864163936,77.91218271791794],[-23.372195325437314,77.91253055063383],[-23.36954672501811,77.9129140370705],[-23.371089595756693,77.91349812443481],[-23.37039409049981,77.91399312005886],[-23.368779503680173,77.91446130735798],[-23.36903842739257,77.91509002823301],[-23.370206533063797,77.91548686208394],[-23.371539994564433,77.9160532315084],[-23.375022324659533,77.91573664014881],[-23.37710493454299,77.91616018845744],[-23.380172855889377,77.91606212479476],[-23.381661933418602,77.91578568643999],[-23.38514014840108,77.91546902260208],[-23.386959375696616,77.91501426490191],[-23.387115582475722,77.9144256429253],[-23.386232576167895,77.9137478378888],[-23.387222364544183,77.91322613220666],[-23.386963899503286,77.91260189003287],[-23.38753470998663,77.91204447487543]]],"type":"Polygon"},"id":"00000000000000000010_00000000000000000010","properties":{"area":183938.71624406736,"elevation":758.1618133751101,"id":"00000000000000000010","region":"NE","surface":0.0,"year":2018},"type":"Feature"},{"geometry":{"coordinates":[[[-28.592505098146685,72.66295119483492],[-28.592068045021453,72.66202374019304],[-28.591127367736114,72.66105167921124],[-28.589191835922062,72.65999486348524],[-28.58800568998653,72.65900047586439],[-28.586320259290595,72.65796151118032],[-28.584242320447103,72.65705187810104],[-28.581865709947163,72.65644090223797],[-28.57904752195069,72.6562715057606],[-28.576086592382477,72.65625365737579],[-28.57304997760893,72.65631167245792],[-28.569500515025233,72.65688688920693],[-28.565951149481,72.6574665772022],[-28.565875374445522,72.6575379083676],[-28.565317803982403,72.65838064557192],[-28.565902165449035,72.65915650825181],[-28.565839541503465,72.66003946461758],[-28.567993398708456,72.66087776246816],[-28.570147091139553,72.66171160128826],[-28.572082328008843,72.66277291378566],[-28.57423617986625,72.66360673173463],[-28.576760049056738,72.66407049299384],[-28.57957804768241,72.6642399087116],[-28.582467640790675,72.66433361278696],[-28.585651311702193,72.66412844828622],[-28.589205437423143,72.66354874999891],[-28.592505098146685,72.66295119483492]]],"type":"Polygon"},"id":"00000000000000000000_00000000000000000000","properties":{"area":573936.2408453381,"elevation":1712.8596339962398,"id":"00000000000000000000","region":"NE","surface":0.0,"year":2018},"type":"Feature"},{"geometry":{"coordinates":[[[-29.966197966715168,71.56024233654378],[-29.965217100414716,71.55943074234284],[-29.963847991133377,71.5585879718936],[-29.96191734960172,71.55815991581316],[-29.960089097869314,71.5576114499434],[-29.958002295177963,71.5573661897573],[-29.955549663768487,71.55755343097711],[-29.95309715334759,71.55774071114556],[-29.950956923679602,71.5575579285174],[-29.94850432712793,71.55774525426978],[-29.946051932379905,71.55793250403936],[-29.945998309968694,71.55799488043574],[-29.946007356599605,71.55872175452392],[-29.945235809499486,71.55938174846743],[-29.94408093629397,71.56001046353131],[-29.943113272943947,71.5606525355885],[-29.94370639364094,71.56142846421149],[-29.945739632819283,71.56173609131342],[-29.947514367986468,71.56234705538553],[-29.949547774887677,71.56265463276054],[-29.952107359746293,71.56234257160196],[-29.95378394259646,71.56208833228696],[-29.956289810309652,71.56184313065044],[-29.958323352741647,71.56214635639625],[-29.960780111847683,71.5619590533291],[-29.962969656501134,71.56207945325377],[-29.9656316652516,71.5616469448508],[-29.964650763362904,71.5608353487027],[-29.966197966715168,71.56024233654378]]],"type":"Polygon"},"id":"00000000000000000003_00000000000000000003","properties":{"area":348507.15322844544,"elevation":1654.8263716922818,"id":"00000000000000000003","region":"NE","surface":1.7450980392156863,"year":2018},"type":"Feature"},{"geometry":{"coordinates":[[[-30.053636565918755,71.53364375372922],[-30.053132789195722,71.53201620262406],[-30.052820558369636,71.53040648850008],[-30.04948068893268,71.5289349113786],[-30.044406211018117,71.52903306346644],[-30.039117661174238,71.52937640324426],[-30.033949598423476,71.53032615686456],[-30.03012817360934,71.53066059666365],[-30.025231953780953,71.53103963659068],[-30.020514264140207,71.53169513633378],[-30.01608193794173,71.53250670832794],[-30.01188153821065,71.53254679733229],[-30.011480203581893,71.53277423769153],[-30.009259601679865,71.53416995048521],[-30.009281859482815,71.53562363955194],[-30.009005405669477,71.53718430405596],[-30.013201504651896,71.53813404635476],[-30.01820466866941,71.53763465188268],[-30.02244512792218,71.53680972847062],[-30.025981192114156,71.53730473664135],[-30.029321020258934,71.53778628899822],[-30.032223811076538,71.53730467190623],[-30.036629440494195,71.5380092100406],[-30.04212754042327,71.53742065237056],[-30.04764797272144,71.53630144642293],[-30.051224249943616,71.53502161436305],[-30.053636565918755,71.53364375372922]]],"type":"Polygon"},"id":"00000000000000000004_00000000000000000004","properties":{"area":1138638.2935046586,"elevation":1715.4539819120387,"id":"00000000000000000004","region":"NE","surface":0.0,"year":2018},"type":"Feature"},{"geometry":{"coordinates":[[[-29.453258691318776,70.89831555427699],[-29.451840827530532,70.89722750737505],[-29.449580024529492,70.89644715237998],[-29.44670830515274,70.89637585043344],[-29.44368951225169,70.89648281173989],[-29.440287050974256,70.89703573898224],[-29.436813652183368,70.89768229621227],[-29.434098106459192,70.89743260015236],[-29.43061984554978,70.89807470583622],[-29.430044589002836,70.89840469525626],[-29.428475078747876,70.89922070075481],[-29.425540997831032,70.89991186408217],[-29.424511043126365,70.90077693489106],[-29.42429679999177,70.90171778086105],[-29.42517081399168,70.90275675686526],[-29.427132901686633,70.90389380465426],[-29.429701233409524,70.90432191777289],[-29.432189485179038,70.90483474893223],[-29.435515924838015,70.90437098801326],[-29.438994108504048,70.90372884246415],[-29.441923769016363,70.90303773574294],[-29.444313772236686,70.90229746255044],[-29.446699517830442,70.90155283787728],[-29.44908950706777,70.90081264756589],[-29.45038709324019,70.89997424833919],[-29.45168915743769,70.89913151612309],[-29.453258691318776,70.89831555427699]]],"type":"Polygon"},"id":"00000000000000000006_00000000000000000006","properties":{"area":621990.1848641502,"elevation":1652.1338821915133,"id":"00000000000000000006","region":"NE","surface":0.0,"year":2018},"type":"Feature"},{"geometry":{"coordinates":[[[-30.341921953639492,70.13097111291533],[-30.341734707132893,70.13036022834176],[-30.340530720551634,70.12966008947544],[-30.339219694941235,70.12909826658844],[-30.337908695888654,70.12854090314883],[-30.336544233911482,70.12804588726455],[-30.33513076996171,70.12762232317128],[-30.33355218698013,70.1274082823399],[-30.33186670474447,70.12733250645148],[-30.330239182502194,70.12718977898588],[-30.328553534547442,70.12711400514294],[-30.326546941517087,70.12745285706762],[-30.326132230537347,70.12771147336491],[-30.324687550668013,70.1281752624141],[-30.32323819111581,70.12863899043859],[-30.324036595420733,70.12930340915453],[-30.323403199735118,70.12983852487811],[-30.323996367276063,70.13048502716623],[-30.32520031509678,70.13118510980102],[-30.32661825081429,70.13160873959797],[-30.32814336780416,70.13189415120279],[-30.32977084985672,70.13203686192686],[-30.331349344771706,70.13225090358148],[-30.333088431327088,70.13225981508795],[-30.334934657281014,70.13212602624361],[-30.336776033802455,70.1319922070646],[-30.33862212313285,70.13186296001857],[-30.340677926611058,70.1314527075773],[-30.341921953639492,70.13097111291533]]],"type":"Polygon"},"id":"00000000000000000008_00000000000000000008","properties":{"area":296515.94558200426,"elevation":1615.2482766127275,"id":"00000000000000000008","region":"NE","surface":0.0,"year":2018},"type":"Feature"},{"geometry":{"coordinates":[[[-30.30820207431578,70.11233649505756],[-30.30792118455161,70.1115695265026],[-30.306204589701842,70.11097203769168],[-30.304492228193602,70.11037446512945],[-30.30272192661598,70.10984390918797],[-30.300844721808872,70.1094559481055],[-30.298650636472907,70.10948267605137],[-30.296452427111195,70.10950943497528],[-30.29393753378407,70.10995090221147],[-30.292586384229665,70.1105707341328],[-30.291034517149544,70.11117268074443],[-30.28948292339209,70.11177464849034],[-30.288537563613026,70.11243013265607],[-30.288617825154965,70.11317934000485],[-30.29023646275016,70.11362073768338],[-30.288479521920006,70.11420484918224],[-30.28936691423461,70.11502534626263],[-30.290570929703055,70.11572544431787],[-30.29250165119904,70.11604648778228],[-30.294481525554705,70.11629616855829],[-30.296519384417888,70.11647901774853],[-30.298887207918515,70.11594838853078],[-30.301254888655038,70.11542219486377],[-30.303417480353847,70.11487373922391],[-30.305174453882035,70.1142896076733],[-30.30652547548845,70.11366977811913],[-30.307667166692816,70.11302770481645],[-30.30820207431578,70.11233649505756]]],"type":"Polygon"},"id":"00000000000000000009_00000000000000000009","properties":{"area":421858.6930099474,"elevation":1595.7352476313333,"id":"00000000000000000009","region":"NE","surface":0.0,"year":2018},"type":"Feature"},{"geometry":{"coordinates":[[[-28.058857815255426,72.60997713034783],[-28.057854508485935,72.60889804302687],[-28.05496942211648,72.60818457479436],[-28.051999731231493,72.60755137265909],[-28.049029779341073,72.60692265756683],[-28.04832540213554,72.6061378564684],[-28.047067811062842,72.60530398883984],[-28.04367892552302,72.60508545323405],[-28.042898691647853,72.60555372078115],[-28.04299227190556,72.60664171869881],[-28.039781579291905,72.60743098399513],[-28.042283254033585,72.60792592963666],[-28.046260714916944,72.60756918206444],[-28.048811430603983,72.6086126576552],[-28.051950594628813,72.60908084668095],[-28.05358697679888,72.61012873822024],[-28.05054582177394,72.61075298253249],[-28.04715703371265,72.61053445910753],[-28.044352417755384,72.60973634239186],[-28.04194420281225,72.61032938612577],[-28.040388281383525,72.61126581725084],[-28.042492883474235,72.61244744754033],[-28.045796956859817,72.61275065030263],[-28.049395606637745,72.61217548880052],[-28.052606098566635,72.61139062471472],[-28.056200046034142,72.61081548599986],[-28.058857815255426,72.60997713034783]]],"type":"Polygon"},"id":"00000000000000000001_00000000000000000001","properties":{"area":223800.17716585513,"elevation":1450.9069271816231,"id":"00000000000000000001","region":"NE","surface":0.0,"year":2018},"type":"Feature"},{"geometry":{"coordinates":[[[-29.353629194611287,70.88213790547847],[-29.351555445710527,70.88152253314593],[-29.348973773668376,70.88149578524418],[-29.34630718765011,70.88157160669066],[-29.343725437230695,70.88154932123206],[-29.34097417166272,70.88172319008056],[-29.338222806908764,70.88189712563764],[-29.335471643770138,70.88207097498099],[-29.332720381427944,70.88224489103564],[-29.329630165624117,70.88281116927809],[-29.32671399895001,70.88318575463198],[-29.32362383159143,70.88375207002855],[-29.320872429887356,70.88392597188947],[-29.32023030710867,70.88429165571712],[-29.321786556212746,70.88475541580137],[-29.324368306092833,70.88478211206241],[-29.327119740812268,70.88460826247213],[-29.32987101848324,70.88443428844582],[-29.332622196897894,70.88426038113437],[-29.335373495944197,70.88408650230977],[-29.338124776765355,70.88391257551167],[-29.340706613164773,70.88393487399544],[-29.343627341605,70.88356476913293],[-29.346378625641087,70.88339088954959],[-29.349129891438363,70.88321696198986],[-29.35205052098239,70.88284689335569],[-29.353629194611287,70.88213790547847]]],"type":"Polygon"},"id":"00000000000000000007_00000000000000000007","properties":{"area":228305.55217384695,"elevation":1597.9820000957443,"id":"00000000000000000007","region":"NE","surface":0.0,"year":2018},"type":"Feature"},{"geometry":{"coordinates":[[[-23.608576808102487,74.78376214240001],[-23.607105283664062,74.78251802582196],[-23.606922334740474,74.78097069978767],[-23.604572550285653,74.77920045474528],[-23.602944935846594,74.77750596822463],[-23.600318404666655,74.77592302672467],[-23.597545085092317,74.77443815258033],[-23.594494903302547,74.77314057470257],[-23.591146190485482,74.77148618693111],[-23.587378311704043,74.77011731322895],[-23.582758590618734,74.7693102200086],[-23.578000748791375,74.76860120793673],[-23.572676422592306,74.76827120446771],[-23.566647856948432,74.76841392083261],[-23.565439397026974,74.76894449871898],[-23.569630856636135,74.77003258949591],[-23.5749550596143,74.77036253719851],[-23.57943201257481,74.7712632731477],[-23.583342728027365,74.77253854592868],[-23.58781944070162,74.77343483260988],[-23.59173459024309,74.77471462948395],[-23.59263990161639,74.77633322917944],[-23.59626959178997,74.77780030620848],[-23.597455824215217,74.77923166654497],[-23.60008653050487,74.78081465594566],[-23.602436553915357,74.78258488319462],[-23.604782093344074,74.78435523240272],[-23.608576808102487,74.78376214240001]]],"type":"Polygon"},"id":"0000000000000000000e_0000000000000000000e","properties":{"area":429529.3541820185,"elevation":1698.841780327814,"id":"0000000000000000000e","region":"NE","surface":0.0,"year":2018},"type":"Feature"},{"geometry":{"coordinates":[[[-23.599475778336316,74.70378366202783],[-23.598026443655343,74.70308809440513],[-23.597219443776325,74.70223640881939],[-23.596769095608714,74.70142931006185],[-23.596318626876897,74.70061773097032],[-23.594793747472544,74.6996946950311],[-23.59434313576384,74.6988831347214],[-23.59289415530387,74.6981875396059],[-23.58982616327321,74.69830791759327],[-23.58862229012293,74.69883850677282],[-23.58620561527149,74.69935136681346],[-23.58679409843883,74.70006928038792],[-23.588461856532543,74.70089422942036],[-23.58783730963253,74.70159425998722],[-23.58864458773179,74.70244150362157],[-23.587302235297727,74.70307022280564],[-23.587391609275674,74.70384167979142],[-23.587841971196912,74.70465324113525],[-23.588648959618983,74.70550042272983],[-23.58838591043479,74.70623617083305],[-23.590611133247595,74.70668658434668],[-23.59410706979305,74.70628522851399],[-23.59688493834705,74.70580814529681],[-23.59930190898284,74.70529090826805],[-23.598494773757377,74.70444363318128],[-23.599475778336316,74.70378366202783]]],"type":"Polygon"},"id":"0000000000000000000f_0000000000000000000f","properties":{"area":241207.93295383628,"elevation":1563.8535886178126,"id":"0000000000000000000f","region":"NE","surface":0.0,"year":2018},"type":"Feature"},{"geometry":{"coordinates":[[[-23.179196746833206,76.05040993648048],[-23.178492078156026,76.05000861976656],[-23.177546795488755,76.0497544209605],[-23.17684219201214,76.0493575452274],[-23.175544591904334,76.0493129361994],[-23.174483178647648,76.0491301678321],[-23.17377869868059,76.0487288314433],[-23.17271765198129,76.04854602334228],[-23.17141985226113,76.04850141876335],[-23.17012667862491,76.04846126487233],[-23.168708631343048,76.04848801697602],[-23.16729521026798,76.04851476999619],[-23.16652835042012,76.04877341552746],[-23.165172581279148,76.04896961767773],[-23.163522703370337,76.04913904723107],[-23.162461390161596,76.04936649531496],[-23.162283173213336,76.04968304489014],[-23.163344430885886,76.04986587324521],[-23.16475796302764,76.04983914498465],[-23.16581927029322,76.05002196074297],[-23.167116709091065,76.05006654743863],[-23.16841447302242,76.05010664791877],[-23.169707460822274,76.05015128886124],[-23.17100508659403,76.05019593208279],[-23.171830138587687,76.05052142274921],[-23.17312767607207,76.05056152451817],[-23.17442536254623,76.05060614682094],[-23.175838701779302,76.05057937613186],[-23.177016015190983,76.05069082967884],[-23.178429517510676,76.05066412208664],[-23.179196746833206,76.05040993648048]]],"type":"Polygon"},"id":"0000000000000000000b_0000000000000000000b","properties":{"area":65124.982218505356,"elevation":1019.9660244799386,"id":"0000000000000000000b","region":"NE","surface":0.0,"year":2018},"type":"Feature"}]}