{"type":"FeatureCollection","features":[{"geometry":{"coordinates":[[[-38.50384263225018,66.8558371845692],[-38.4993923718798,66.85523964658779],[-38.495843016836055,66.85500331532756],[-38.49261019033031,66.85367002458268],[-38.488387334938466,66.85229665944755],[-38.48665735007189,66.8513468573888],[-38.48440106429738,66.849429477064],[-38.48551561751614,66.8476591807088],[-38.48583676763495,66.84585777048008],[-38.48371434417336,66.84418109901935],[-38.47910805667847,66.84413206178628],[-38.47454632469189,66.84392692995006],[-38.47365891863646,66.84491240328948],[-38.472981185079405,66.84654440095619],[-38.47087654748057,66.84826562491773],[-38.471344726254685,66.85010724343107],[-38.475010197422655,66.8520112785262],[-38.47881366478568,66.85344714049445],[-38.4781359545399,66.85507465504955],[-38.47920156513695,66.85694303817397],[-38.48185482106572,66.85888277920554],[-38.48614888831557,66.86002429709114],[-38.49064373307671,66.86046131613581],[-38.49534805180779,66.85948913898294],[-38.49888422815112,66.85837887048389],[-38.503717848965024,66.85764760338127],[-38.50384263225018,66.8558371845692]]],"type":"Polygon"},"id":"00000000000000000003_00000000000000000003","properties":{"area":1270049.1141609072,"elevation":1811.8140817950161,"id":"00000000000000000003","region":"SE","surface":0.0,"year":2018},"type":"Feature"},{"geometry":{"coordinates":[[[-38.69925371385893,66.79379325264128],[-38.69720711420406,66.7925179724545],[-38.69733643568769,66.79134077920476],[-38.695793597585656,66.78969092366683],[-38.6944067176716,66.78820601950713],[-38.69064769723112,66.78733198029221],[-38.686732576191,66.78700205432744],[-38.683281263896426,66.78645806724208],[-38.67985232365863,66.78583376150648],[-38.67618239457574,66.78464764316409],[-38.67200435893329,66.78525406372906],[-38.67147810627152,66.78570447341805],[-38.66945367569417,66.78719826615486],[-38.668865082655046,66.78859397514005],[-38.672204942567745,66.78953037234518],[-38.670577409323094,66.79103755940939],[-38.670537331313554,66.79261604609364],[-38.67068890396685,66.79420350609578],[-38.67341779070022,66.79519338120235],[-38.676343083507945,66.7961922634801],[-38.67950894350964,66.7977528883752],[-38.68320552886056,66.79886322199384],[-38.68723210391343,66.79880085164035],[-38.691539607591054,66.79772174991058],[-38.6931670354931,66.79621453297504],[-38.69624387003312,66.79524245595837],[-38.69925371385893,66.79379325264128]]],"type":"Polygon"},"id":"00000000000000000004_00000000000000000004","properties":{"area":1435772.82376227,"elevation":1764.9684139987357,"id":"00000000000000000004","region":"SE","surface":0.0,"year":2018},"type":"Feature"},{"geometry":{"coordinates":[[[-38.56242629480688,66.83161533673682],[-38.557744206542786,66.82974694442495],[-38.55439105521166,66.83094205635535],[-38.55231301562574,66.83258740067616],[-38.55089065777054,66.83125865847276],[-38.54800564725307,66.83081272219242],[-38.54390780432994,66.83110702342773],[-38.543216629805315,66.82862330186157],[-38.537985894705336,66.82657211338524],[-38.537638184603566,66.82568918667215],[-38.53912745493037,66.82330356249855],[-38.53592145821563,66.82189449659282],[-38.535475491619934,66.82274620678224],[-38.53352695544566,66.82463683480847],[-38.531712041787515,66.82605486024329],[-38.52778353545388,66.82785635928748],[-38.52589721904782,66.83022409923115],[-38.52737777322707,66.8327390549132],[-38.53230515023867,66.83446024818109],[-38.533789848000055,66.83697964637196],[-38.538690486584514,66.83878115227914],[-38.54483511260273,66.83905308864297],[-38.55138552981668,66.83792051804922],[-38.55750791965846,66.83827273547278],[-38.561436428513794,66.83647128471412],[-38.560147683688974,66.83396530339041],[-38.56242629480688,66.83161533673682]]],"type":"Polygon"},"id":"00000000000000000005_00000000000000000005","properties":{"area":1606384.6732278618,"elevation":1786.726063762195,"id":"00000000000000000005","region":"SE","surface":0.0,"year":2018},"type":"Feature"},{"geometry":{"coordinates":[[[-38.449017945456696,66.80680937697996],[-38.448197574761636,66.8055028458733],[-38.44737262669835,66.80420080577098],[-38.44443403320983,66.80327776158101],[-38.441085137822824,66.80375933082094],[-38.43810212042928,66.80299238881737],[-38.43506989010998,66.80238144152312],[-38.432180445679826,66.80129786729101],[-38.42919729482148,66.80053092171227],[-38.426303301684605,66.7994518095765],[-38.42307044438883,66.7995410457437],[-38.42278069051958,66.79984427602858],[-38.42127351417658,66.80088324918468],[-38.42071169825181,66.80212286908234],[-38.42172828389192,66.80343378273925],[-38.422950087582905,66.8047537252923],[-38.4225844986303,66.80600223629334],[-38.423801763121666,66.80732211551928],[-38.42667349263174,66.80848150047863],[-38.4294827601485,66.80916377640284],[-38.43219819265458,66.81015813941075],[-38.435163495558,66.81100093705172],[-38.43835167951114,66.81106780219324],[-38.44165604944591,66.81074232115623],[-38.44496018320689,66.81041680607821],[-38.44710510410192,66.80924852720051],[-38.44865677510857,66.80805789491522],[-38.449017945456696,66.80680937697996]]],"type":"Polygon"},"id":"00000000000000000009_00000000000000000009","properties":{"area":1041883.3598384409,"elevation":1730.757132625866,"id":"00000000000000000009","region":"SE","surface":0.0,"year":2018},"type":"Feature"},{"geometry":{"coordinates":[[[-37.77394128616768,66.99105495152176],[-37.77203290648661,66.98882094136214],[-37.77057907378924,66.98581554760713],[-37.76542004660086,66.98611430275847],[-37.75930211094289,66.98438418677381],[-37.75244392590008,66.9811914700277],[-37.743882525931234,66.98076778686966],[-37.743744297385305,66.98305538068209],[-37.73776902290173,66.9821233914683],[-37.73335017733442,66.9801613955441],[-37.72621106740935,66.97909115230102],[-37.72373621160348,66.98047353994957],[-37.71990602371044,66.98352801353022],[-37.728338190807804,66.98498166455867],[-37.73608358571368,66.98544541296305],[-37.74281688175188,66.98404078385242],[-37.75253762651495,66.98214564380926],[-37.757375627953664,66.98595374874037],[-37.76202651413694,66.98721569149889],[-37.75245299569074,66.98863814485233],[-37.74476541119807,66.98738515263751],[-37.73983815175298,66.98634615083938],[-37.74108673478612,66.98997585376404],[-37.74984868749609,66.99104604366653],[-37.75907021518954,66.99071157133585],[-37.76796160924535,66.99138939060043],[-37.77394128616768,66.99105495152176]]],"type":"Polygon"},"id":"0000000000000000000a_0000000000000000000a","properties":{"area":1280140.7577521284,"elevation":1969.0607268005476,"id":"0000000000000000000a","region":"SE","surface":0.0,"year":2018},"type":"Feature"},{"geometry":{"coordinates":[[[-38.58806614506798,66.69779775981115],[-38.58749981377716,66.69556371223001],[-38.5875088458284,66.69342782553893],[-38.582193464440024,66.69248244328942],[-38.57930842398339,66.69140335943402],[-38.57676223062293,66.69263410865582],[-38.57243243480898,66.6917289019442],[-38.56847295049086,66.69092180543159],[-38.569440579339506,66.69033320607576],[-38.57021186582637,66.6883132392733],[-38.57063543913086,66.68611934190761],[-38.56552090417847,66.68517847895912],[-38.559741860867064,66.68586960120147],[-38.55969727608252,66.68602572173937],[-38.55679894502194,66.68779149962964],[-38.558341811657336,66.69007453613119],[-38.56179312849214,66.69196521084221],[-38.56156565423204,66.69416803385539],[-38.55952343404121,66.6950242165725],[-38.559278163696284,66.69659381184417],[-38.561044023942706,66.69809644559166],[-38.56219442117582,66.70035729546842],[-38.56735801674077,66.70185549099402],[-38.573253072279,66.70077192847711],[-38.578902687126686,66.70055344678899],[-38.58468614313141,66.69986225340023],[-38.58806614506798,66.69779775981115]]],"type":"Polygon"},"id":"0000000000000000000d_0000000000000000000d","properties":{"area":1541104.353746595,"elevation":1543.1730785947716,"id":"0000000000000000000d","region":"SE","surface":0.0,"year":2018},"type":"Feature"},{"geometry":{"coordinates":[[[-38.415079754305566,66.74206318441314],[-38.41110234008726,66.7406184728645],[-38.405006645548355,66.74026179512406],[-38.399611024614096,66.74025282647304],[-38.39479977149486,66.73892397175106],[-38.39795239209036,66.73772456083306],[-38.393729635728114,66.73848252556424],[-38.3893284991063,66.73986041988829],[-38.38433432114153,66.74121152584291],[-38.37803347500454,66.74155487623023],[-38.37168378211633,66.74205432673844],[-38.37137163470119,66.74243781308282],[-38.370903429596,66.74470748886014],[-38.37048431639983,66.74682108728561],[-38.36594942965735,66.74795811220794],[-38.35974224661726,66.74933153840651],[-38.35729870565441,66.7515120785117],[-38.362065541992145,66.75299690772545],[-38.36834404437347,66.75273384348573],[-38.37485422431246,66.75168599130215],[-38.38122632983831,66.75111070440393],[-38.38746006516241,66.75099927194837],[-38.39187457288216,66.74890796320517],[-38.39694010877529,66.74732500151036],[-38.40374470223141,66.74526490641128],[-38.41022832337256,66.7442927722758],[-38.415079754305566,66.74206318441314]]],"type":"Polygon"},"id":"0000000000000000000e_0000000000000000000e","properties":{"area":2072019.4158089429,"elevation":1624.1097442404948,"id":"0000000000000000000e","region":"SE","surface":0.0,"year":2018},"type":"Feature"},{"geometry":{"coordinates":[[[-41.554313624084436,65.03781707974345],[-41.55411742819495,65.03737561204575],[-41.553412892538795,65.03692529291713],[-41.55296262683811,65.03647937143491],[-41.55251207122898,65.03603344043938],[-41.551807593370235,65.03558311463424],[-41.550844566342434,65.03512381708533],[-41.54988583581865,65.03466451885924],[-41.5488779376733,65.03453074535557],[-41.547852350746105,65.0345039763638],[-41.5468001201566,65.03469574055741],[-41.545716424233625,65.03510151911959],[-41.54539540236097,65.03552959380906],[-41.5448246306771,65.0359487084361],[-41.544508072614896,65.03637235646251],[-41.544191588297544,65.0368004458037],[-41.54412904196411,65.03723294604487],[-41.544066714322746,65.03766101468982],[-41.544517016673886,65.03810691872933],[-41.54547562477272,65.03856620486512],[-41.54645227482876,65.03891847791718],[-41.547428865763564,65.03926630225884],[-41.54840526072039,65.03961855169639],[-41.54941302804986,65.03975232308342],[-41.5504208055518,65.03988608606598],[-41.551508872795694,65.03948037759517],[-41.5525924995393,65.03907459157675],[-41.55367609699961,65.03866879670142],[-41.55399703535485,65.03824069362899],[-41.554313624084436,65.03781707974345]]],"type":"Polygon"},"id":"00000000000000000017_00000000000000000017","properties":{"area":206192.08069329968,"elevation":1324.6902280804666,"id":"00000000000000000017","region":"SE","surface":0.0,"year":2018},"type":"Feature"},{"geometry":{"coordinates":[[[-33.833032236475056,67.72665055951424],[-33.83133348504679,67.72544219825988],[-33.83162331277489,67.72438534761154],[-33.82967471006958,67.72315913159007],[-33.82673613050855,67.72333302571174],[-33.82429246171788,67.7225571143277],[-33.821893625895015,67.72169205272834],[-33.8192046923206,67.72139327453968],[-33.81626612531811,67.72156271076102],[-33.81382249824025,67.72079131312175],[-33.81158408821934,67.72160736387406],[-33.81363081211543,67.72264187409814],[-33.811646506319725,67.72347574667423],[-33.80994765823219,67.7222672316393],[-33.8070090070568,67.7224411570841],[-33.80596568768962,67.72344445514616],[-33.807669010608755,67.72465288125902],[-33.81021070159005,67.72523700178766],[-33.81290395824881,67.7255358319838],[-33.81534766594629,67.72630722317949],[-33.817545841548366,67.72755579641274],[-33.82048448201418,67.72738188045568],[-33.82282986370862,67.72834502790337],[-33.82567044067931,67.72835837380956],[-33.82865806035598,67.72809084277327],[-33.83174384628958,67.72763605165466],[-33.833032236475056,67.72665055951424]]],"type":"Polygon"},"id":"00000000000000000002_00000000000000000002","properties":{"area":579205.8452289215,"elevation":876.6652052761029,"id":"00000000000000000002","region":"SE","surface":0.0,"year":2018},"type":"Feature"},{"geometry":{"coordinates":[[[-38.15675949517111,66.9113619259596],[-38.155185598471576,66.91057263780378],[-38.15500270908282,66.9098547147484],[-38.155020454565744,66.90914130020701],[-38.15543071974525,66.90845010721904],[-38.15445423569752,66.90769202230301],[-38.15275974554692,66.90729522252666],[-38.151069724854295,66.90689834207761],[-38.14908994233245,66.90743785126645],[-38.14715921672818,66.90782137599585],[-38.14522844224396,66.90820487266623],[-38.14520156839285,66.90828068381319],[-38.14498763676167,66.90898520910393],[-38.14457286223931,66.90967638056264],[-38.14336440585237,66.91033187475928],[-38.141505077279426,66.91048349472074],[-38.13950282877769,66.91109882030456],[-38.13869128605616,66.91177211013425],[-38.13966779281886,66.91253022721492],[-38.14084506346429,66.91330163265945],[-38.14261093306908,66.9134621258445],[-38.144421118335245,66.91347105215496],[-38.14625847821705,66.91339527568995],[-38.148166826893814,66.91309204950647],[-38.15014672500976,66.91255252413443],[-38.15198386478486,66.912481157563],[-38.153745335646796,66.91264167312862],[-38.15575178081614,66.91202629952285],[-38.15675949517111,66.9113619259596]]],"type":"Polygon"},"id":"00000000000000000007_00000000000000000007","properties":{"area":363220.3283220784,"elevation":1860.8145061391938,"id":"00000000000000000007","region":"SE","surface":0.0,"year":2018},"type":"Feature"},{"geometry":{"coordinates":[[[-38.395482032362835,66.79266067317735],[-38.394991546873236,66.79161276203068],[-38.39267280752776,66.79063624844747],[-38.390260499428464,66.78997182693529],[-38.38840551330707,66.7908368578762],[-38.38610013421384,66.79049352530032],[-38.38350489922379,66.79045335215349],[-38.38098087916413,66.79018138059246],[-38.37826991964579,66.79052915280003],[-38.37554097344796,66.79096175457587],[-38.37447519703807,66.7918580084038],[-38.373975909545265,66.79286576915008],[-38.372317074631276,66.79373530067228],[-38.37322678155361,66.79472966323567],[-38.375799576687726,66.79484556701132],[-38.37708824920021,66.79387799983722],[-38.3776946947782,66.79453792072776],[-38.37858208513863,66.79560813890716],[-38.38097209832211,66.79634833402824],[-38.38370120799385,66.79592026153577],[-38.386251706083186,66.79611640425871],[-38.38900736221331,66.79560810453498],[-38.391624880536796,66.7955680304625],[-38.39449205175561,66.79467169928508],[-38.39459011852358,66.7936505763395],[-38.395482032362835,66.79266067317735]]],"type":"Polygon"},"id":"0000000000000000000c_0000000000000000000c","properties":{"area":535724.3609612804,"elevation":1693.7245391837657,"id":"0000000000000000000c","region":"SE","surface":0.0,"year":2018},"type":"Feature"},{"geometry":{"coordinates":[[[-40.656250797668754,65.70423868889878],[-40.65616147000006,65.70368130249035],[-40.6556934356757,65.70311498999158],[-40.65445362626649,65.70252191744915],[-40.653173976583794,65.70216519639811],[-40.651862996847846,65.7019645385558],[-40.65046722494814,65.70223653085274],[-40.64905804477936,65.70258879790704],[-40.64764461682335,65.70294107556637],[-40.6473682906693,65.70340927662411],[-40.647265727420724,65.70395773912563],[-40.646783963929096,65.7044972898726],[-40.64629796683713,65.70503686608933],[-40.64524117974361,65.70555853817237],[-40.644946923917836,65.70610258969892],[-40.6459903743063,65.7066911890274],[-40.64722988183174,65.70728422989272],[-40.648554308223495,65.70740458509475],[-40.64990543987601,65.70736891451115],[-40.65124308392,65.70740911829179],[-40.65268337377636,65.70690077986332],[-40.654123614041445,65.70639242592938],[-40.6551805901949,65.70587068726581],[-40.65585837172099,65.70533560024818],[-40.65615255962594,65.70479158928879],[-40.656250797668754,65.70423868889878]]],"type":"Polygon"},"id":"00000000000000000010_00000000000000000010","properties":{"area":226995.9698708458,"elevation":1536.3847263377386,"id":"00000000000000000010","region":"SE","surface":0.0,"year":2018},"type":"Feature"},{"geometry":{"coordinates":[[[-41.03195672726227,65.26279663662777],[-41.03156877356115,65.26140091349605],[-41.028492043720384,65.26001411821672],[-41.02582994249884,65.2611466978243],[-41.02305198682902,65.26046002836367],[-41.01985020177316,65.25984910615423],[-41.01667542294294,65.25906434797166],[-41.013286555265594,65.25956821453222],[-41.01224307658303,65.25841324972231],[-41.010004556505365,65.25696411063603],[-41.00727108326948,65.25601876891635],[-41.003913351286734,65.25635319458205],[-41.00388670710065,65.2565270689176],[-41.00385992004064,65.25790938681807],[-41.002397405104865,65.25925159946107],[-41.005456186610154,65.26072311231299],[-41.00868916341414,65.26116450223091],[-41.00951403979264,65.26239974748385],[-41.01113279624024,65.26383110676852],[-41.014236161132175,65.26504842411009],[-41.017451307319675,65.26557463059865],[-41.02062620931169,65.26635936907539],[-41.023930293293944,65.26636831760827],[-41.026922397682576,65.26576193387136],[-41.03026670630115,65.26551220864071],[-41.031109465635936,65.26415656887887],[-41.03195672726227,65.26279663662777]]],"type":"Polygon"},"id":"00000000000000000015_00000000000000000015","properties":{"area":838376.4144068584,"elevation":1048.2380294818233,"id":"00000000000000000015","region":"SE","surface":0.0,"year":2018},"type":"Feature"},{"geometry":{"coordinates":[[[-27.967249962834455,69.79096462852308],[-27.96628678347527,69.79034033956117],[-27.96532804222572,69.78971608693965],[-27.963887856195903,69.78964032888398],[-27.96280428676756,69.78914982947865],[-27.96166720382432,69.78873065594794],[-27.960160047290554,69.78872173833395],[-27.958416494557714,69.78898479521803],[-27.956730928235014,69.78918102040056],[-27.955714336797765,69.78959571713594],[-27.95489378539951,69.79003270421605],[-27.95545992680192,69.79061235868383],[-27.955825806064258,69.79117422767312],[-27.955598341704892,69.79167367532199],[-27.95497401115985,69.79213292339541],[-27.954157945671916,69.79256991542574],[-27.954327379530504,69.79310944959089],[-27.954889366754294,69.79369361824594],[-27.955848148277838,69.79431790453876],[-27.95717246717725,69.79453195335482],[-27.95891578124618,69.79426882166258],[-27.960726221868,69.79393439300908],[-27.962532079846454,69.79360441366171],[-27.964338235464986,69.79327445469941],[-27.96555106599111,69.79287758082278],[-27.966768297855452,69.79248521819736],[-27.967191987755456,69.792008078053],[-27.967022402980945,69.79146404882088],[-27.967249962834455,69.79096462852308]]],"type":"Polygon"},"id":"0000000000000000001e_0000000000000000001e","properties":{"area":231670.3292838146,"elevation":1624.340624758966,"id":"0000000000000000001e","region":"SE","surface":0.0,"year":2018},"type":"Feature"},{"geometry":{"coordinates":[[[-27.211846991070992,69.76182883682787],[-27.21091071749911,69.76120017499724],[-27.209853886260426,69.76070967344788],[-27.208667682811924,69.76035294686181],[-27.20741913855222,69.76006305969159],[-27.205853982823886,69.760112159929],[-27.20435121360048,69.76009876138653],[-27.202848550167108,69.76008086839836],[-27.201158430502048,69.76026820747683],[-27.19934381728554,69.76058926359862],[-27.198893410948212,69.7608389596044],[-27.198059432023324,69.7612714543118],[-27.19742190866401,69.7617263198851],[-27.196784025567897,69.76218113981083],[-27.19575426513945,69.76259141235711],[-27.195705099993862,69.76311307966901],[-27.196636939861204,69.76374181957334],[-27.1978231535014,69.76409852901358],[-27.199071617676594,69.76438841734998],[-27.200636800236953,69.76433486166106],[-27.20245607328099,69.76401385118962],[-27.20402136776747,69.76396033885926],[-27.205711339609326,69.76377303404011],[-27.20752608241968,69.76345201140343],[-27.208752362004276,69.76306409788039],[-27.21037551222602,69.7627162763829],[-27.211405535583108,69.76230602788094],[-27.211846991070992,69.76182883682787]]],"type":"Polygon"},"id":"0000000000000000001f_0000000000000000001f","properties":{"area":210940.92119549966,"elevation":1554.5586828987086,"id":"0000000000000000001f","region":"SE","surface":0.0,"year":2018},"type":"Feature"},{"geometry":{"coordinates":[[[-26.953968376542758,69.70372236443946],[-26.95304515879071,69.70309360029201],[-26.952122326393667,69.70246487383902],[-26.9511991452156,69.7018316524611],[-26.94989260333414,69.70160872582368],[-26.9485905277607,69.7013857470804],[-26.946963050061054,69.70150166422597],[-26.945148207819827,69.70182272516176],[-26.944118169568004,69.70223299808605],[-26.94327975410302,69.70266553494038],[-26.942833885786243,69.70313820738593],[-26.942388064639992,69.70361532368398],[-26.94252627375452,69.7041548860282],[-26.942276652808715,69.70465431213964],[-26.94202683100086,69.70514921455522],[-26.942164891853658,69.70569325722184],[-26.943217318597995,69.70618820416985],[-26.944140430340102,69.70681691866866],[-26.94550942835164,69.7069730598346],[-26.9473241429339,69.70665197927595],[-26.948162441175807,69.7062194526758],[-26.94938872081915,69.70583592974472],[-26.950226955217076,69.7054033925796],[-26.951065492951216,69.70497089510108],[-26.95248770499187,69.70460968132359],[-26.953914702304193,69.70424409188496],[-26.953968376542758,69.70372236443946]]],"type":"Polygon"},"id":"00000000000000000020_00000000000000000020","properties":{"area":193794.3737643551,"elevation":1649.8386110544957,"id":"00000000000000000020","region":"SE","surface":0.0,"year":2018},"type":"Feature"},{"geometry":{"coordinates":[[[-33.807954445786685,68.89637531028957],[-33.80539935647107,68.89545673662973],[-33.80210405950026,68.89514911234032],[-33.7984209353707,68.89554596098732],[-33.79516561043858,68.89627279655352],[-33.79426943895159,68.89716014767332],[-33.79097857649228,68.89758826136529],[-33.788040081130326,68.89811441313961],[-33.78599774140265,68.89774878209198],[-33.7828942267679,68.89708431899734],[-33.78042390786933,68.89675877873265],[-33.7767763889243,68.8970887469247],[-33.776147609371456,68.89748569664086],[-33.775683806207354,68.89869852151287],[-33.776236791155256,68.89991586587905],[-33.77839957388732,68.90080321769457],[-33.78153873648317,68.90139628033779],[-33.78448628140489,68.90234161372067],[-33.78758963235885,68.90300602839874],[-33.79065304530128,68.90373732062397],[-33.7940687634437,68.90383537023735],[-33.79791248936034,68.90315312434798],[-33.800142101753515,68.90206066424174],[-33.7984476491545,68.90069173360399],[-33.80165828245445,68.89967508236384],[-33.80467248197606,68.89864058135664],[-33.80749054685285,68.8975926676337],[-33.807954445786685,68.89637531028957]]],"type":"Polygon"},"id":"00000000000000000026_00000000000000000026","properties":{"area":725496.3888217922,"elevation":1671.103751704641,"id":"00000000000000000026","region":"SE","surface":0.0,"year":2018},"type":"Feature"},{"geometry":{"coordinates":[[[-30.366567240807907,69.30349126845978],[-30.366478325479136,69.30301415518427],[-30.366389075070888,69.30253700596789],[-30.365474968521596,69.3019840968698],[-30.36450712977131,69.30150695454664],[-30.363267666315224,69.30139103830253],[-30.362246477472706,69.30098521972675],[-30.360899981091404,69.3010164693607],[-30.359499696768182,69.30112347752521],[-30.358103891562568,69.30122605191251],[-30.35665028737527,69.3014044460821],[-30.355089640604263,69.3017254238228],[-30.35434953006744,69.30212678531471],[-30.35402823833238,69.30256374554229],[-30.353912344861367,69.30302303832406],[-30.354411876013007,69.3035358889359],[-30.355325949392668,69.3040888317182],[-30.356239933125078,69.30464169297011],[-30.357479725431205,69.30475315979194],[-30.358719310663368,69.3048691243242],[-30.35995444744435,69.30498502955162],[-30.36135475867815,69.3048780533736],[-30.362915228601228,69.30455696944321],[-30.364476020632043,69.3042314363642],[-30.36562653947923,69.3038702658639],[-30.366567240807907,69.30349126845978]]],"type":"Polygon"},"id":"00000000000000000028_00000000000000000028","properties":{"area":167739.16753320862,"elevation":1760.2051347337158,"id":"00000000000000000028","region":"SE","surface":0.0,"year":2018},"type":"Feature"},{"geometry":{"coordinates":[[[-30.26597441246762,69.29143385046766],[-30.265787320389563,69.29079175263723],[-30.26440931602194,69.2902744736567],[-30.262433983005067,69.29055990444195],[-30.260735175657608,69.29047961520835],[-30.258920149252127,69.29054199988633],[-30.25716324273742,69.29053758000586],[-30.25524591805736,69.29074711797406],[-30.25348905876915,69.29073818445045],[-30.25194608375854,69.2904394473577],[-30.250461196867917,69.2900693692464],[-30.24848591079034,69.29035033259112],[-30.2479552120369,69.29076945272102],[-30.247317677338078,69.29133571231503],[-30.246470300918443,69.29187977533044],[-30.24665327822193,69.29252188625598],[-30.24745577387781,69.29321749263202],[-30.248668846387613,69.29395771841938],[-30.250211650287326,69.29425645299975],[-30.251861442341667,69.29440810178637],[-30.2536718088668,69.29434563793369],[-30.255428772853442,69.2943501362645],[-30.25729701647571,69.2942118709651],[-30.259267982266753,69.29393096179552],[-30.26135036584789,69.29349841878432],[-30.26261228971267,69.29299459193426],[-30.264279997069618,69.29252630829569],[-30.26533224773815,69.29200013654909],[-30.26597441246762,69.29143385046766]]],"type":"Polygon"},"id":"00000000000000000029_00000000000000000029","properties":{"area":275178.0714287169,"elevation":1724.7906017597136,"id":"00000000000000000029","region":"SE","surface":0.0,"year":2018},"type":"Feature"},{"geometry":{"coordinates":[[[-29.62339570455635,69.03899524777059],[-29.622040221264303,69.03780466844174],[-29.622490640806898,69.03663190999947],[-29.621884196653316,69.0353521428613],[-29.619128247004717,69.03451380888015],[-29.615908970712223,69.03427747158067],[-29.612863404298256,69.033813753791],[-29.60981783438225,69.03335443889277],[-29.607236023048255,69.03228871896209],[-29.606152364464396,69.03104468467268],[-29.603169188661777,69.0305050742683],[-29.60041346731672,69.02966679108617],[-29.597657917887606,69.02882402279968],[-29.594153014116053,69.02896669902363],[-29.594050466716915,69.0296846101236],[-29.59465231859647,69.03096435612294],[-29.597176279519633,69.03210590695325],[-29.59820176301157,69.03342584317298],[-29.60084172251174,69.03441574915654],[-29.603245097427784,69.03570885133985],[-29.606058713896307,69.03647136092754],[-29.60852463715917,69.03768872813329],[-29.61128045424011,69.03853150909853],[-29.614152140442087,69.03921817537997],[-29.61708167245294,69.0398334928971],[-29.62053297486766,69.03976664201247],[-29.62339570455635,69.03899524777059]]],"type":"Polygon"},"id":"0000000000000000002c_0000000000000000002c","properties":{"area":607697.2850431764,"elevation":1800.7801321186682,"id":"0000000000000000002c","region":"SE","surface":0.0,"year":2018},"type":"Feature"},{"geometry":{"coordinates":[[[-29.271251654575025,69.09428363739737],[-29.270342026481924,69.09370395735006],[-29.26919604917892,69.09342750649287],[-29.267871576495022,69.09337401858748],[-29.266663173844147,69.09317333144199],[-29.265454814148338,69.0929682022848],[-29.26395214891749,69.09314211766406],[-29.262627711462677,69.09309301273335],[-29.26136131937175,69.09296371378183],[-29.25979627540528,69.09321344447326],[-29.258659184698004,69.09350329744159],[-29.257094091702168,69.09375299964547],[-29.256973679409597,69.09390460500806],[-29.256407271227605,69.09433714589845],[-29.25731694131509,69.09491684269796],[-29.258226528496902,69.09549645696337],[-29.259252221626973,69.09592456596393],[-29.260224204455508,69.09642842377708],[-29.261727086903896,69.09625454381589],[-29.263109234446848,69.09623222031894],[-29.26455401062118,69.09613417678267],[-29.265940789732223,69.09610743936598],[-29.2675059984293,69.09585763935341],[-29.269124610662594,69.09553664758636],[-29.27032848717283,69.09516650032295],[-29.27110441718918,69.09475632018842],[-29.271251654575025,69.09428363739737]]],"type":"Polygon"},"id":"0000000000000000002d_0000000000000000002d","properties":{"area":165833.83689624807,"elevation":1741.4898850524753,"id":"0000000000000000002d","region":"SE","surface":0.0,"year":2018},"type":"Feature"},{"geometry":{"coordinates":[[[-31.90234411581884,68.93863421668065],[-31.901086843397305,68.9380055160219],[-31.899597474159226,68.9377335157479],[-31.89873672347843,68.93713595477887],[-31.897479433779232,68.93650726309417],[-31.89594982915437,68.93630661538413],[-31.894233239529033,68.93638686718572],[-31.892288875104192,68.9368193704809],[-31.89152643715406,68.9373544987544],[-31.891553131576636,68.93795644574993],[-31.890986864713387,68.93850937400047],[-31.89042505800003,68.93905787254062],[-31.89025549019792,68.93964201827879],[-31.890674689731604,68.9402751437595],[-31.89149069650418,68.94094410480623],[-31.89274822577426,68.94157281117026],[-31.89418853734361,68.94191615585655],[-31.895628831777017,68.94226391556388],[-31.897207305479835,68.94239322561003],[-31.89915139783394,68.94195626816143],[-31.900899305251833,68.94150588522626],[-31.90185823096655,68.94098863952117],[-31.900845931632603,68.94030641532746],[-31.90160842214189,68.9397713099723],[-31.902170212876822,68.93921841327453],[-31.90234411581884,68.93863421668065]]],"type":"Polygon"},"id":"00000000000000000032_00000000000000000032","properties":{"area":240127.5723836716,"elevation":2025.5412726159,"id":"00000000000000000032","region":"SE","surface":0.0,"year":2018},"type":"Feature"},{"geometry":{"coordinates":[[[-34.55823386826575,68.19132012789363],[-34.557752116505874,68.19084744931938],[-34.557734480995755,68.19040155303881],[-34.556793519742584,68.18989316415453],[-34.555857239779655,68.18938933678369],[-34.55470231752827,68.18930908413842],[-34.55355186541058,68.18922881240923],[-34.55235667566897,68.18923770622563],[-34.55112140097082,68.18932688598935],[-34.54984169600687,68.1895052554271],[-34.54847288698312,68.18985755312065],[-34.547108464953226,68.19020532273157],[-34.54706825949842,68.19029005295073],[-34.54662685288949,68.1907047408745],[-34.54710392063801,68.19117746961881],[-34.54804475727025,68.19168581178475],[-34.54898103107344,68.19219408553143],[-34.550051380406124,68.19244381291936],[-34.55120181470056,68.19252404220009],[-34.552356672007,68.19260436883297],[-34.553507229995525,68.19268014385057],[-34.55461751036159,68.19284507653538],[-34.55576794294941,68.19292538340568],[-34.55713256768354,68.19257759614582],[-34.55780578883832,68.19218075819938],[-34.55801980544443,68.19175260217038],[-34.55823386826575,68.19132012789363]]],"type":"Polygon"},"id":"00000000000000000036_00000000000000000036","properties":{"area":150274.1398069902,"elevation":2170.5467471850634,"id":"00000000000000000036","region":"SE","surface":0.0,"year":2018},"type":"Feature"},{"geometry":{"coordinates":[[[-43.42543269894896,61.772502147256496],[-43.42526780049447,61.77092806225168],[-43.42176298924675,61.76979542744208],[-43.41822692523014,61.769144407957064],[-43.414178030397885,61.768609311464324],[-43.41603292154026,61.76742316197826],[-43.42007735720319,61.76807873653715],[-43.4221909982873,61.76677667198516],[-43.42102270397081,61.76494842704695],[-43.41749550431159,61.764176973100625],[-43.41338419503755,61.764729882341],[-43.40928185345255,61.76503760330944],[-43.40513929528113,61.76607209149235],[-43.40101030531496,61.76686134666665],[-43.39747867472837,61.76621034722484],[-43.39339849066367,61.766156815486525],[-43.389269532136694,61.76695054360189],[-43.3897063978604,61.76816342094835],[-43.3934654195444,61.76930051915],[-43.397518776789354,61.76984000393301],[-43.40155421298934,61.7706159106719],[-43.405594147383944,61.7713962487193],[-43.40965201031538,61.77181095699473],[-43.413687488879816,61.77259132982313],[-43.41776307241257,61.772765211156596],[-43.421794200879205,61.77366149714334],[-43.42543269894896,61.772502147256496]]],"type":"Polygon"},"id":"00000000000000000023_00000000000000000023","properties":{"area":1135283.6785897524,"elevation":1265.3816159887533,"id":"00000000000000000023","region":"SE","surface":126.0,"year":2018},"type":"Feature"},{"geometry":{"coordinates":[[[-38.60798045842954,66.80903001377219],[-38.60719131497832,66.80757185555622],[-38.60521578959339,66.80606022410002],[-38.60343675149983,66.8045575095777],[-38.60126060320369,66.80304143570615],[-38.59928525122395,66.80152976616054],[-38.59691300933471,66.80000478435493],[-38.5934838777444,66.79937602115551],[-38.589854137470795,66.7994518669024],[-38.58752202317497,66.80061567761051],[-38.58494486982849,66.80121321953949],[-38.58129274274842,66.80136480171991],[-38.57766318507761,66.80144062145388],[-38.57733306628797,66.80189992592221],[-38.578715392874344,66.80338479563487],[-38.57969642003745,66.8048517829111],[-38.58068174991442,66.80631886332912],[-38.58274638704593,66.80751837475994],[-38.58540407944899,66.80874011807947],[-38.58879299049023,66.80952495249662],[-38.59217747817525,66.81030526649174],[-38.59560657124096,66.81092957570415],[-38.59908470678925,66.81140224092825],[-38.60266966396291,66.81148252674143],[-38.60619227551484,66.81179464132933],[-38.606985985110434,66.81040786328676],[-38.60798045842954,66.80903001377219]]],"type":"Polygon"},"id":"00000000000000000006_00000000000000000006","properties":{"area":1196411.652330514,"elevation":1772.1337151059345,"id":"00000000000000000006","region":"SE","surface":0.0,"year":2018},"type":"Feature"},{"geometry":{"coordinates":[[[-38.520060450942765,66.79165285568439],[-38.51936484993808,66.78988261630387],[-38.51550764788675,66.78796963561733],[-38.51113775284669,66.78785371381947],[-38.507967335342556,66.78842449426621],[-38.50905531212572,66.78673448543123],[-38.50496621223913,66.78702432032892],[-38.50497538715547,66.78560189683432],[-38.50057855374436,66.78556172777],[-38.49627114266651,66.78520946482132],[-38.49194577143071,66.78493743312994],[-38.4897207692206,66.7857044370474],[-38.486273685626635,66.78515596172512],[-38.48428509777216,66.7864892656241],[-38.48200639713523,66.78812572637516],[-38.48091829459851,66.78981572420811],[-38.481805734119646,66.79159493265374],[-38.48447231796197,66.79345438737606],[-38.48850773101702,66.7947430131527],[-38.49265919265717,66.79563936091556],[-38.49698894805562,66.79591582050895],[-38.50145259616684,66.79571954151632],[-38.50593847000127,66.79544761253146],[-38.510473384811355,66.79501950886694],[-38.51491460404218,66.79489914380498],[-38.51817872112242,66.79330720906614],[-38.520060450942765,66.79165285568439]]],"type":"Polygon"},"id":"00000000000000000008_00000000000000000008","properties":{"area":1654477.6622180506,"elevation":1732.2467526396272,"id":"00000000000000000008","region":"SE","surface":0.0,"year":2018},"type":"Feature"},{"geometry":{"coordinates":[[[-38.46206978305442,66.77625112087163],[-38.461284970184124,66.77550200549234],[-38.45971101312175,66.77472170274073],[-38.458136935905536,66.77393687701964],[-38.4563131239253,66.77401265316028],[-38.45462318551887,66.77362029670736],[-38.452959813190425,66.77315211815947],[-38.451336769770556,66.77252338121437],[-38.449557590549894,66.77244305985988],[-38.44762239669166,66.772906842752],[-38.445820765918924,66.77290685545599],[-38.443881120085784,66.77337053492292],[-38.443573502542485,66.77375408222552],[-38.44277523417323,66.77442738544383],[-38.442173248971116,66.7751096568663],[-38.443354926979055,66.77587654568288],[-38.44413972558211,66.77662574140206],[-38.44580283929624,66.77709390619418],[-38.447515325211576,66.77741055117743],[-38.449178379814214,66.77787872286157],[-38.45098006930977,66.77788319957473],[-38.45278137761289,66.77788319589543],[-38.454698974055916,66.77749971161201],[-38.45652255450361,66.77742387274495],[-38.45814123674029,66.77804816570783],[-38.45989827557604,66.77820868948191],[-38.46186022482553,66.77766465380125],[-38.46166849930459,66.77694227339077],[-38.46206978305442,66.77625112087163]]],"type":"Polygon"},"id":"0000000000000000000b_0000000000000000000b","properties":{"area":391130.0301293408,"elevation":1692.9247318727655,"id":"0000000000000000000b","region":"SE","surface":0.0,"year":2018},"type":"Feature"},{"geometry":{"coordinates":[[[-39.969375195452244,65.92526289296524],[-39.96817578698016,65.92450484930305],[-39.96675332820086,65.92389841983181],[-39.96574988770156,65.92314929664482],[-39.964149194571256,65.92245374341711],[-39.962396808147574,65.92247155385105],[-39.96069770026109,65.92225302619163],[-39.958927660340684,65.9223467022241],[-39.95715730059618,65.9224403403169],[-39.95547622240492,65.92214154846224],[-39.95363909192234,65.92255176692079],[-39.953376004171695,65.92285947472841],[-39.95360781846915,65.92358187219573],[-39.95210514576031,65.9242417443893],[-39.951761786748,65.92494628621357],[-39.952573296744845,65.9256865646174],[-39.95222553945918,65.92639104967007],[-39.95322888060302,65.9271402416968],[-39.95481189812514,65.92791163171859],[-39.95647957907091,65.9282906297446],[-39.958298751600104,65.92795624826027],[-39.960069146351536,65.92786257712746],[-39.961772518876096,65.92808110119624],[-39.96359177079013,65.92775111531886],[-39.965286317383054,65.9271000533524],[-39.966017637112,65.92640892200993],[-39.967680701416114,65.92591394002078],[-39.969375195452244,65.92526289296524]]],"type":"Polygon"},"id":"00000000000000000011_00000000000000000011","properties":{"area":404575.11798211077,"elevation":1505.1706627930664,"id":"00000000000000000011","region":"SE","surface":0.0,"year":2018},"type":"Feature"},{"geometry":{"coordinates":[[[-40.339449342023656,65.71235425705116],[-40.33884295568708,65.71153817842027],[-40.338040283474804,65.71071772933054],[-40.33800470998388,65.70992398527618],[-40.336203116340236,65.70930863713505],[-40.33437055870649,65.70885380841045],[-40.33253769710052,65.70839453782574],[-40.3307363109493,65.70777922926597],[-40.32886798609977,65.7074804516846],[-40.326865882018595,65.70788618365167],[-40.32489048097775,65.70813592937853],[-40.32285262914547,65.70870225984604],[-40.32253613193417,65.70932652269299],[-40.32333863152123,65.71014696561411],[-40.32222390882576,65.71090057245351],[-40.32264297806477,65.71170765504245],[-40.323824806671794,65.71254148561042],[-40.3257197186452,65.71268419430054],[-40.326344072578436,65.71341548195763],[-40.32733395943195,65.71424487992684],[-40.329153392174184,65.71478000458684],[-40.33101721813394,65.71507871217048],[-40.333023835324035,65.71467293488688],[-40.3349813858579,65.71449905323729],[-40.33703699958288,65.71385694594458],[-40.33910147716842,65.71313457575121],[-40.339449342023656,65.71235425705116]]],"type":"Polygon"},"id":"00000000000000000012_00000000000000000012","properties":{"area":477695.94367507205,"elevation":1364.459101626262,"id":"00000000000000000012","region":"SE","surface":0.0,"year":2018},"type":"Feature"},{"geometry":{"coordinates":[[[-41.3768146985012,65.45168856690954],[-41.376805840786666,65.4503909369542],[-41.376377683512196,65.4490844289157],[-41.373858363143015,65.44788937645858],[-41.37089305886032,65.44685934249271],[-41.36834680615085,65.44584264977294],[-41.36532792957903,65.44515597356788],[-41.36231367798646,65.44446929961694],[-41.35923251354166,65.44421513734532],[-41.35625834001871,65.44327425379065],[-41.35323050473657,65.44267221874726],[-41.350055621278074,65.44302004338188],[-41.350118051707575,65.44397429490719],[-41.349921806513635,65.44526745951373],[-41.35034550682855,65.44657845382264],[-41.35334645345106,65.44734990670719],[-41.353783373687286,65.44857167808922],[-41.35420715026349,65.44988261488551],[-41.35504533573485,65.45120248716594],[-41.357591438218485,65.45221918657835],[-41.360543497161494,65.45333843537243],[-41.36354449664343,65.45410986243276],[-41.366563191922744,65.45479651673243],[-41.369684608221306,65.45479207097206],[-41.372899521000484,65.4541811811425],[-41.37620381399043,65.4529727431961],[-41.3768146985012,65.45168856690954]]],"type":"Polygon"},"id":"00000000000000000013_00000000000000000013","properties":{"area":1091496.6038098207,"elevation":1550.28197860838,"id":"00000000000000000013","region":"SE","surface":0.0,"year":2018},"type":"Feature"},{"geometry":{"coordinates":[[[-41.138841242613225,65.42968735248874],[-41.13717375975224,65.42842990144385],[-41.1355104385904,65.42717244501407],[-41.13263880443729,65.42691826918949],[-41.129660030417234,65.42735077187244],[-41.126703693796394,65.4276139110789],[-41.12370715637831,65.42813563111224],[-41.12268595975353,65.42932170307152],[-41.1196182022759,65.43027153901885],[-41.11735296069764,65.43142193567499],[-41.116327339913255,65.43260362886132],[-41.116750869059636,65.43382540236968],[-41.11655486800661,65.43503378756367],[-41.11697843979605,65.43625557364908],[-41.118026328824875,65.43749968534264],[-41.11969395616842,65.43875717527418],[-41.12257903725824,65.43892658378897],[-41.12547741163853,65.43900688747453],[-41.12848740039219,65.43840047744672],[-41.13147057742617,65.43796345475565],[-41.13456510989984,65.43683971551009],[-41.136000965950416,65.43566701213106],[-41.137026493561905,65.43448539247706],[-41.13701306940998,65.4332724467322],[-41.13803877547562,65.43209084180855],[-41.13844009753781,65.4308868427664],[-41.138841242613225,65.42968735248874]]],"type":"Polygon"},"id":"00000000000000000014_00000000000000000014","properties":{"area":1082064.7488434238,"elevation":1480.6856796757413,"id":"00000000000000000014","region":"SE","surface":0.0,"year":2018},"type":"Feature"},{"geometry":{"coordinates":[[[-41.785687444039766,65.10502024075609],[-41.78525944027944,65.10436031074697],[-41.78508999299014,65.10370473691654],[-41.78466186296697,65.10304486302933],[-41.784492436200146,65.10238929246088],[-41.78355148258131,65.10171602675373],[-41.78261516644911,65.10104264524693],[-41.78167430068891,65.1003693689465],[-41.78022078078862,65.0996871216164],[-41.778771487499036,65.09900041445272],[-41.777246408751004,65.0988577757937],[-41.775649975660386,65.09925015304117],[-41.77402251548118,65.09986544269626],[-41.77367916980557,65.10050759317919],[-41.773594464791294,65.10115418745447],[-41.773763954984865,65.10180966204395],[-41.77342043384315,65.10245175561217],[-41.77384416544004,65.10311173271731],[-41.77427216490272,65.10377608852396],[-41.77572589871776,65.10445836685392],[-41.77720628660122,65.10493106560008],[-41.778660004274016,65.10561324952626],[-41.780140382940296,65.10608147204077],[-41.78167872465162,65.1061216200055],[-41.78320389395689,65.10626431438372],[-41.78483133648124,65.10565343158834],[-41.785687444039766,65.10502024075609]]],"type":"Polygon"},"id":"00000000000000000016_00000000000000000016","properties":{"area":332425.9373061693,"elevation":1621.4913205440635,"id":"00000000000000000016","region":"SE","surface":0.0,"year":2018},"type":"Feature"},{"geometry":{"coordinates":[[[-41.58777028848226,65.02357023054819],[-41.587092506577235,65.02290138736774],[-41.58565215374219,65.02221469764183],[-41.58418071626531,65.02174201093028],[-41.5826468590579,65.02170633200491],[-41.58103703110255,65.02220579264356],[-41.579485424424156,65.02227713808495],[-41.57801377486688,65.02180448298806],[-41.576466362170585,65.02187135347405],[-41.574870147295314,65.02226816625242],[-41.57326045597699,65.02276764967571],[-41.57173981202603,65.02262049142627],[-41.570174814584654,65.02279884853165],[-41.568551596612664,65.023409780758],[-41.56820388213312,65.02405185005323],[-41.569135699908124,65.02472518063621],[-41.57062061153095,65.02508637755358],[-41.572109913367946,65.02545200289782],[-41.573568162377605,65.02603169312823],[-41.575115262578485,65.02596034558418],[-41.57669387522897,65.02567496597095],[-41.57824575426231,65.02560809566667],[-41.579824162906014,65.02532272943165],[-41.581402701433376,65.025037289089],[-41.58295459828946,65.02496597989636],[-41.5845196387029,65.02478757052327],[-41.58614274045832,65.02417671456433],[-41.58777028848226,65.02357023054819]]],"type":"Polygon"},"id":"00000000000000000018_00000000000000000018","properties":{"area":301777.81346505694,"elevation":1354.2555394589972,"id":"00000000000000000018","region":"SE","surface":0.0,"year":2018},"type":"Feature"},{"geometry":{"coordinates":[[[-41.97314802863711,64.512829275816],[-41.972251891211044,64.51194191266558],[-41.97035662464553,64.51103226348737],[-41.96843035626829,64.51034110854734],[-41.96645494532547,64.51007804261275],[-41.964452913511735,64.5100334625853],[-41.96248640669623,64.50966331322273],[-41.960470920794364,64.50972573742273],[-41.958468774157375,64.5096767432821],[-41.95642656769055,64.50995761590814],[-41.954366472828674,64.51034110434146],[-41.95227054429389,64.51105014647126],[-41.95017481741234,64.51175916212043],[-41.94809237889781,64.51236112585694],[-41.94806575216895,64.5125795900715],[-41.94770884444042,64.51343571847997],[-41.94960402326616,64.51434535007617],[-41.9515795645862,64.51460847143022],[-41.95353260223246,64.51508559145174],[-41.95550779022278,64.51534421124427],[-41.957460933516074,64.51582138386458],[-41.95946319245282,64.51587038758538],[-41.961505329450866,64.51558949874803],[-41.96353873694445,64.5154200242611],[-41.96555415448626,64.51535759096909],[-41.96759664214029,64.51508115040126],[-41.969678874684575,64.51447918279956],[-41.97179241694205,64.51366314571585],[-41.97314802863711,64.512829275816]]],"type":"Polygon"},"id":"00000000000000000019_00000000000000000019","properties":{"area":627983.0919717625,"elevation":1700.7911580223347,"id":"00000000000000000019","region":"SE","surface":0.0,"year":2018},"type":"Feature"},{"geometry":{"coordinates":[[[-41.55613747669782,64.64810947819294],[-41.55575388470353,64.64723549446649],[-41.555120851504896,64.64635260848219],[-41.55473722639993,64.64547419682127],[-41.55284660545062,64.64456004758179],[-41.55089354647629,64.64407398409254],[-41.54887812327388,64.64402498134723],[-41.54684923358774,64.6440784890124],[-41.54480686674357,64.64424342513614],[-41.54273342837089,64.64462250604787],[-41.540597470521035,64.64543404057474],[-41.53846154197718,64.64624560297501],[-41.53814942304341,64.64666920673693],[-41.53752508390512,64.64752090092301],[-41.53790408049174,64.64839488651678],[-41.539072457095976,64.64907713509554],[-41.538194097316534,64.64991988880536],[-41.540102549564324,64.65072698440355],[-41.54210025874999,64.65088752528602],[-41.54414686323873,64.65072256354618],[-41.54610010639692,64.65120857513597],[-41.548097735102715,64.65136906880723],[-41.550144337292856,64.65120411929254],[-41.55217326070304,64.65115059633123],[-41.55426017134235,64.65066009180332],[-41.55538825823896,64.64982176981934],[-41.55551317166933,64.64896120040744],[-41.55613747669782,64.64810947819294]]],"type":"Polygon"},"id":"0000000000000000001a_0000000000000000001a","properties":{"area":604314.243856806,"elevation":1565.6470037508657,"id":"0000000000000000001a","region":"SE","surface":0.0,"year":2018},"type":"Feature"},{"geometry":{"coordinates":[[[-42.25552061796158,63.96592057853043],[-42.255106044675316,63.96514468687512],[-42.254196252096364,63.96435541652592],[-42.25253307159584,63.963552715565534],[-42.250825178251446,63.963187109082234],[-42.249166554081796,63.96238446931385],[-42.24745861941169,63.96201886976376],[-42.245764135888656,63.961546152972694],[-42.24402951129251,63.96139904270716],[-42.24226370624498,63.96158181354527],[-42.240506995932925,63.96165318448147],[-42.23871888905634,63.9620544903128],[-42.23689949228593,63.96267431840786],[-42.2350845744176,63.96329417116482],[-42.23507117168236,63.96340561716185],[-42.23523621225408,63.96417707347324],[-42.23692169889105,63.96476115618312],[-42.23758627445848,63.96554152819634],[-42.23924491091723,63.96634417855047],[-42.24095283744494,63.96670984643207],[-42.24261166492241,63.96751692276198],[-42.24433278007749,63.96777108633224],[-42.246112008258656,63.96747681949707],[-42.24784654810597,63.9676239500561],[-42.249648111211094,63.96711556346484],[-42.25134252505627,63.967588284944284],[-42.2531127450157,63.96740546599781],[-42.25494105436371,63.96667862855097],[-42.25552061796158,63.96592057853043]]],"type":"Polygon"},"id":"0000000000000000001b_0000000000000000001b","properties":{"area":511905.61610817816,"elevation":1769.1272752779455,"id":"0000000000000000001b","region":"SE","surface":0.0,"year":2018},"type":"Feature"},{"geometry":{"coordinates":[[[-42.71879899894121,63.43957270171682],[-42.718063314681764,63.43884144655573],[-42.71652934897598,63.438101175160455],[-42.714999821771684,63.43735657926338],[-42.713466042598036,63.43661187916929],[-42.711923118172905,63.435987597484115],[-42.71034453846786,63.435720047014634],[-42.70876151878879,63.43557294839087],[-42.707218745827284,63.434948606661095],[-42.7056089206382,63.43504228123813],[-42.70400360926298,63.43513145626504],[-42.70234050218421,63.4358181560573],[-42.702032732366256,63.43629078843556],[-42.7014352424525,63.43699534751967],[-42.70084220082366,63.43769993920508],[-42.701841041713145,63.438435640596275],[-42.70340614253409,63.43881915374601],[-42.70494903552477,63.43944344630581],[-42.705417207494555,63.44017021345852],[-42.70695111715993,63.440914868049795],[-42.70850283988289,63.44141878442584],[-42.710081404230394,63.44168636333047],[-42.7116154029529,63.44242650695427],[-42.71319830804811,63.44257812982141],[-42.714816944135784,63.44236857008882],[-42.71648027360873,63.44168183622313],[-42.717871528374204,63.44099072753343],[-42.71846905234972,63.44028167740025],[-42.71879899894121,63.43957270171682]]],"type":"Polygon"},"id":"0000000000000000001c_0000000000000000001c","properties":{"area":484023.885969683,"elevation":1889.8217395153895,"id":"0000000000000000001c","region":"SE","surface":0.0,"year":2018},"type":"Feature"},{"geometry":{"coordinates":[[[-43.81147053142091,61.784760203717354],[-43.81012388434232,61.78409578971724],[-43.80875500770999,61.783863903006235],[-43.80737704309248,61.78385049189064],[-43.80600805849679,61.78361862655739],[-43.804634723060026,61.783498220551955],[-43.80326128403318,61.783373453883186],[-43.801883480001685,61.78336003171938],[-43.80049665846066,61.783565142186966],[-43.79909643072407,61.78409574927447],[-43.797687398503456,61.78473348414003],[-43.7972012681501,61.785384458663394],[-43.79648344827177,61.78602658220711],[-43.79737082787451,61.78669100616826],[-43.79872635061778,61.78724833451056],[-43.80009080049537,61.78758726094535],[-43.80143752530053,61.78825164714992],[-43.80280653496974,61.788483519356596],[-43.80417094183519,61.78882245318032],[-43.805557663668864,61.78862179771847],[-43.80695789624573,61.78819815968855],[-43.80834473877214,61.787993014910086],[-43.809749310258304,61.78735542077519],[-43.81023985759892,61.78670883088382],[-43.81072574911931,61.786057791854184],[-43.81144370102694,61.785415636096445],[-43.81147053142091,61.784760203717354]]],"type":"Polygon"},"id":"00000000000000000021_00000000000000000021","properties":{"area":361830.21229309036,"elevation":1802.4618687445952,"id":"00000000000000000021","region":"SE","surface":0.0,"year":2018},"type":"Feature"},{"geometry":{"coordinates":[[[-43.7819423411544,61.76787801333686],[-43.7813000866829,61.76689256276585],[-43.78134035749888,61.76591598057089],[-43.78001158506972,61.76492162597992],[-43.77867820512977,61.7639317226582],[-43.77665385402459,61.76293288025003],[-43.77462052253667,61.76225957299282],[-43.772573723449234,61.76180029509127],[-43.77054486568145,61.761019914713806],[-43.768520458230626,61.76012810120808],[-43.76643810077171,61.76043577051576],[-43.7645697333889,61.761175984963415],[-43.76272808351698,61.76126519703642],[-43.76062789568822,61.76200539164296],[-43.76037370568666,61.762549404806094],[-43.76101578927962,61.763534839740494],[-43.76143048137512,61.76451591205873],[-43.76346383193727,61.76530064785687],[-43.76503335779157,61.766076530510766],[-43.76659399179053,61.76707091829923],[-43.767008867425616,61.76805639380199],[-43.768801259730544,61.76905076727762],[-43.770843733098125,61.76961708838918],[-43.772885898968,61.77017891310379],[-43.77496385586526,61.76987566779987],[-43.777037289150236,61.76978656296905],[-43.77911075714191,61.76959030422987],[-43.781211151154544,61.76885011062896],[-43.7819423411544,61.76787801333686]]],"type":"Polygon"},"id":"00000000000000000022_00000000000000000022","properties":{"area":836624.3510467672,"elevation":1791.422409931253,"id":"00000000000000000022","region":"SE","surface":0.0,"year":2018},"type":"Feature"},{"geometry":{"coordinates":[[[-33.449687962416476,69.05325092824002],[-33.44788200180475,69.05245282650785],[-33.44583068441498,69.05208266324713],[-33.44405614948276,69.05158775709944],[-33.44331584880732,69.05072271658393],[-33.441184364126826,69.05049083005024],[-33.43925801855528,69.04991106970253],[-33.43731388606896,69.05042840538597],[-33.436992837076616,69.05099463282176],[-33.43477673836356,69.05090546531436],[-33.43252481147356,69.05088764324891],[-33.43007232087793,69.05122658260815],[-33.43041557346831,69.05206037694327],[-33.431155963335655,69.05292547559434],[-33.4303175426683,69.05367009481246],[-33.431254062651114,69.05454858471523],[-33.432587182582004,69.05545819519494],[-33.43451809977458,69.05604239903529],[-33.43660939890915,69.05634108022197],[-33.4388211537099,69.05643034911641],[-33.44099266829214,69.0565864264302],[-33.4433292160987,69.05646600642619],[-33.44574160285266,69.05619842286819],[-33.446976852676606,69.05548050288877],[-33.44840814151217,69.05477593905569],[-33.44924655154165,69.05402684766112],[-33.449687962416476,69.05325092824002]]],"type":"Polygon"},"id":"00000000000000000024_00000000000000000024","properties":{"area":409340.0060046351,"elevation":1737.2838727756762,"id":"00000000000000000024","region":"SE","surface":0.0,"year":2018},"type":"Feature"},{"geometry":{"coordinates":[[[-33.62783783594083,68.99145230944411],[-33.62752571591925,68.99054711112365],[-33.6255594743791,68.9896686582062],[-33.6235883933947,68.98879024591386],[-33.62130533541757,68.98847812178987],[-33.61937898160062,68.98753274425255],[-33.617211942363525,68.98700655058738],[-33.61473255749039,68.98704666869212],[-33.614652427605364,68.98718935473066],[-33.615160747158974,68.98810792145665],[-33.61291340204974,68.98883036518428],[-33.61058563736188,68.98932083179469],[-33.6083783988391,68.98997191510435],[-33.60632265713763,68.99070763185287],[-33.607424116473744,68.99166630887977],[-33.607343793238975,68.9925447705356],[-33.608837668246174,68.99353468162191],[-33.61096031893788,68.99413223319848],[-33.613167454601985,68.99458258720342],[-33.615294382877806,68.99518010826812],[-33.6177736698929,68.99513548916325],[-33.62014137737917,68.99530940970801],[-33.622981904439634,68.99463160971946],[-33.62483257421676,68.99388248529678],[-33.62393164882223,68.99293270890539],[-33.62637544245988,68.9922281988221],[-33.62783783594083,68.99145230944411]]],"type":"Polygon"},"id":"00000000000000000025_00000000000000000025","properties":{"area":519222.02969303436,"elevation":1714.2898289390332,"id":"00000000000000000025","region":"SE","surface":0.0,"year":2018},"type":"Feature"},{"geometry":{"coordinates":[[[-30.748373579670034,69.32391841945629],[-30.74724096128515,69.32303997368162],[-30.745122739086376,69.32292846942275],[-30.74320976563905,69.32252266296656],[-30.741510759965404,69.32182706854694],[-30.73933488149781,69.32178699285933],[-30.73710980101682,69.32181813040249],[-30.735040714609777,69.32163091757387],[-30.732708687843903,69.32181368161417],[-30.73048350835064,69.32184494764962],[-30.72809793603969,69.32209911065299],[-30.72576588075009,69.32227748605857],[-30.72535101020817,69.32255393711591],[-30.724615235732408,69.32326291377832],[-30.72408906471525,69.32399423069734],[-30.725529530954258,69.3247478296221],[-30.727335383198653,69.32530074842624],[-30.7294044889816,69.3254835258162],[-30.73131730529004,69.32588932577],[-30.73338650212051,69.3260766287539],[-30.735557906549662,69.3261167176583],[-30.737680506023473,69.32622824610685],[-30.7399590478997,69.32612123048717],[-30.742344776639627,69.32587149089387],[-30.744623433366314,69.3257644776221],[-30.74711589632493,69.32536318950294],[-30.74826192609604,69.32468982032083],[-30.748373579670034,69.32391841945629]]],"type":"Polygon"},"id":"00000000000000000027_00000000000000000027","properties":{"area":380614.1195925027,"elevation":1846.4225424308001,"id":"00000000000000000027","region":"SE","surface":0.0,"year":2018},"type":"Feature"},{"geometry":{"coordinates":[[[-29.4080300722071,69.10654611048864],[-29.407200733732036,69.10556962091519],[-29.40658096816142,69.1046153393483],[-29.405118270184914,69.10357636111644],[-29.40386530810189,69.10255522944843],[-29.402014640213842,69.10172140767585],[-29.400043843670527,69.10103919971154],[-29.398014871649877,69.10042825628652],[-29.39592811370499,69.09989766712081],[-29.393725311740965,69.09951417458541],[-29.391518114604764,69.0991306832707],[-29.389016457594042,69.09912621604859],[-29.386282904059147,69.09942049618846],[-29.38354516307875,69.09971923052153],[-29.382898585107924,69.10054861494297],[-29.38457081195195,69.10160992325386],[-29.386363219947587,69.10251954473807],[-29.388271770371144,69.10327762517899],[-29.390122255216497,69.10411147723873],[-29.39209335256573,69.10479817926193],[-29.393885715568384,69.10570781788651],[-29.395798678718553,69.10646587339306],[-29.397827743280793,69.1070768082254],[-29.39985658573925,69.10768324376193],[-29.402416076333942,69.10761629190209],[-29.405269850759815,69.10716599921662],[-29.4080300722071,69.10654611048864]]],"type":"Polygon"},"id":"0000000000000000002a_0000000000000000002a","properties":{"area":531455.3907419187,"elevation":1800.134408565808,"id":"0000000000000000002a","region":"SE","surface":0.0,"year":2018},"type":"Feature"},{"geometry":{"coordinates":[[[-29.613403008008863,69.04784655944057],[-29.61229711051235,69.04692353375314],[-29.610651715067604,69.04611643552286],[-29.6084265146703,69.04605847887835],[-29.606553825595732,69.04554564455579],[-29.604792382837992,69.04488567216559],[-29.603030974209762,69.04422579208045],[-29.601095676430308,69.04379322621392],[-29.598817251736584,69.04381105799135],[-29.596882020031924,69.04337854869162],[-29.594656741088055,69.04332056613461],[-29.592199788387965,69.04356577817737],[-29.591945599466204,69.0441900560474],[-29.591575532215614,69.04496594860166],[-29.591629117554124,69.04578194650229],[-29.59326998243232,69.04659351386766],[-29.594915571804783,69.04740509618549],[-29.596908628746252,69.04776184043064],[-29.598959889569393,69.0480471956195],[-29.600716621479236,69.04870713089419],[-29.602999932754386,69.04868933550925],[-29.605050938692685,69.04897024806031],[-29.606870257809273,69.04955885332606],[-29.60903732884562,69.04968815719066],[-29.611610365677972,69.04929571701301],[-29.61282319160984,69.04860017021458],[-29.613403008008863,69.04784655944057]]],"type":"Polygon"},"id":"0000000000000000002b_0000000000000000002b","properties":{"area":369094.1097602814,"elevation":1804.6990989942476,"id":"0000000000000000002b","region":"SE","surface":0.0,"year":2018},"type":"Feature"},{"geometry":{"coordinates":[[[-31.315544249443192,68.8373234962312],[-31.313952397018394,68.8363781699537],[-31.312035058590205,68.83591883227938],[-31.31077751374167,68.83507606480258],[-31.308860126470076,68.83461233449839],[-31.306942654584006,68.83415300762248],[-31.304650715313443,68.8342421806514],[-31.30222048714994,68.83454095860107],[-31.301609599461347,68.83514745707416],[-31.303009772056527,68.836074904952],[-31.30326387171596,68.83690428649248],[-31.304280739088828,68.83779615294729],[-31.30347799928412,68.83838468965259],[-31.302202763006356,68.83908036310292],[-31.301881539598067,68.8398562024169],[-31.30193947677014,68.84066778433207],[-31.302002009215627,68.84147934673386],[-31.303874865123284,68.84201000823904],[-31.306024202626347,68.8421258937754],[-31.30822248405694,68.84217050384106],[-31.31074636324648,68.84173350092125],[-31.313363789715577,68.84115829478269],[-31.31445179347784,68.84044931051282],[-31.315156468286297,68.83970462769797],[-31.315285583529597,68.83891088014897],[-31.31522330048024,68.83810378872587],[-31.315544249443192,68.8373234962312]]],"type":"Polygon"},"id":"0000000000000000002f_0000000000000000002f","properties":{"area":388894.7413321254,"elevation":1963.4226508803115,"id":"0000000000000000002f","region":"SE","surface":0.0,"year":2018},"type":"Feature"},{"geometry":{"coordinates":[[[-31.32885477935337,68.81537572078688],[-31.328792387064254,68.81456419708825],[-31.327155785796627,68.81368573966867],[-31.32562174500592,68.81326214477676],[-31.325180315973327,68.8124149050235],[-31.32397195456468,68.81150527125322],[-31.322379988865183,68.81055992466817],[-31.320230905972178,68.81044402509873],[-31.317943220847248,68.81053316718572],[-31.31709619508084,68.81119313418584],[-31.316204332423613,68.81191993541816],[-31.315499682642667,68.81266016740301],[-31.315753856189822,68.81348953663856],[-31.315624577781655,68.81428333478969],[-31.315687059498668,68.81509486216166],[-31.316605531185743,68.81583508230109],[-31.31609288383823,68.81659308327215],[-31.316155180805627,68.81740465367409],[-31.317216423161728,68.81822960733224],[-31.319365822862668,68.8183455125381],[-31.321327847587142,68.81873789905458],[-31.3239453091207,68.81816270309146],[-31.325791282467257,68.81752062927698],[-31.32725831687105,68.81684724632767],[-31.328154602082183,68.81612046581617],[-31.32885477935337,68.81537572078688]]],"type":"Polygon"},"id":"00000000000000000030_00000000000000000030","properties":{"area":362215.2727819144,"elevation":1954.5458232433614,"id":"00000000000000000030","region":"SE","surface":0.0,"year":2018},"type":"Feature"},{"geometry":{"coordinates":[[[-31.271836195922173,68.82105221364652],[-31.270538602913614,68.82027629540376],[-31.269236465496398,68.81950488902616],[-31.26831786200977,68.81876466721657],[-31.26816648009766,68.8180913735235],[-31.266819741067906,68.8173868448541],[-31.26524114978206,68.81702567552358],[-31.263194321496844,68.81735559507912],[-31.263100807213533,68.81749386798984],[-31.26248995930897,68.8181002970133],[-31.26149549311843,68.81867104610917],[-31.260019564760423,68.8187602793475],[-31.257972841817196,68.81909466513872],[-31.25697857410949,68.81966541896008],[-31.256746577451157,68.8203030320796],[-31.25671082972503,68.8209585505252],[-31.256670687313214,68.8216140478579],[-31.25777655731462,68.82237209599283],[-31.259497959414038,68.82252373680625],[-31.260461090164195,68.823197048674],[-31.261950395854967,68.82369195298602],[-31.263577867562983,68.82398182327313],[-31.265531065508277,68.82379009649895],[-31.267671390619967,68.82331747439589],[-31.269811669637377,68.82284921041203],[-31.270806282761715,68.82227847417569],[-31.2714170550149,68.82167200663264],[-31.271836195922173,68.82105221364652]]],"type":"Polygon"},"id":"00000000000000000031_00000000000000000031","properties":{"area":315494.289579008,"elevation":1956.2937190990656,"id":"00000000000000000031","region":"SE","surface":0.0,"year":2018},"type":"Feature"},{"geometry":{"coordinates":[[[-31.71804056556412,68.78470159970418],[-31.717318294932056,68.783591302497],[-31.716983894129594,68.78251664237465],[-31.716457651874283,68.78142414995325],[-31.717104115884037,68.78043427188484],[-31.716381861552332,68.7793239009808],[-31.715855702183216,68.77823141054724],[-31.71650228982764,68.77724149946363],[-31.714995137748105,68.77606430445354],[-31.71329612370895,68.77486929739177],[-31.711111140085517,68.77378569455381],[-31.707958568826502,68.77419150355054],[-31.70720062598639,68.77472217473354],[-31.70419513907381,68.77521266787687],[-31.70374466998374,68.77622041618805],[-31.701925336369754,68.77711223210407],[-31.701862963362274,68.77815565132768],[-31.70160875130251,68.77918121881841],[-31.70154635075928,68.78022464140348],[-31.699923201475645,68.78113433550025],[-31.701229803228532,68.78229371211314],[-31.703115885821408,68.78320335219944],[-31.70539001440805,68.78414420907451],[-31.70785165074042,68.78480418825511],[-31.710268436182723,68.78553544155157],[-31.712868026590783,68.78598133581818],[-31.716025177912247,68.78557557430334],[-31.71804056556412,68.78470159970418]]],"type":"Polygon"},"id":"00000000000000000033_00000000000000000033","properties":{"area":685878.1704089602,"elevation":1701.7051502797297,"id":"00000000000000000033","region":"SE","surface":0.0,"year":2018},"type":"Feature"},{"geometry":{"coordinates":[[[-33.11499224610001,68.13327602304761],[-33.11423414905476,68.13250456574238],[-33.11393532893877,68.13176881267376],[-33.11249057911327,68.1309438834504],[-33.11095230702901,68.13028841124348],[-33.109507556619455,68.12946349421345],[-33.10772834591797,68.1292360975388],[-33.10609191488873,68.12874997223201],[-33.10397386683505,68.12912009197981],[-33.10209660146058,68.12906216618664],[-33.09993372643368,68.12951249783623],[-33.09951029952939,68.12983806540605],[-33.09889935499872,68.13049802438836],[-33.0973699441346,68.1310910388957],[-33.09652714727599,68.13173758947562],[-33.09614369297153,68.13241986083004],[-33.09666982454549,68.13317347304137],[-33.09811454849094,68.13399837570951],[-33.0995591794208,68.13482330661469],[-33.10128929535133,68.13513543632416],[-33.10282794048801,68.1357909375107],[-33.104754223247326,68.13576420398566],[-33.10653335584551,68.13599599953604],[-33.10865139520584,68.13562595821456],[-33.11086765079395,68.13508640600362],[-33.113079176707835,68.13455128871115],[-33.113694667293,68.13388686695696],[-33.11499224610001,68.13327602304761]]],"type":"Polygon"},"id":"00000000000000000035_00000000000000000035","properties":{"area":444382.5733910907,"elevation":1301.9408322182276,"id":"00000000000000000035","region":"SE","surface":0.0,"year":2018},"type":"Feature"},{"geometry":{"coordinates":[[[-34.385934154928385,68.05376576761381],[-34.385902946243846,68.05287393894447],[-34.3851895706608,68.05193754375],[-34.38470342933434,68.05101895079098],[-34.38467670438227,68.05013162825232],[-34.38327215248353,68.04914612834311],[-34.38164448255668,68.04814732532499],[-34.37952635671042,68.04764340497387],[-34.37972707608827,68.04676946602336],[-34.37809494301587,68.0457705997099],[-34.37572289162949,68.04577953663104],[-34.3731366743699,68.04622097631876],[-34.37224905834754,68.04704142672713],[-34.37136191305008,68.04786636002416],[-34.370701854565226,68.04870911777499],[-34.37050127018495,68.04957864345474],[-34.371219158928014,68.05051505063223],[-34.3726194047128,68.05150055073769],[-34.37447869189674,68.0525172445359],[-34.37596362506362,68.05332881039809],[-34.377368322321544,68.05431423464898],[-34.37854096405969,68.0552818527643],[-34.38016861444474,68.05628518413435],[-34.38258535850943,68.05618707302187],[-34.384159504885645,68.0554111560237],[-34.384819343296456,68.05457282768093],[-34.385934154928385,68.05376576761381]]],"type":"Polygon"},"id":"00000000000000000037_00000000000000000037","properties":{"area":474474.01148248016,"elevation":1900.519951641543,"id":"00000000000000000037","region":"SE","surface":0.0,"year":2018},"type":"Feature"},{"geometry":{"coordinates":[[[-28.020099157086545,69.80602753012745],[-28.01955066842158,69.80567075372132],[-28.019002325051133,69.80531405286939],[-28.018453661220576,69.80495730838372],[-28.017602044603752,69.80494394191682],[-28.016750368151584,69.80492609316371],[-28.01595665972363,69.80484588326111],[-28.015167366474266,69.80476111919754],[-28.014315769878543,69.80474773382325],[-28.013281304003076,69.80493502293805],[-28.01237158764478,69.80498849554371],[-28.011337165016627,69.80518024893142],[-28.010307054404144,69.80536755963837],[-28.009272605145462,69.80555929915259],[-28.009152082641094,69.80569307039573],[-28.008715148246257,69.80594719391536],[-28.008670585036448,69.8062415144164],[-28.00902287835243,69.80657595980334],[-28.009571283142613,69.8069326629114],[-28.01024002194748,69.80715562794924],[-28.011091902788895,69.80716899928001],[-28.011943639631312,69.8071868794147],[-28.012732803386523,69.80726710459531],[-28.013464040980562,69.80741874991818],[-28.014498621000413,69.80723145792841],[-28.015528526007337,69.807039676307],[-28.01656320746961,69.80685244817167],[-28.017597684486315,69.80666065793939],[-28.018627677155443,69.80646893332053],[-28.019662319176252,69.80628168434777],[-28.020099157086545,69.80602753012745]]],"type":"Polygon"},"id":"0000000000000000001d_0000000000000000001d","properties":{"area":89507.53677660601,"elevation":1639.2203099478108,"id":"0000000000000000001d","region":"SE","surface":0.0,"year":2018},"type":"Feature"},{"geometry":{"coordinates":[[[-34.594825169840895,68.19292089249863],[-34.59329121636472,68.19173035032307],[-34.58970183178123,68.19256868408014],[-34.58644641667153,68.19165899351472],[-34.582807952946624,68.19259092138871],[-34.58137215209797,68.19121309059283],[-34.57773786945987,68.19106151478763],[-34.57710915454093,68.19180620263046],[-34.57593651383669,68.19310377160774],[-34.57862976133993,68.194075873225],[-34.580021022964985,68.1955518214414],[-34.57961963581517,68.19690293156602],[-34.58170652442166,68.19802659656932],[-34.57976677663819,68.19927514752324],[-34.58325830285299,68.19970772561284],[-34.58593379739953,68.20126838910068],[-34.586807704542316,68.2027086376303],[-34.58915768865714,68.20385461677613],[-34.591632359353326,68.20313673583941],[-34.59305941589762,68.20185692069053],[-34.59422763448659,68.20055940899503],[-34.59218531755906,68.19933312031091],[-34.59177073793478,68.19802660556523],[-34.592430777485,68.19669332150637],[-34.59155220896048,68.19525745740678],[-34.59442375877429,68.19427202373164],[-34.594825169840895,68.19292089249863]]],"type":"Polygon"},"id":"00000000000000000000_00000000000000000000","properties":{"area":648205.080042109,"elevation":2142.973748882302,"id":"00000000000000000000","region":"SE","surface":0.0,"year":2018},"type":"Feature"},{"geometry":{"coordinates":[[[-34.590977004200255,68.18409189177179],[-34.589679540872865,68.18351224017489],[-34.58734720106416,68.18394474960859],[-34.585251503448355,68.18390013057531],[-34.58301750606242,68.18414099126582],[-34.5808280299771,68.18428362162054],[-34.57868314219385,68.18433715140779],[-34.578148218732466,68.18489005585606],[-34.57648940946495,68.18556337033478],[-34.574255371674056,68.18580416176977],[-34.57362205379278,68.18654887994015],[-34.57436239770575,68.18719102956446],[-34.57631556131912,68.18752098295816],[-34.57803669717374,68.18832800742237],[-34.58011024866551,68.18787769403363],[-34.581256086866844,68.1871686844937],[-34.58316460864463,68.18651322673345],[-34.58456930882331,68.18582199848231],[-34.585826676186954,68.18541178770033],[-34.585706396489925,68.18619216199778],[-34.58609882968316,68.18700814235947],[-34.58623259172627,68.18780634914192],[-34.58832828772238,68.18785092434466],[-34.58972853112399,68.18715533371187],[-34.589336068942,68.18634375414395],[-34.589969227486684,68.18559911018598],[-34.59085655952744,68.18487224079223],[-34.590977004200255,68.18409189177179]]],"type":"Polygon"},"id":"00000000000000000001_00000000000000000001","properties":{"area":226118.05117740584,"elevation":2071.46214413535,"id":"00000000000000000001","region":"SE","surface":0.0,"year":2018},"type":"Feature"},{"geometry":{"coordinates":[[[-37.70983281588637,66.95034779291984],[-37.708847438333805,66.94924198956423],[-37.705864204707176,66.94874255214513],[-37.702515429379915,66.94936679468903],[-37.70210963767586,66.94855525771794],[-37.70412957269676,66.94786414183883],[-37.706702536454486,66.9475519773845],[-37.707264335515184,66.94652196491535],[-37.70832122750074,66.9453447363628],[-37.70540043954445,66.94467138789226],[-37.70645738978931,66.94348973977739],[-37.70685405822318,66.94227687454409],[-37.70570373429676,66.94098818731011],[-37.70241288690799,66.94143851048307],[-37.701632503112315,66.94245519615882],[-37.700129648035535,66.94361458141606],[-37.69907295154436,66.94479182437841],[-37.69624595660079,66.94588431479643],[-37.69833725354491,66.94704366689078],[-37.69683455454645,66.94819856139858],[-37.69754345412136,66.94946936249532],[-37.69758815177356,66.9507045911301],[-37.699322758871354,66.95158298090912],[-37.70057574186632,66.95049944099574],[-37.70363921667575,66.95074469872189],[-37.70698782489277,66.95012040477584],[-37.70983281588637,66.95034779291984]]],"type":"Polygon"},"id":"0000000000000000000f_0000000000000000000f","properties":{"area":390992.788448483,"elevation":1881.7747840079667,"id":"0000000000000000000f","region":"SE","surface":0.0,"year":2018},"type":"Feature"},{"geometry":{"coordinates":[[[-29.87144665527508,69.04855110063374],[-29.870996325209173,69.04814977717298],[-29.87101850621759,69.04778854655001],[-29.871036432577075,69.04743187252726],[-29.870817978136582,69.0470483541732],[-29.87001072734199,69.04678970013404],[-29.869007506960084,69.04678528065708],[-29.868066632673205,69.04669166078028],[-29.867005331956427,69.04677186427067],[-29.865810354617302,69.04701710279328],[-29.86532419499677,69.0473292997548],[-29.865070166071888,69.04766370196856],[-29.865047895866176,69.04802493270662],[-29.864798133239628,69.0483593232124],[-29.86430752372424,69.04867145332577],[-29.864053263103646,69.04900589336],[-29.864740143705415,69.04943394158558],[-29.86519047558546,69.0498397162109],[-29.864936343049603,69.0501742343091],[-29.864914040648816,69.05053092151519],[-29.86560077761202,69.05095900441322],[-29.86647483943998,69.05113290832237],[-29.867665209638073,69.05088767380865],[-29.86768767412005,69.05053094777301],[-29.867705525804944,69.05017419634066],[-29.868196034185306,69.04985762431045],[-29.869025339309392,69.04975944955315],[-29.87021595682971,69.04951423265945],[-29.870706315841012,69.04920212145755],[-29.870960597517815,69.04886320202849],[-29.87144665527508,69.04855110063374]]],"type":"Polygon"},"id":"0000000000000000002e_0000000000000000002e","properties":{"area":95173.75469460267,"elevation":1724.8858703843264,"id":"0000000000000000002e","region":"SE","surface":0.0,"year":2018},"type":"Feature"},{"geometry":{"coordinates":[[[-31.895611021313506,68.83474166999653],[-31.895379193657128,68.83438939079689],[-31.89557979201545,68.83407724227911],[-31.89512936402993,68.83370709506465],[-31.894308934398513,68.83355549386243],[-31.89333228173281,68.83363576592555],[-31.892360300546247,68.83372049499374],[-31.89128559918542,68.83396579577962],[-31.8902110035602,68.83420654388784],[-31.889787330186472,68.83450080710718],[-31.889368259981367,68.8347996486519],[-31.88851208570695,68.83505818781921],[-31.8880884518274,68.83535695000987],[-31.887887823394454,68.8356735929588],[-31.8876827131889,68.83598573044941],[-31.887696152751932,68.83632017709087],[-31.888364851046482,68.83670808101235],[-31.88928795228343,68.83670368378775],[-31.89026445807033,68.83661897605978],[-31.89133902550092,68.83637815147037],[-31.892413910011758,68.83613735152761],[-31.893488503684765,68.83589208194313],[-31.89413044931158,68.83561564471516],[-31.894768176853482,68.83533916146807],[-31.8954059526284,68.83505824635499],[-31.895611021313506,68.83474166999653]]],"type":"Polygon"},"id":"00000000000000000034_00000000000000000034","properties":{"area":72235.32969446783,"elevation":1900.1306458003178,"id":"00000000000000000034","region":"SE","surface":0.0,"year":2018},"type":"Feature"}]}