{"type":"FeatureCollection","features":[{"geometry":{"coordinates":[[[-34.27117467615746,67.29793920764496],[-34.2691905758617,67.29612882874392],[-34.26951599011129,67.29449229884048],[-34.26652396442433,67.29279341271189],[-34.26297894275914,67.29123718490293],[-34.2602411045572,67.29048358378725],[-34.26255525246233,67.28917264561474],[-34.25892549361154,67.28779923881339],[-34.25459584550017,67.28784825128302],[-34.250395268911014,67.28763423243987],[-34.245891706333076,67.2880444679515],[-34.24580252066253,67.28822281890477],[-34.24827717226102,67.2895114895751],[-34.249365205624834,67.29070206558788],[-34.24742548141,67.2922226444802],[-34.25087691144919,67.29395724851156],[-34.25295041052583,67.29558483743743],[-34.25447097213205,67.29736399297583],[-34.2546047078417,67.29903617902747],[-34.25704832313455,67.30087780508168],[-34.25625909135735,67.30248750259345],[-34.25989317682328,67.30386093334712],[-34.26409359226252,67.3040749251148],[-34.26673344582381,67.30260345368207],[-34.26982822473355,67.30116761570495],[-34.27084916943531,67.29958018219988],[-34.27117467615746,67.29793920764496]]],"type":"Polygon"},"id":"0000000000000000000f_0000000000000000000f","properties":{"area":1180360.9223211496,"elevation":1314.6763525850836,"id":"0000000000000000000f","region":"SE","surface":0.0,"year":2019},"type":"Feature"},{"geometry":{"coordinates":[[[-38.498464950850966,66.85531988012156],[-38.49545959671622,66.85359428031012],[-38.492453993379804,66.85186858486878],[-38.488365157543,66.8520023412105],[-38.48464624282804,66.85087861838433],[-38.48430295365912,66.84927339342929],[-38.484227155414985,66.84767703126215],[-38.48388370447215,66.84606731589247],[-38.480615111859535,66.84432822960025],[-38.4768027210707,66.84352112293952],[-38.4724149101973,66.84470280503999],[-38.46802265912332,66.84588443040563],[-38.46689004160985,66.84700373086238],[-38.46457120961987,66.8484885798387],[-38.46570840437207,66.85013395043252],[-38.46764811707717,66.85181503615246],[-38.47121531425959,66.85346046161828],[-38.474372327692784,66.85466442469149],[-38.47637454797976,66.8561359249306],[-38.47724855130071,66.85776803248646],[-38.47972340864252,66.85947131545532],[-38.48353582798349,66.86027848184902],[-38.48756242909984,66.86035425062636],[-38.49180311163201,66.85969429686529],[-38.49622208040259,66.85840562272892],[-38.49614622001289,66.85680925626235],[-38.498464950850966,66.85531988012156]]],"type":"Polygon"},"id":"00000000000000000016_00000000000000000016","properties":{"area":1524426.9470502636,"elevation":1810.5634178176463,"id":"00000000000000000016","region":"SE","surface":0.0,"year":2019},"type":"Feature"},{"geometry":{"coordinates":[[[-38.62297198784896,66.81174108693403],[-38.618245309285314,66.81036769348212],[-38.61340277875558,66.80940898078023],[-38.60864475966459,66.809092415636],[-38.606022982076716,66.80696096330477],[-38.602602887172885,66.80479384327666],[-38.59918268115369,66.80262672905566],[-38.59522744974916,66.80043736598539],[-38.59050970933103,66.79905946946499],[-38.58527910104117,66.79946524515287],[-38.58026271236481,66.79913528120291],[-38.57476452126471,66.80048188880458],[-38.57402009372119,66.8011953789183],[-38.57038589800077,66.8026222842135],[-38.56928444828506,66.80459318765662],[-38.57323070849301,66.8067826669111],[-38.577952835685885,66.80816049190021],[-38.582648442083304,66.80964089883115],[-38.587339348994796,66.81112134622889],[-38.59223982910574,66.8118704613937],[-38.59720281182394,66.81240997604513],[-38.60219702294417,66.81284254637514],[-38.60700849278802,66.81390382301186],[-38.61182422728891,66.81496511436232],[-38.61690752374333,66.81508099297956],[-38.621371220712405,66.81358277444042],[-38.62297198784896,66.81174108693403]]],"type":"Polygon"},"id":"00000000000000000018_00000000000000000018","properties":{"area":2137893.306348084,"elevation":1772.8198958587263,"id":"00000000000000000018","region":"SE","surface":0.0,"year":2019},"type":"Feature"},{"geometry":{"coordinates":[[[-39.12081710413828,66.51115759331415],[-39.12011710973232,66.50974851777224],[-39.11915851741373,66.5083349538522],[-39.12003256367309,66.50699279665135],[-39.118547425244586,66.50555696185663],[-39.115350317110014,66.5045759929708],[-39.112180046631245,66.50349241736373],[-39.108630590742,66.50387585916503],[-39.10497402930092,66.50467854929677],[-39.10457726911103,66.50519132684471],[-39.103172659544946,66.50651122639293],[-39.10465737837282,66.50795151601586],[-39.10562052321896,66.50936502925403],[-39.104795738403745,66.51049764485022],[-39.1017143592316,66.51111300125186],[-39.10136217626728,66.51247298638935],[-39.1007468642043,66.51382417221478],[-39.09986843562888,66.51516632135016],[-39.10216937470839,66.51653080600714],[-39.10539772693782,66.5174047738533],[-39.108893649711916,66.51723090400058],[-39.112554499982224,66.51642823954364],[-39.11448086037971,66.5151306028122],[-39.11480630683107,66.51387318520808],[-39.11827562759779,66.51380627627846],[-39.12046505083567,66.51251764716069],[-39.12081710413828,66.51115759331415]]],"type":"Polygon"},"id":"0000000000000000001e_0000000000000000001e","properties":{"area":1025523.5825610915,"elevation":1630.5568059907223,"id":"0000000000000000001e","region":"SE","surface":0.0,"year":2019},"type":"Feature"},{"geometry":{"coordinates":[[[-41.032179685246376,65.2636616112219],[-41.03028446742983,65.26204297102487],[-41.0297583167572,65.2604644859853],[-41.02619557292461,65.25945670916279],[-41.02262389626916,65.25967965676224],[-41.02012665212417,65.26051349909125],[-41.01663089592886,65.25909552290415],[-41.013036650077595,65.25824830201074],[-41.01170800399523,65.25681243897712],[-41.01079391066043,65.25522056342724],[-41.007065967048995,65.2551938317718],[-41.00324469693117,65.25574227880347],[-41.0029502253178,65.25630856445696],[-41.001911281211854,65.2578424887373],[-41.00360562832855,65.25945670873263],[-41.00652650272953,65.26077659265704],[-41.008461699940234,65.26215001365622],[-41.00963893246883,65.26333608016303],[-41.011988842466955,65.2645579477751],[-41.0147713508014,65.2655433620544],[-41.01837883565275,65.26630589156117],[-41.02197285503179,65.26715311020713],[-41.02560695184498,65.26775065752673],[-41.02930802013443,65.26794238299892],[-41.03205493057188,65.26678748021271],[-41.03152860332837,65.26520896842543],[-41.032179685246376,65.2636616112219]]],"type":"Polygon"},"id":"00000000000000000025_00000000000000000025","properties":{"area":1084861.40764625,"elevation":1049.1116645383868,"id":"00000000000000000025","region":"SE","surface":0.0,"year":2019},"type":"Feature"},{"geometry":{"coordinates":[[[-27.603405206088063,69.77959840917032],[-27.59839755049912,69.77744906706518],[-27.593537115767248,69.77699873926683],[-27.596466707485703,69.77702100116028],[-27.59708214845013,69.77541132831502],[-27.590629727967485,69.77485838041036],[-27.584681418332245,69.774211836921],[-27.579076122826805,69.77273136931926],[-27.573961558785754,69.77348497693755],[-27.5709964334418,69.77141595993956],[-27.565208614074596,69.7701317417822],[-27.559121832846387,69.76917743934783],[-27.55273641093392,69.76993998461273],[-27.551568115033657,69.77076043380767],[-27.548237094568485,69.77280717435383],[-27.543448039989375,69.77367221068842],[-27.54881232025935,69.77542022643442],[-27.55397590850025,69.77693182764125],[-27.560067096580536,69.7778816839364],[-27.56651949729223,69.77843902584397],[-27.568891740276975,69.77628977539558],[-27.573292709774492,69.77654838366115],[-27.579745100770662,69.77710580002847],[-27.585836382845148,69.77805556294703],[-27.592168077042096,69.7787422592711],[-27.598081029044877,69.77989718553978],[-27.603405206088063,69.77959840917032]]],"type":"Polygon"},"id":"00000000000000000035_00000000000000000035","properties":{"area":1261977.093234306,"elevation":1751.0197820489325,"id":"00000000000000000035","region":"SE","surface":0.0,"year":2019},"type":"Feature"},{"geometry":{"coordinates":[[[-26.77853820808747,69.7423693461565],[-26.778199525499595,69.74028253408717],[-26.772799476777532,69.73973853852696],[-26.767082841594775,69.73952449056469],[-26.761308381449062,69.73981876571308],[-26.755970762283873,69.73920790119007],[-26.752033516260035,69.7389046545627],[-26.755319661214525,69.73723246131493],[-26.752251878033928,69.73512331860371],[-26.746852022198624,69.73457931637282],[-26.74089014256534,69.7346283304623],[-26.73511568668937,69.73448122318561],[-26.72977803421998,69.73387030820406],[-26.722995778894962,69.73477994038474],[-26.72357085439373,69.73528384270962],[-26.726509497313167,69.73752676381214],[-26.731780120624254,69.73820008454864],[-26.736930339701185,69.73901164586277],[-26.737073060885933,69.74107624788613],[-26.740899037966994,69.74283307453975],[-26.746174124589416,69.74351089335104],[-26.751574197631257,69.74405489948788],[-26.7569786998174,69.74459893329282],[-26.763319471815947,69.74414854560298],[-26.76853669657166,69.74489323347744],[-26.774110456693286,69.74391669928181],[-26.77853820808747,69.7423693461565]]],"type":"Polygon"},"id":"00000000000000000037_00000000000000000037","properties":{"area":1343531.991215076,"elevation":1516.0355872367106,"id":"00000000000000000037","region":"SE","surface":0.0,"year":2019},"type":"Feature"},{"geometry":{"coordinates":[[[-30.489642934865394,69.38365700569796],[-30.483400378179105,69.38261800176942],[-30.47405382697028,69.38323335225054],[-30.467615110612805,69.38478071350521],[-30.46159977910135,69.3870325030376],[-30.46743681294621,69.38836581289944],[-30.46407442960559,69.38959652505886],[-30.458139406470522,69.38684967896225],[-30.45055463916421,69.38789314995199],[-30.442371963007513,69.38974811845324],[-30.433797233173046,69.39109477133636],[-30.42295264303956,69.39090302628405],[-30.412433660434118,69.39027431126061],[-30.412665486699247,69.39149607447989],[-30.421026430509254,69.39480026946822],[-30.425556845942598,69.39841659450401],[-30.4354336719839,69.39991931448633],[-30.446577042167593,69.39920582204333],[-30.453823115009197,69.39760060477089],[-30.456257751214615,69.39455055390582],[-30.4631870912793,69.39311476642331],[-30.469733088618945,69.39451485682974],[-30.478914509531073,69.39361864296055],[-30.485901852012592,69.39158522221538],[-30.488978626335417,69.38919965431877],[-30.48661525666863,69.38571708554936],[-30.489642934865394,69.38365700569796]]],"type":"Polygon"},"id":"0000000000000000003d_0000000000000000003d","properties":{"area":2891530.1965782666,"elevation":1792.884831460675,"id":"0000000000000000003d","region":"SE","surface":0.0,"year":2019},"type":"Feature"},{"geometry":{"coordinates":[[[-30.603773590859824,69.29262443109512],[-30.59934143118479,69.29060445024318],[-30.592233651788888,69.29070258397479],[-30.592367304134015,69.29313719948114],[-30.589286189126284,69.29292320976572],[-30.5866910254237,69.29073378960692],[-30.58356506046934,69.29294102631208],[-30.57913708858083,69.29327993698861],[-30.573861974967475,69.29320412363177],[-30.573233320781284,69.29355190663377],[-30.572020421770645,69.29600001580178],[-30.57240831865892,69.2967758357636],[-30.56548784587536,69.29634774225828],[-30.564190188190384,69.2986531038327],[-30.558424705764516,69.29873340706608],[-30.55655624417427,69.30051700338264],[-30.55427782109987,69.3025994592984],[-30.55630209898045,69.30426266138909],[-30.560011982074176,69.30440091201454],[-30.56628161783425,69.30389253689374],[-30.573095103932424,69.30289819366156],[-30.58116605840305,69.30174772920964],[-30.588162424887848,69.30049922602637],[-30.593834499372047,69.2984524961445],[-30.598784049665475,69.29661531481398],[-30.60105818919171,69.29453294879642],[-30.603773590859824,69.29262443109512]]],"type":"Polygon"},"id":"00000000000000000042_00000000000000000042","properties":{"area":1542111.4374335636,"elevation":1823.1976845131187,"id":"00000000000000000042","region":"SE","surface":0.0,"year":2019},"type":"Feature"},{"geometry":{"coordinates":[[[-29.638142065913517,69.03545470655139],[-29.63277313407971,69.03384496220312],[-29.630106719515876,69.03412586804126],[-29.623596356748457,69.03449598496924],[-29.61674282688931,69.03334555547197],[-29.610178992073642,69.0318204847142],[-29.608885729668614,69.02932787056919],[-29.603124575995167,69.02970689026742],[-29.595981234464407,69.02893546979504],[-29.595214292490066,69.02919857991012],[-29.5963914755974,69.03208365072398],[-29.599784828401077,69.0347858549319],[-29.601679988716395,69.03747020512596],[-29.607713165298623,69.03969083875998],[-29.6143305199359,69.04115343757285],[-29.621389049750597,69.04056480211182],[-29.6239174075032,69.03973098223112],[-29.620332297749442,69.03850031722028],[-29.615891097196855,69.03691286147286],[-29.609032958083702,69.03576241163817],[-29.607084248017664,69.03388064764262],[-29.61335827204018,69.03578464453136],[-29.62006934750542,69.03712241441958],[-29.625741240775184,69.03883021777463],[-29.633049722181603,69.0391423322882],[-29.635756382674284,69.03758617029563],[-29.638142065913517,69.03545470655139]]],"type":"Polygon"},"id":"00000000000000000045_00000000000000000045","properties":{"area":1150822.248461649,"elevation":1804.9686354007001,"id":"00000000000000000045","region":"SE","surface":0.0,"year":2019},"type":"Feature"},{"geometry":{"coordinates":[[[-43.467107529057316,62.19105561638422],[-43.46671954986324,62.190765803963245],[-43.46633150588867,62.190480402981116],[-43.465747498437864,62.19019060095248],[-43.46515878428949,62.18990073046625],[-43.46457021689795,62.18961091663023],[-43.46397284605051,62.189508336817674],[-43.46337967852465,62.18931216131603],[-43.462768837126966,62.18940133149178],[-43.46216223268074,62.18948602990065],[-43.461547038706186,62.18966884139263],[-43.460931632950626,62.1898472336138],[-43.46031179798317,62.19012368305482],[-43.45969202521745,62.19039571736372],[-43.45947348473112,62.19067664587407],[-43.45945570981018,62.19095752578713],[-43.45944230181101,62.19124288079887],[-43.459825710958626,62.19152830083551],[-43.460013075254665,62.19181372184931],[-43.46060164050128,62.19210356472147],[-43.461185776299985,62.19239334280514],[-43.46177436299937,62.192683180571755],[-43.46236744084674,62.1928794247645],[-43.462978349521634,62.192790254448894],[-43.463584878528586,62.192705490176024],[-43.464209040476,62.192429019945635],[-43.464828951646346,62.192157015366995],[-43.465448646894544,62.191880591709555],[-43.46606847310357,62.191604109791726],[-43.46668835302425,62.19133209640607],[-43.467107529057316,62.19105561638422]]],"type":"Polygon"},"id":"00000000000000000034_00000000000000000034","properties":{"area":107913.82993303442,"elevation":1846.4123336964778,"id":"00000000000000000034","region":"SE","surface":0.0,"year":2019},"type":"Feature"},{"geometry":{"coordinates":[[[-43.31424051114437,62.06707923222],[-43.31334421538639,62.0666333369542],[-43.312452550943334,62.066191916373725],[-43.31156073335206,62.06574596307787],[-43.31065555472649,62.06551855657373],[-43.30974132270255,62.0653981491335],[-43.30882272677136,62.06538481289119],[-43.307899709925515,62.06537140055073],[-43.3069811163334,62.06535804885736],[-43.306075982872926,62.06513060505263],[-43.30515296965542,62.06511728400525],[-43.304220920507696,62.065317878995906],[-43.30327570043051,62.06573702285429],[-43.30232588674215,62.0661562607948],[-43.30138061817272,62.06657539097544],[-43.30136717463246,62.06679383021941],[-43.30110852836837,62.06722190006266],[-43.30154110147872,62.06765892746511],[-43.302432834759514,62.0681048543628],[-43.303338165401286,62.068332278052566],[-43.30426112789849,62.06834566960384],[-43.305188568706605,62.06824756421231],[-43.306107243096825,62.068260931058816],[-43.307025642250785,62.06827428592095],[-43.30794888266357,62.06828765065986],[-43.30886741935722,62.06830104943296],[-43.30978595722025,62.06831444050067],[-43.31070892474646,62.06832777769794],[-43.31162755746517,62.06833674510587],[-43.31257292740044,62.06792204812244],[-43.3135226588051,62.067502830474],[-43.31424051114437,62.06707923222]]],"type":"Polygon"},"id":"00000000000000000039_00000000000000000039","properties":{"area":196886.668753843,"elevation":1657.9604787591502,"id":"00000000000000000039","region":"SE","surface":0.0,"year":2019},"type":"Feature"},{"geometry":{"coordinates":[[[-31.720096286482857,68.78415759222358],[-31.71995798039364,68.78310970748095],[-31.717603681743586,68.78202170749714],[-31.71668507617847,68.78060810204505],[-31.715958264900692,68.77921687109227],[-31.716203407128642,68.7779059083711],[-31.71605641422019,68.7765592987312],[-31.715717520064427,68.77519928631766],[-31.713354138589686,68.7738124322269],[-31.710990776088007,68.77242569511992],[-31.706826058225186,68.77317926222646],[-31.704930921589902,68.77420039376359],[-31.703530777116875,68.77541329839096],[-31.70173809574763,68.77659047040684],[-31.70110947457103,68.77787023381123],[-31.699901047708018,68.77909649733131],[-31.700431641691893,68.78047437085219],[-31.700962288926295,68.78185224459018],[-31.702072589565237,68.78327914933135],[-31.704962047890294,68.78449200809897],[-31.7080343090103,68.78541953702997],[-31.711378635510172,68.78592783848144],[-31.714138789795822,68.78483092271738],[-31.71449123906995,68.78523225756669],[-31.716069710282376,68.78625338776173],[-31.718009287661065,68.78516089423648],[-31.720096286482857,68.78415759222358]]],"type":"Polygon"},"id":"00000000000000000001_00000000000000000001","properties":{"area":832760.0568275119,"elevation":1702.6495316914918,"id":"00000000000000000001","region":"SE","surface":0.0,"year":2019},"type":"Feature"},{"geometry":{"coordinates":[[[-31.3160927528411,68.8375955181635],[-31.31583420318977,68.83675716878906],[-31.31422443208365,68.83579844951805],[-31.312329251603785,68.83525894008957],[-31.310010653448565,68.8353525112036],[-31.307977212630707,68.83502702125709],[-31.30598854133521,68.83463019975396],[-31.304137856610595,68.83401928320197],[-31.301681051166682,68.83432247538511],[-31.301012223261974,68.83500471545301],[-31.302626209879843,68.83596341427346],[-31.30230078528975,68.8367481986385],[-31.303330780481744,68.83765792096193],[-31.30242124156375,68.83839362762514],[-31.302095571146875,68.83917845544765],[-31.301578356839087,68.83994984582432],[-31.300864930955644,68.84069903852702],[-31.30150703209072,68.84157299237464],[-31.30321483190209,68.84238899720214],[-31.305533641997897,68.84229980946373],[-31.3078077093819,68.84227749785614],[-31.310269300594975,68.84197428874515],[-31.31291799275535,68.84139013986935],[-31.314599050546054,68.84072572635712],[-31.315700420105255,68.84000335405742],[-31.315637959014403,68.83918290394686],[-31.315379215236064,68.83834459254258],[-31.3160927528411,68.8375955181635]]],"type":"Polygon"},"id":"00000000000000000002_00000000000000000002","properties":{"area":431198.17224837164,"elevation":1963.499364803424,"id":"00000000000000000002","region":"SE","surface":0.0,"year":2019},"type":"Feature"},{"geometry":{"coordinates":[[[-33.06162582328888,69.2882723709041],[-33.06140736042332,69.28662695723946],[-33.05660482348765,69.28697477043764],[-33.05304649225433,69.28791116010053],[-33.04959947853884,69.28666263911327],[-33.04687508147177,69.28553894673304],[-33.042072517760374,69.28588673737012],[-33.0401819753928,69.28737159404594],[-33.0360885108289,69.28720665044942],[-33.03168725432437,69.28687664935089],[-33.03181671961472,69.28766147142021],[-33.03030948293589,69.28917758402825],[-33.02995281612098,69.29077838928744],[-33.02767854754006,69.29223202825973],[-33.0239598380789,69.29344047089211],[-33.02455734925224,69.29511262067601],[-33.02400432194296,69.29669558729474],[-33.026661776922026,69.29760523303187],[-33.03062162576208,69.2973332261102],[-33.03582996612979,69.29631211245932],[-33.037912242569284,69.29484061207896],[-33.03865236715416,69.29326652310925],[-33.04180053396231,69.29201800284628],[-33.04628194744754,69.29086758109416],[-33.051450113920765,69.28991329542608],[-33.056457762027,69.28922660595626],[-33.06162582328888,69.2882723709041]]],"type":"Polygon"},"id":"00000000000000000006_00000000000000000006","properties":{"area":859742.3972084391,"elevation":2018.318515600114,"id":"00000000000000000006","region":"SE","surface":0.0,"year":2019},"type":"Feature"},{"geometry":{"coordinates":[[[-32.03033380379593,69.3129534976476],[-32.02973187221691,69.31233811660539],[-32.02825125719056,69.31214638710725],[-32.0266816868745,69.31208842204593],[-32.02546454147444,69.31149091761029],[-32.02398403195364,69.31129914348793],[-32.02280690977726,69.31063475089644],[-32.0215894027041,69.31003722245518],[-32.01980142203412,69.31031815576533],[-32.01971215546437,69.31045640500527],[-32.018980900448184,69.3109646766143],[-32.018436873820725,69.31148648210515],[-32.017705560529386,69.31199474844318],[-32.01735331627846,69.3125342860619],[-32.01662208766689,69.31304262200007],[-32.01626960001116,69.31358219978281],[-32.0170590854656,69.31421537071041],[-32.01785270195206,69.31484861787425],[-32.01864642320212,69.31548174495828],[-32.019819147764316,69.3161461767837],[-32.0211256438533,69.31660547975876],[-32.02291838730503,69.31632456183247],[-32.02479561758548,69.31590984580141],[-32.026289269476166,69.31546393402607],[-32.02740404862859,69.31498679327576],[-32.02871063562826,69.31452304897996],[-32.02963362105505,69.31403256198823],[-32.029794171006934,69.31347519382071],[-32.03033380379593,69.3129534976476]]],"type":"Polygon"},"id":"00000000000000000008_00000000000000000008","properties":{"area":246646.91557752804,"elevation":2443.816915943547,"id":"00000000000000000008","region":"SE","surface":0.0,"year":2019},"type":"Feature"},{"geometry":{"coordinates":[[[-32.447852786612316,69.20476674026818],[-32.44743358849988,69.20416482928458],[-32.44608251082522,69.20377679843364],[-32.444900878776636,69.2031169074377],[-32.44329559739326,69.20313026432828],[-32.44173474015955,69.20307675530243],[-32.439875475902724,69.20349594522484],[-32.43877405757937,69.2039774962603],[-32.43725347187649,69.20385713860625],[-32.43548336789023,69.20414249495887],[-32.435122040949096,69.20439669858521],[-32.4349749036247,69.20495407130596],[-32.4342526077354,69.20546239144888],[-32.43505524258091,69.20609113142781],[-32.4349080895572,69.20664850534425],[-32.43456900706508,69.20718805577101],[-32.435371704518005,69.20781679458949],[-32.43663379245411,69.20834297887217],[-32.43845297927991,69.2079906668518],[-32.439465219524145,69.20828494898902],[-32.440860903677375,69.20860607876443],[-32.44263558434039,69.2083206779348],[-32.44449051896096,69.20790150472129],[-32.44559186047677,69.2074243795424],[-32.44668885054448,69.20694278997381],[-32.44721956661513,69.20641659051778],[-32.4469878086934,69.20583250014434],[-32.44751401374623,69.20530631677148],[-32.447852786612316,69.20476674026818]]],"type":"Polygon"},"id":"00000000000000000009_00000000000000000009","properties":{"area":249416.19996038478,"elevation":2044.7643594580215,"id":"00000000000000000009","region":"SE","surface":0.0,"year":2019},"type":"Feature"},{"geometry":{"coordinates":[[[-33.61773357040119,69.1515295661823],[-33.617497170502205,69.15107474917639],[-33.61749735648287,69.15063776608588],[-33.61655632486069,69.15013384667516],[-33.61561114625707,69.14962553125352],[-33.61447854432209,69.1494605100229],[-33.61329667488041,69.14937579333069],[-33.61202150761287,69.14945605194394],[-33.61083979921006,69.14937138707324],[-33.60951548656524,69.14954076155351],[-33.60819105642666,69.1497057694101],[-33.60676873838908,69.15004466904762],[-33.60535061851342,69.1503790758362],[-33.60497167922402,69.15061541158735],[-33.60449459072499,69.15102122237124],[-33.604258287044665,69.1514404089132],[-33.60402183020447,69.15185952307577],[-33.60378113080262,69.15228311631405],[-33.60425385305781,69.15275581523665],[-33.60519474847673,69.15325970288711],[-33.606139967075116,69.15376357583168],[-33.607085275506975,69.1542719132481],[-33.608266998962975,69.15435665153777],[-33.60968493574533,69.15401771296962],[-33.61110303163268,69.15368330390196],[-33.612525375477155,69.15334887261702],[-33.613234501696724,69.15296092823961],[-33.61442053070071,69.15260866631287],[-33.615838443569636,69.15226974141225],[-33.61702012562418,69.15191746759494],[-33.61773357040119,69.1515295661823]]],"type":"Polygon"},"id":"0000000000000000000b_0000000000000000000b","properties":{"area":210385.05235489385,"elevation":1912.408963964726,"id":"0000000000000000000b","region":"SE","surface":0.0,"year":2019},"type":"Feature"},{"geometry":{"coordinates":[[[-34.385296521540624,68.05236555718669],[-34.384953213879015,68.05142471076329],[-34.38440922085784,68.0504704730347],[-34.38328104082125,68.04947611147986],[-34.38234464423633,68.04849957782532],[-34.38081951365597,68.04747844834574],[-34.37879062889156,68.04664906323812],[-34.37668599224358,68.04596678991736],[-34.37436277173729,68.0457259707468],[-34.372003941351274,68.04556096776196],[-34.36942207349076,68.04583747777161],[-34.36934628039734,68.04598468735095],[-34.37027839360656,68.0469656394867],[-34.370229077983346,68.0478752800913],[-34.37077317850182,68.04882951170941],[-34.37092045674111,68.04975259833161],[-34.37204850631706,68.05074697816521],[-34.37318107768703,68.05174134686192],[-34.375174322427284,68.05264210517437],[-34.376699414628646,68.05366762641819],[-34.37783205523709,68.05465761594304],[-34.37935700163843,68.05568319941642],[-34.38142155643704,68.0564367883608],[-34.384114863166864,68.0559372930739],[-34.383575265178415,68.05498754438251],[-34.38342815560319,68.05406001362041],[-34.383673324631715,68.05316375696707],[-34.385296521540624,68.05236555718669]]],"type":"Polygon"},"id":"0000000000000000000c_0000000000000000000c","properties":{"area":471344.090516601,"elevation":1901.9130577427834,"id":"0000000000000000000c","region":"SE","surface":0.0,"year":2019},"type":"Feature"},{"geometry":{"coordinates":[[[-34.20269174138489,67.94639951368053],[-34.202245943124105,67.94568163839854],[-34.20238418629363,67.94500382703517],[-34.20096163367345,67.94421458429431],[-34.1994590092128,67.943576968758],[-34.19777357718693,67.9433004775681],[-34.19616377704734,67.9428812593203],[-34.19443796934666,67.94268063508558],[-34.192863913934076,67.94218567120859],[-34.19083964833846,67.94257362108428],[-34.18911831808568,67.94237743554095],[-34.187129515059155,67.94268955427947],[-34.18671043220121,67.94311768191339],[-34.18813727005142,67.94390687541889],[-34.18877953641951,67.94463819809059],[-34.18791893927857,67.94472740043499],[-34.18593452126794,67.9450439679208],[-34.18599243260993,67.9457351434131],[-34.18760229625025,67.94615425316947],[-34.18951521927536,67.94598484347274],[-34.19022879482014,67.94657345499499],[-34.19173135017675,67.94721556609998],[-34.19345251926304,67.94741173467638],[-34.195254212380526,67.9474652755818],[-34.197091255903636,67.94744744579113],[-34.19888839450358,67.94749647580967],[-34.20098847546172,67.9469614167097],[-34.20269174138489,67.94639951368053]]],"type":"Polygon"},"id":"0000000000000000000d_0000000000000000000d","properties":{"area":292251.8285699728,"elevation":1624.5354723533287,"id":"0000000000000000000d","region":"SE","surface":0.0,"year":2019},"type":"Feature"},{"geometry":{"coordinates":[[[-38.75528252402646,66.29495362936106],[-38.75520660990669,66.29440964513518],[-38.75513528024242,66.29387007995216],[-38.75461804199598,66.29331264996003],[-38.75432365708648,66.29275972274893],[-38.75314640274417,66.29217114753096],[-38.751853386428685,66.29202396277311],[-38.750560215845375,66.2918768151543],[-38.74931165937408,66.29155574470437],[-38.74796940660079,66.29158697264552],[-38.746649645239934,66.29152899955908],[-38.74520933995779,66.29191246977405],[-38.743795792011284,66.29220677638743],[-38.74250264618676,66.29205966230988],[-38.74106240928246,66.29244315263452],[-38.74101341068832,66.29262150215169],[-38.74064764362159,66.2931432018743],[-38.74094195147624,66.29369174919356],[-38.742119183124906,66.2942802761668],[-38.74329197621481,66.2948689216179],[-38.744634185081736,66.29484215654996],[-38.74588268014182,66.29516321059327],[-38.747153501868475,66.29539947875641],[-38.74842432152233,66.29563585082583],[-38.74969521895197,66.29586772944124],[-38.75101502923323,66.29592572060085],[-38.75240637606273,66.2957205832816],[-38.75381969189193,66.29542627630057],[-38.75528252402646,66.29495362936106]]],"type":"Polygon"},"id":"00000000000000000020_00000000000000000020","properties":{"area":239084.55773423437,"elevation":1279.1591977766086,"id":"00000000000000000020","region":"SE","surface":0.0,"year":2019},"type":"Feature"},{"geometry":{"coordinates":[[[-41.578522086610946,65.08750042215387],[-41.577505489942425,65.0862741384625],[-41.574678266209126,65.08610023946024],[-41.57166394601205,65.0872283824597],[-41.570072105945016,65.08839224789325],[-41.568716532336715,65.08956052606072],[-41.56783358187383,65.09074214962982],[-41.566718871132146,65.09191942036192],[-41.56559972335476,65.09309212341793],[-41.56376692250939,65.09425151099805],[-41.563361228626796,65.0954420782593],[-41.562242040353354,65.09661927623064],[-41.56278162908772,65.09783659256756],[-41.56548378067793,65.09890680732505],[-41.568301846391506,65.09917878244008],[-41.571133429684686,65.09934819534777],[-41.57367061592446,65.09821112201689],[-41.57336731847397,65.09699828029585],[-41.57377751259025,65.09580769442816],[-41.57465611096377,65.09462599331398],[-41.57601168092011,65.09345773596075],[-41.57808065810249,65.09230281826304],[-41.578250122780624,65.09110339813147],[-41.57794680128845,65.08989493610325],[-41.57835264427123,65.08869993801808],[-41.578522086610946,65.08750042215387]]],"type":"Polygon"},"id":"00000000000000000028_00000000000000000028","properties":{"area":699070.6654218858,"elevation":1396.4514690383094,"id":"00000000000000000028","region":"SE","surface":0.0,"year":2019},"type":"Feature"},{"geometry":{"coordinates":[[[-43.63112662403992,62.96169978201924],[-43.62858934529633,62.960281748922775],[-43.62554381355087,62.9603486198043],[-43.62250262137579,62.960219333792324],[-43.62134784231128,62.96149019311205],[-43.6198540585635,62.960981863657295],[-43.61687085061499,62.959760086075704],[-43.61477051890246,62.95835099041825],[-43.612656998534064,62.957138115387224],[-43.609655985147256,62.95631314979284],[-43.608862387176785,62.95491749491719],[-43.60586140068759,62.95409255117338],[-43.60281135636361,62.95415499384882],[-43.60253036037855,62.955341135259374],[-43.60376100252116,62.956741242182694],[-43.60674435750136,62.95786494806261],[-43.60885334337029,62.95917595026665],[-43.61029816787128,62.960580512390365],[-43.61174744168952,62.96198068559568],[-43.61210848697049,62.96337195700407],[-43.61507834446231,62.96478997272006],[-43.618070471725176,62.96581551914961],[-43.6210802047428,62.96654239253484],[-43.62416594179694,62.96578429261659],[-43.62728722888671,62.96442875747596],[-43.629967231162354,62.96307318394712],[-43.63112662403992,62.96169978201924]]],"type":"Polygon"},"id":"00000000000000000033_00000000000000000033","properties":{"area":807724.7888395756,"elevation":1892.6224900524235,"id":"00000000000000000033","region":"SE","surface":41.0,"year":2019},"type":"Feature"},{"geometry":{"coordinates":[[[-27.02907289203338,69.68679556559398],[-27.027012859127698,69.68539539206593],[-27.02521135936501,69.6868713621276],[-27.022335132262,69.68837859875524],[-27.01946785651216,69.69032271719713],[-27.01755056771476,69.69236948963788],[-27.01506242854066,69.69435825304629],[-27.01295337959534,69.69638714207431],[-27.010656856774144,69.6983937480619],[-27.009109607495873,69.70004804980005],[-27.008690376059246,69.69824652000167],[-27.01155764227569,69.69630239310577],[-27.009376964974518,69.6950315171304],[-27.004583604540635,69.69588327148244],[-27.003807705158273,69.69805927999283],[-26.99998162976713,69.69989643750124],[-27.004267023392995,69.70162210077453],[-27.007535437865492,69.70330767431545],[-27.012311206847073,69.70157751197088],[-27.016324261454972,69.69976709189562],[-27.01747931438413,69.69762670839587],[-27.021109012058428,69.69577173199077],[-27.023788950157503,69.69380527330952],[-27.027686200848,69.6925612287065],[-27.027012899196873,69.69080430170838],[-27.027347198622536,69.6888690674405],[-27.02907289203338,69.68679556559398]]],"type":"Polygon"},"id":"00000000000000000036_00000000000000000036","properties":{"area":702864.868535518,"elevation":1641.3552233227435,"id":"00000000000000000036","region":"SE","surface":0.0,"year":2019},"type":"Feature"},{"geometry":{"coordinates":[[[-30.940052408661227,69.42722237131639],[-30.93978486360278,69.42653126527155],[-30.939164840259448,69.42580885507432],[-30.93782737860513,69.42502854022602],[-30.936181967227267,69.42468072903829],[-30.93430901685853,69.42464954183346],[-30.932574410671126,69.42443101735016],[-30.93083548497893,69.42421251620313],[-30.929100808933537,69.42398959669936],[-30.928298106502613,69.4232537960731],[-30.9274999513733,69.42251802167833],[-30.9254978650185,69.4226740885893],[-30.925047446576585,69.4230353363845],[-30.925136592787627,69.42370864340563],[-30.923977294420744,69.42427046347431],[-30.92370974543111,69.42491254960463],[-30.92433414956964,69.42563498108981],[-30.925667337682995,69.42641974194974],[-30.926287053178203,69.42713770625639],[-30.927803182571573,69.42767277077245],[-30.929404009030847,69.42807850239066],[-30.931187675631747,69.42823911747003],[-30.932922196945185,69.42845762156351],[-30.934795098367548,69.42848878865516],[-30.936846356746713,69.42827028778242],[-30.93907140607067,69.4278020819772],[-30.940052408661227,69.42722237131639]]],"type":"Polygon"},"id":"0000000000000000003c_0000000000000000003c","properties":{"area":254060.4887666913,"elevation":2002.942754568276,"id":"0000000000000000003c","region":"SE","surface":0.0,"year":2019},"type":"Feature"},{"geometry":{"coordinates":[[[-29.76283197943288,69.52024818276942],[-29.760129549338465,69.51831293122576],[-29.7551932676107,69.51777781846332],[-29.74985146358638,69.5187410126921],[-29.745320867987317,69.51817467204889],[-29.743818185597252,69.51936973816869],[-29.747929509548026,69.52023034901433],[-29.746132506056647,69.52106420716326],[-29.741388063008596,69.52027493073271],[-29.73795899859482,69.5207519882356],[-29.734806474920358,69.51891043725144],[-29.735791840086808,69.51739435367972],[-29.740340261574875,69.51769757119264],[-29.73663462809384,69.5168057716656],[-29.732782005424465,69.51610568162218],[-29.729321721751386,69.51711345371997],[-29.728492149217878,69.51891042100375],[-29.728380745520628,69.52077433139759],[-29.729687247518473,69.5227720057786],[-29.7344318191094,69.52356131767455],[-29.739171672228462,69.52435052100998],[-29.743916280855334,69.52513531695926],[-29.749418841130815,69.5244575628455],[-29.752379607204578,69.52286568013663],[-29.753784280816358,69.5217955304954],[-29.759157423365924,69.52176872738276],[-29.76283197943288,69.52024818276942]]],"type":"Polygon"},"id":"0000000000000000003e_0000000000000000003e","properties":{"area":749182.291302242,"elevation":2003.134711415632,"id":"0000000000000000003e","region":"SE","surface":0.0,"year":2019},"type":"Feature"},{"geometry":{"coordinates":[[[-29.06562899369771,69.49288714566299],[-29.06246309704063,69.49230301390534],[-29.05935077892223,69.49165641800363],[-29.05532861992794,69.49212462636319],[-29.052465727825965,69.49304766142237],[-29.049629816958173,69.49370311183183],[-29.045786098380812,69.49419363838462],[-29.0429723485043,69.49505428811636],[-29.040319235845452,69.49384579986813],[-29.036341643611024,69.49425605462037],[-29.036243710457445,69.49484913694572],[-29.03578429892152,69.49540647083202],[-29.032368577885617,69.49513006771008],[-29.029635224821842,69.49613338710427],[-29.032239373983625,69.49740416813961],[-29.03580655942689,69.49749338526556],[-29.038161006951164,69.49813098010809],[-29.04031469046801,69.49901835349037],[-29.044136147955708,69.49879985931507],[-29.04785954186624,69.4987018285962],[-29.051480252157344,69.49872853667488],[-29.05492284134368,69.49779656584876],[-29.058414207063365,69.49727042942001],[-29.06238719757187,69.49639196992555],[-29.06370708430944,69.49525043857463],[-29.06502255859812,69.49410445296998],[-29.06562899369771,69.49288714566299]]],"type":"Polygon"},"id":"0000000000000000003f_0000000000000000003f","properties":{"area":649487.0056339896,"elevation":2114.888025442479,"id":"0000000000000000003f","region":"SE","surface":0.0,"year":2019},"type":"Feature"},{"geometry":{"coordinates":[[[-30.600888556867453,69.27201002121325],[-30.598980184021887,69.27149716983203],[-30.597067194960374,69.27098887446708],[-30.59479315931971,69.27098443455884],[-30.592514475250322,69.27097995715438],[-30.590102041946416,69.2711627541062],[-30.587729902630873,69.27128313393627],[-30.585397597198796,69.27188068644791],[-30.582985343061882,69.2720635169514],[-30.58047924001643,69.27237566745599],[-30.578062404699367,69.27255849008822],[-30.577973407419183,69.27268334251156],[-30.578717936385306,69.27349039971101],[-30.57821410571119,69.27418604303148],[-30.577661241525046,69.27494412744213],[-30.57966334255477,69.27532755953855],[-30.581638798195236,69.27469883454384],[-30.583551605781086,69.27521161472458],[-30.585781170942806,69.27527856264031],[-30.587921694669696,69.27547472742584],[-30.59033835806775,69.27529193119287],[-30.592612637733232,69.27529636121848],[-30.59530136842884,69.27473450432855],[-30.59728119439798,69.27410576297511],[-30.5992565973384,69.27347703020362],[-30.600518462091383,69.27278145013064],[-30.600888556867453,69.27201002121325]]],"type":"Polygon"},"id":"00000000000000000043_00000000000000000043","properties":{"area":334878.95470500755,"elevation":1848.3008192771097,"id":"00000000000000000043","region":"SE","surface":0.0,"year":2019},"type":"Feature"},{"geometry":{"coordinates":[[[-35.33397479011647,66.79793578729357],[-35.33072411044428,66.79601832889703],[-35.325867947766916,66.79616548441147],[-35.32560948150145,66.79453789815103],[-35.32120832232085,66.79584887050227],[-35.315072499766316,66.79562594715675],[-35.31653078677813,66.79723567515968],[-35.31713270800407,66.7991708997794],[-35.31545157965209,66.80028566381439],[-35.3096726969061,66.7992333604562],[-35.306136528824744,66.79909068544518],[-35.30685896633826,66.79687006015955],[-35.30618546570968,66.79455575843025],[-35.30086582036707,66.79410095927258],[-35.300473601458414,66.79445319672615],[-35.29873885753398,66.7967942515106],[-35.298168113405254,66.79921552699862],[-35.29899764193603,66.80173045472522],[-35.3034923066829,66.80297900744276],[-35.306653868043576,66.80564998095535],[-35.31135369373321,66.80587301164944],[-35.31075603745361,66.80337585051151],[-35.31539803594791,66.80207828164012],[-35.32141337783873,66.80257764694876],[-35.32423153640568,66.80049970815797],[-35.330501090996215,66.79931362772572],[-35.33397479011647,66.79793578729357]]],"type":"Polygon"},"id":"00000000000000000011_00000000000000000011","properties":{"area":1023685.4109699471,"elevation":1409.8410800350528,"id":"00000000000000000011","region":"SE","surface":0.0,"year":2019},"type":"Feature"},{"geometry":{"coordinates":[[[-31.328796778095256,68.8152687177134],[-31.328734383177267,68.8144483005786],[-31.327026583729154,68.81363229272664],[-31.326005297596776,68.81302133900414],[-31.324779141711716,68.81209827637618],[-31.323945370868223,68.81121098275486],[-31.322237443552016,68.81039492326988],[-31.32034668523817,68.80985537125193],[-31.31774717128613,68.81036820065793],[-31.317412768000143,68.8105599520856],[-31.316703639598753,68.81131349117645],[-31.31618648410226,68.81208490508722],[-31.315473015574202,68.81283849532244],[-31.31514744892644,68.81362336263972],[-31.3152099146638,68.81444378320505],[-31.31546402627256,68.81528216395458],[-31.315722607524553,68.81612044968055],[-31.31578509073583,68.81694087271467],[-31.315847511446094,68.81776141199539],[-31.317069229282815,68.81868442531908],[-31.3192452467843,68.81880479969392],[-31.321564022230984,68.81871115180094],[-31.324208418625222,68.81812705376859],[-31.326660802539283,68.81752950977942],[-31.32756597339219,68.81679376207452],[-31.328663020856713,68.81607579509611],[-31.328796778095256,68.8152687177134]]],"type":"Polygon"},"id":"00000000000000000003_00000000000000000003","properties":{"area":400973.0841618648,"elevation":1954.5767169388005,"id":"00000000000000000003","region":"SE","surface":0.0,"year":2019},"type":"Feature"},{"geometry":{"coordinates":[[[-31.27148392887513,68.82142676519513],[-31.271136009104193,68.82073112501614],[-31.270012396002915,68.81996416742186],[-31.269084986662964,68.81921501406023],[-31.26815743630614,68.8184658954304],[-31.26722555323668,68.81771674943855],[-31.26590995727669,68.81693197178359],[-31.26407727317371,68.81691860015904],[-31.261910279137936,68.8173913059736],[-31.261143343479986,68.81791745715473],[-31.260911255230866,68.81856400852695],[-31.258931627518226,68.81876023656052],[-31.257245929513722,68.81913031068603],[-31.25663062334845,68.81974566476885],[-31.25601087396966,68.82035660601301],[-31.25558282902325,68.82098535552285],[-31.25651030478992,68.8217344069186],[-31.25744216518486,68.8224835894262],[-31.258851297304087,68.82313018032082],[-31.260166659924796,68.82391049101417],[-31.261910376621422,68.8240665582024],[-31.26360471489774,68.82428952197812],[-31.265486492675233,68.8242359472101],[-31.267653646424396,68.82375886756145],[-31.2690447444922,68.82321486436759],[-31.27044050992843,68.8226709039381],[-31.271443831461013,68.8220911224471],[-31.27148392887513,68.82142676519513]]],"type":"Polygon"},"id":"00000000000000000004_00000000000000000004","properties":{"area":361719.723010331,"elevation":1956.2600230460534,"id":"00000000000000000004","region":"SE","surface":0.0,"year":2019},"type":"Feature"},{"geometry":{"coordinates":[[[-32.06032135760088,69.31872802375554],[-32.05866254346405,69.31788526767566],[-32.05665138760485,69.3175775919376],[-32.05446198987633,69.31754192195203],[-32.05205858927737,69.31784508683972],[-32.04969517678334,69.31807698246259],[-32.04755477223356,69.31797440172028],[-32.04536534942605,69.31793870940488],[-32.042872807872456,69.31837574578748],[-32.042507206237076,69.31862990467425],[-32.04087940281009,69.31928094152758],[-32.03847172027529,69.31957967760964],[-32.03722766360276,69.32026196247834],[-32.036170719456834,69.32095305569723],[-32.03778936006495,69.32186718173088],[-32.03852072700586,69.32228194659804],[-32.03899334283805,69.32310236052028],[-32.04126750939066,69.32300428469604],[-32.04354171705768,69.32290174137684],[-32.04568648877989,69.32300869972002],[-32.04822358624476,69.32250488932578],[-32.050158966871415,69.32230424341058],[-32.05256680426287,69.32200542543826],[-32.055148719485075,69.32143468345505],[-32.0569679813763,69.32080144184441],[-32.05840382014096,69.32013712523947],[-32.05945603903571,69.3194414814122],[-32.06032135760088,69.31872802375554]]],"type":"Polygon"},"id":"00000000000000000007_00000000000000000007","properties":{"area":392455.7585184283,"elevation":2411.102637420863,"id":"00000000000000000007","region":"SE","surface":0.0,"year":2019},"type":"Feature"},{"geometry":{"coordinates":[[[-31.907057419215864,68.94007004953934],[-31.90655358214816,68.93931649902676],[-31.905117665745923,68.93848710073986],[-31.903597086914743,68.9377914564315],[-31.901983062225643,68.93723406428296],[-31.90046246439206,68.93653842725425],[-31.89863430771661,68.93631549061699],[-31.896805922005864,68.93608806769684],[-31.894848506499,68.93606576481213],[-31.892583140495148,68.93651618169864],[-31.891776194890564,68.9371582782231],[-31.89002817904106,68.93772014842288],[-31.88996575484619,68.9384246985048],[-31.89009070994869,68.93914704943478],[-31.88947086491477,68.93980254834564],[-31.889595609060663,68.94052494272634],[-31.890094954257822,68.94127404550784],[-31.891704680490548,68.941835847365],[-31.893229787364348,68.94253146873831],[-31.89496873876691,68.94288820347472],[-31.896886239422624,68.94297738724863],[-31.89906241882427,68.94266528614986],[-31.901372039791443,68.94214800247826],[-31.90350358243235,68.94190275541453],[-31.905808918380874,68.94138554852721],[-31.90605857909408,68.94069430088194],[-31.907057419215864,68.94007004953934]]],"type":"Polygon"},"id":"0000000000000000000a_0000000000000000000a","properties":{"area":398596.3456282705,"elevation":2026.0768650686782,"id":"0000000000000000000a","region":"SE","surface":0.0,"year":2019},"type":"Feature"},{"geometry":{"coordinates":[[[-34.3149139779955,67.90340932640976],[-34.313647589363924,67.90270928534092],[-34.312341260550404,67.90208054549157],[-34.31081609877666,67.90189766715102],[-34.30943828966009,67.9014206181748],[-34.30794895503565,67.90116196418457],[-34.306348013852734,67.90112181759307],[-34.3049301272045,67.90071607771564],[-34.303440708200974,67.90045741823745],[-34.30188006144576,67.90035036696216],[-34.30042648172359,67.9000159329913],[-34.29864281255108,67.90034590892431],[-34.29856693686475,67.90049307388453],[-34.29788477120528,67.90105489195179],[-34.298174544375605,67.90168366083786],[-34.29826819675722,67.90229905472586],[-34.29875417705469,67.90294558644459],[-34.30002509051678,67.9036456369977],[-34.3012914813571,67.90434572128157],[-34.30263362533955,67.90489867016034],[-34.30423445398496,67.9049343286756],[-34.30579507042394,67.90504582776184],[-34.30736030190841,67.90515726325562],[-34.30877402156828,67.90556309600025],[-34.310486181567185,67.90538024116486],[-34.31226987337226,67.90505026363478],[-34.31354504761198,67.90452857165296],[-34.31442348807644,67.9039845542701],[-34.3149139779955,67.90340932640976]]],"type":"Polygon"},"id":"0000000000000000000e_0000000000000000000e","properties":{"area":286277.3448512125,"elevation":1600.1436172901924,"id":"0000000000000000000e","region":"SE","surface":0.0,"year":2019},"type":"Feature"},{"geometry":{"coordinates":[[[-37.490797459027625,67.02065448980302],[-37.49078391689727,67.02009713820557],[-37.489562158443405,67.01947277339164],[-37.48821096827683,67.01924543089173],[-37.48669947661522,67.0194861923531],[-37.48548197417152,67.01886636206089],[-37.48426477004147,67.01824214588794],[-37.48296271674545,67.01785860752094],[-37.48155803325074,67.01778279356151],[-37.47999727680713,67.01818410789068],[-37.47880670159213,67.01867910153346],[-37.47762073937799,67.0191785117311],[-37.47663061620052,67.01968684200816],[-37.47644780084486,67.02023531562891],[-37.47565857917187,67.0207525727079],[-37.47527066237756,67.02129216775279],[-37.475489279796406,67.02185842369808],[-37.47590385465726,67.02243812205847],[-37.47672441751907,67.02304007262515],[-37.47804882321222,67.023347755051],[-37.47950685372017,67.02326301497152],[-37.480965023718454,67.02317832641549],[-37.482472041810745,67.02293752726077],[-37.483957104269315,67.02277698086276],[-37.48549548025407,67.02245596023087],[-37.48708297043908,67.02197884555777],[-37.48807282448971,67.02147048141256],[-37.489410434303664,67.02114052122155],[-37.490797459027625,67.02065448980302]]],"type":"Polygon"},"id":"00000000000000000012_00000000000000000012","properties":{"area":275353.94022840646,"elevation":2211.4522825889253,"id":"00000000000000000012","region":"SE","surface":0.0,"year":2019},"type":"Feature"},{"geometry":{"coordinates":[[[-37.596348726979514,66.98495495575668],[-37.596237234569074,66.98407201879344],[-37.59471661774939,66.98311778418031],[-37.59266993660907,66.98253362183037],[-37.59067677579805,66.98179789438902],[-37.588576576604055,66.98136980955867],[-37.58637368676061,66.98125827468994],[-37.58427340582898,66.98083028565178],[-37.58196350119465,66.98103536475952],[-37.57981447801511,66.98076337111293],[-37.577321706627906,66.98151249252187],[-37.57653683538981,66.98203420991034],[-37.577054174263054,66.9829349491112],[-37.57841869852208,66.98372422967272],[-37.57853452240625,66.98460711592193],[-37.5805054645659,66.98542310901679],[-37.581321513944125,66.98602509690326],[-37.581638014183575,66.98691692188407],[-37.58255219623589,66.98784444585041],[-37.583466374860365,66.98876745534695],[-37.585700304519385,66.98879868350541],[-37.588032449966235,66.98852220465015],[-37.590444803995545,66.98800498454965],[-37.591332089327544,66.98717107108116],[-37.59262086508412,66.98635952046291],[-37.595059980265965,66.98576647080066],[-37.596348726979514,66.98495495575668]]],"type":"Polygon"},"id":"00000000000000000013_00000000000000000013","properties":{"area":515021.2433787149,"elevation":2071.397679606066,"id":"00000000000000000013","region":"SE","surface":0.0,"year":2019},"type":"Feature"},{"geometry":{"coordinates":[[[-38.85917937528611,66.87412841621581],[-38.85828316810555,66.87345060811697],[-38.858189447265694,66.87281296661763],[-38.856762616175345,66.87211736188793],[-38.85533134260712,66.87141726903096],[-38.85390434159058,66.87072161940281],[-38.85230352114617,66.87065482288584],[-38.85076073321045,66.87037389449672],[-38.84907510051635,66.87062354446869],[-38.847304881792105,66.87118541754735],[-38.84659587173676,66.87179180586952],[-38.84562377311417,66.87238494971898],[-38.84465178992895,66.87298240997923],[-38.84421029186674,66.87359776129018],[-38.84510647939522,66.87427556855701],[-38.84600275565428,66.87494888088406],[-38.846359575682236,66.87559991101243],[-38.84672079887136,66.87625097602267],[-38.84815210694049,66.87695105891504],[-38.84977984707121,66.8769109069488],[-38.851438343854,66.87676819299365],[-38.853066034189986,66.87673248954172],[-38.854640147094635,66.8769064279462],[-38.85635687659232,66.87655415524226],[-38.8581270882836,66.87599231406654],[-38.85909922696251,66.87539476264534],[-38.858738030765515,66.87474375158244],[-38.85917937528611,66.87412841621581]]],"type":"Polygon"},"id":"00000000000000000014_00000000000000000014","properties":{"area":358329.16862589534,"elevation":1890.6282468663817,"id":"00000000000000000014","region":"SE","surface":0.0,"year":2019},"type":"Feature"},{"geometry":{"coordinates":[[[-38.695606331810666,66.79324476564106],[-38.6930645778444,66.79175549636763],[-38.69164664764578,66.79010114174756],[-38.689372331765426,66.78862070406316],[-38.68594787908877,66.78741223315495],[-38.68208192475187,66.78681921377374],[-38.67889357795883,66.78572229345016],[-38.676320771936574,66.78433996678348],[-38.6721916035884,66.78468780233354],[-38.668383342067806,66.78579363519819],[-38.66428098778835,66.78603889281554],[-38.664165062553266,66.78741225508594],[-38.66245290179225,66.7887187552533],[-38.66148070238947,66.79026613534953],[-38.660241140983345,66.79180454356799],[-38.66165468072107,66.79345878781695],[-38.664196328252196,66.79494812742412],[-38.66614494697892,66.7966248220575],[-38.66983713288318,66.79784654902689],[-38.673703077417,66.79843965390012],[-38.67768958529065,66.79861357136672],[-38.68156020442237,66.79920659643531],[-38.68572492579637,66.79875174083142],[-38.690032518326326,66.79777524585117],[-38.69286844841137,66.79630822315377],[-38.694371066509675,66.79477872928194],[-38.695606331810666,66.79324476564106]]],"type":"Polygon"},"id":"00000000000000000015_00000000000000000015","properties":{"area":1817230.6310522696,"elevation":1764.0538010861662,"id":"00000000000000000015","region":"SE","surface":0.0,"year":2019},"type":"Feature"},{"geometry":{"coordinates":[[[-38.55629058118156,66.83256955294407],[-38.55283468239102,66.83145929177141],[-38.549049006889994,66.8315038514372],[-38.54559305698493,66.83039354745317],[-38.542400474722925,66.83025082192083],[-38.539305764406336,66.82884178337798],[-38.5389267911102,66.82733908309122],[-38.53544433748459,66.82633580540255],[-38.532139982513606,66.82469929037953],[-38.52820725952664,66.82526559548889],[-38.52406018296454,66.82656762621518],[-38.523997832073434,66.82677721791582],[-38.52118420530509,66.8281372609797],[-38.52022530959331,66.82958197566697],[-38.52139811059939,66.83112042231943],[-38.52363660202422,66.83270778612095],[-38.52718161437955,66.83350150469832],[-38.530013103304306,66.83490172657478],[-38.53278666935322,66.83651140541039],[-38.53561811203093,66.8379115982064],[-38.53901153927266,66.83923146943557],[-38.54277050222439,66.83928945266099],[-38.54658753930297,66.8391422931546],[-38.55061421342026,66.83825937785713],[-38.55422587474329,66.83693504650279],[-38.55571529206098,66.83551708310132],[-38.55613437978875,66.83405000684598],[-38.55629058118156,66.83256955294407]]],"type":"Polygon"},"id":"00000000000000000017_00000000000000000017","properties":{"area":1499410.7099704344,"elevation":1786.2983382759357,"id":"00000000000000000017","region":"SE","surface":0.0,"year":2019},"type":"Feature"},{"geometry":{"coordinates":[[[-39.163883217980725,66.62119484292921],[-39.16278176469441,66.62030299933379],[-39.160886769504415,66.61937998813944],[-39.15869284387056,66.61960743938907],[-39.15660590590098,66.619415656246],[-39.154550387530016,66.6191213640568],[-39.1524680231086,66.61892960314121],[-39.15024734220396,66.61926402484218],[-39.148133733914285,66.61917933512706],[-39.14586413605251,66.61971886303894],[-39.14364330633879,66.6200532882501],[-39.141369196374235,66.62059731666871],[-39.139041603415414,66.62135088114385],[-39.138988030863416,66.62156050738167],[-39.13850641851706,66.62238542190693],[-39.13987100539124,66.62329056208692],[-39.14195779972353,66.62348237250656],[-39.14404028163269,66.62367412405509],[-39.14612713897253,66.62386138027094],[-39.14823626580861,66.62395060012001],[-39.150376653332096,66.62392827190574],[-39.15259725820619,66.62359824528815],[-39.15481792887631,66.623263877594],[-39.15706528917279,66.62282683931228],[-39.159227915061216,66.62270205694878],[-39.16155555366234,66.62194843690439],[-39.163883217980725,66.62119484292921]]],"type":"Polygon"},"id":"00000000000000000019_00000000000000000019","properties":{"area":449581.5788830263,"elevation":1728.7728637728621,"id":"00000000000000000019","region":"SE","surface":0.0,"year":2019},"type":"Feature"},{"geometry":{"coordinates":[[[-38.15596584719627,66.91110770316139],[-38.15539079169712,66.9103363255611],[-38.153745185504214,66.90951587133083],[-38.152037484368606,66.90890049801787],[-38.150329706123905,66.90828959346221],[-38.14859047468475,66.90778128204393],[-38.14685150474947,66.90727733870455],[-38.1450500076194,66.90697856784173],[-38.14302109733363,66.9074156511128],[-38.14265984740975,66.90771434854912],[-38.14216491075097,66.90843677561706],[-38.14224070966896,66.90907881468415],[-38.140180707153455,66.90961838985679],[-38.138624364513305,66.91028725501903],[-38.13812944765208,66.91100962406168],[-38.137639051202235,66.91172756108546],[-38.138481769306296,66.91251240450777],[-38.13905703951535,66.91328378389883],[-38.140764723266464,66.91389466359492],[-38.14263315769696,66.91398383199619],[-38.14466204681809,66.91354689114993],[-38.1466908922549,66.91311436043844],[-38.14871983899159,66.9126773081335],[-38.150681757346625,66.91244992629741],[-38.15258146146029,66.91243205903383],[-38.15467276077998,66.91178994646788],[-38.15596584719627,66.91110770316139]]],"type":"Polygon"},"id":"0000000000000000001a_0000000000000000001a","properties":{"area":395284.9734029127,"elevation":1860.86694253463,"id":"0000000000000000001a","region":"SE","surface":0.0,"year":2019},"type":"Feature"},{"geometry":{"coordinates":[[[-38.51699246811613,66.79128281183425],[-38.515556638697326,66.78973547652427],[-38.51207862790333,66.78872768609294],[-38.508573683527885,66.78782697245543],[-38.50482366969679,66.78776903532176],[-38.50138119918882,66.78665867159316],[-38.497782745921036,66.78607013371312],[-38.49412612294314,66.78569551260748],[-38.490501039668025,66.78521395265214],[-38.48705411512967,66.78410357923737],[-38.48297400746773,66.78519167347625],[-38.48291599699543,66.78540121402175],[-38.47983481377673,66.78674786631687],[-38.47781491287123,66.78814359263599],[-38.47818937492505,66.78964626514814],[-38.48015145736154,66.79122036145328],[-38.48158721454185,66.79277211700597],[-38.4849092334465,66.79430161667361],[-38.48838740164922,66.79530487462276],[-38.4919546729891,66.79599605503094],[-38.49564240138437,66.79626807573487],[-38.49939250980674,66.79633048141443],[-38.50320505913359,66.7961833336628],[-38.50716459104334,66.79551448736336],[-38.51109311175419,66.7949481919231],[-38.51508397143451,66.79417228070876],[-38.51603828581982,66.79272748751035],[-38.51699246811613,66.79128281183425]]],"type":"Polygon"},"id":"0000000000000000001b_0000000000000000001b","properties":{"area":1619943.4886276454,"elevation":1730.9544310651688,"id":"0000000000000000001b","region":"SE","surface":0.0,"year":2019},"type":"Feature"},{"geometry":{"coordinates":[[[-38.44755546838746,66.80604685900691],[-38.44555778344936,66.80457532509065],[-38.44250309697537,66.80305926464683],[-38.43914112073247,66.80258662992813],[-38.435747745188,66.80222091929576],[-38.432385504680695,66.80174825782623],[-38.428747023216275,66.80222096181922],[-38.43100324297602,66.80094566869349],[-38.42788636494875,66.79963469739904],[-38.42470691442903,66.79853324871108],[-38.42113522323273,66.79879631744389],[-38.41734068189482,66.79979074888479],[-38.41730027327559,66.80085199524409],[-38.41823233480454,66.80227442239853],[-38.41915977198792,66.80369690001046],[-38.41743426546354,66.8049989729768],[-38.419427381749124,66.80647050655392],[-38.42121544550676,66.80771898905908],[-38.42294558581926,66.80917718469135],[-38.42612493009353,66.8102785257982],[-38.42954947139862,66.81053718107742],[-38.43294300661465,66.81090284287359],[-38.436456669578135,66.8108537550345],[-38.44006863288932,66.81048365448596],[-38.44373406130718,66.80990845174885],[-38.44622658647987,66.80874903154309],[-38.446623472802216,66.80738460379544],[-38.44755546838746,66.80604685900691]]],"type":"Polygon"},"id":"0000000000000000001c_0000000000000000001c","properties":{"area":1244131.3815880737,"elevation":1729.8326712178703,"id":"0000000000000000001c","region":"SE","surface":0.0,"year":2019},"type":"Feature"},{"geometry":{"coordinates":[[[-38.45447584570357,66.775591178944],[-38.45356621656723,66.77501597763627],[-38.452389103474964,66.77443186419386],[-38.45121626326324,66.77384772223003],[-38.44998123544753,66.77347761259807],[-38.44874603141752,66.77310298616904],[-38.44744836552624,66.77293800049114],[-38.446181998290605,66.77266604831308],[-38.44488437431525,66.7725010366827],[-38.443528782193525,66.77254566057603],[-38.44204848686894,66.77300935317308],[-38.44163379102734,66.77352218544914],[-38.44094713740913,66.77402159994988],[-38.44053225893025,66.77453436398878],[-38.44037626907565,66.77505614636407],[-38.441285883150314,66.77562690442089],[-38.44193254483394,66.77618872685876],[-38.443105293797636,66.77677284228024],[-38.44427792073169,66.77735699793227],[-38.44551309878381,66.7777316053115],[-38.446841969214205,66.7777895230652],[-38.448259808990294,66.77753535577364],[-38.449646819094305,66.7773882122684],[-38.4510958847823,66.77702705856643],[-38.45257641649904,66.77656332135751],[-38.45405675461406,66.77609950144436],[-38.45447584570357,66.775591178944]]],"type":"Polygon"},"id":"0000000000000000001d_0000000000000000001d","properties":{"area":250304.50850873932,"elevation":1691.278116264066,"id":"0000000000000000001d","region":"SE","surface":0.0,"year":2019},"type":"Feature"},{"geometry":{"coordinates":[[[-39.963970902634365,65.9238493739363],[-39.96217377599232,65.92307353409653],[-39.96185280464111,65.92252500641322],[-39.960292127423266,65.92166888647203],[-39.95839692546535,65.92132999189924],[-39.95652415933626,65.92090641445921],[-39.954535356365845,65.92101345945437],[-39.952430569714,65.92165107066445],[-39.95211853188572,65.92208806527802],[-39.95090111851973,65.92266774315686],[-39.94881430445524,65.92321623902164],[-39.94712421638512,65.92395641155701],[-39.946085388885216,65.92472339998977],[-39.94439528832418,65.92546360557742],[-39.94487246942119,65.92628402918957],[-39.94578210749368,65.92712236761008],[-39.947619344535525,65.9277243803722],[-39.949554533526076,65.9278849342887],[-39.95140947258973,65.92839768870233],[-39.95328233204645,65.92882134151355],[-39.95521764302232,65.92898180722749],[-39.9572063652823,65.9288748358944],[-39.959253041141984,65.92850020233786],[-39.96137555440033,65.92777341926862],[-39.96285156501804,65.92702423661758],[-39.963458020661406,65.92624397027667],[-39.9638459713415,65.92545465709661],[-39.963801318960876,65.92464754774564],[-39.963970902634365,65.9238493739363]]],"type":"Polygon"},"id":"0000000000000000001f_0000000000000000001f","properties":{"area":572156.8825335883,"elevation":1503.9051473679579,"id":"0000000000000000001f","region":"SE","surface":0.0,"year":2019},"type":"Feature"},{"geometry":{"coordinates":[[[-40.65772223784923,65.70504571843126],[-40.657432387799524,65.70445716930229],[-40.657138131162924,65.70387303909945],[-40.656647497974774,65.70327994533986],[-40.65615703136619,65.70268691489717],[-40.654868455306556,65.70206707136487],[-40.65352166887185,65.70177723931194],[-40.6520681977509,65.70206262498257],[-40.65061438945165,65.70234798293588],[-40.64912957236833,65.7027939307357],[-40.64888434618365,65.70303472448799],[-40.64738587487163,65.70356533512482],[-40.64687762406682,65.70412716992914],[-40.64677515273316,65.7047024425366],[-40.64586994870273,65.70525086053429],[-40.64536599891962,65.70581273134333],[-40.64525912829332,65.70638796918733],[-40.646150805184476,65.7069899364494],[-40.645843258624915,65.70756067798348],[-40.64673498455427,65.70816264384295],[-40.64808168209,65.70845254613694],[-40.649459396873624,65.70858182313233],[-40.650917752252035,65.70829644340184],[-40.652415942030885,65.70776581978065],[-40.65391407795161,65.70723517939209],[-40.65521614792836,65.7067000861875],[-40.656117069780514,65.70614716725483],[-40.6576197280097,65.70561653468391],[-40.65772223784923,65.70504571843126]]],"type":"Polygon"},"id":"00000000000000000021_00000000000000000021","properties":{"area":300638.9398367714,"elevation":1536.7287362074303,"id":"00000000000000000021","region":"SE","surface":0.0,"year":2019},"type":"Feature"},{"geometry":{"coordinates":[[[-41.04865155560467,65.5098173757091],[-41.048009557405415,65.50888988616371],[-41.04756802728743,65.50797137165463],[-41.046729719685224,65.50704382487264],[-41.04468288286452,65.50624120025647],[-41.042551660115855,65.50593352892231],[-41.0403353237432,65.50611633322251],[-41.038177152335095,65.50597363818532],[-41.03592079543248,65.50640170405903],[-41.03498001321651,65.50728012215447],[-41.03288422623966,65.50796236599469],[-41.030708162017675,65.50789996280055],[-41.02845632977024,65.50832810989974],[-41.028442883565106,65.50841277685116],[-41.02927677386878,65.50934027306081],[-41.03014195755047,65.5101072425716],[-41.0295977436244,65.51099905838755],[-41.03063235343452,65.51193550633323],[-41.03266576212129,65.51281837116171],[-41.03474363700809,65.51345154561206],[-41.037013378619676,65.51294324746438],[-41.03920280077378,65.5129209114704],[-41.04144123591923,65.51257317774329],[-41.043670714686144,65.51231004424474],[-41.045980583701414,65.51155197244115],[-41.047514616203195,65.51068694340056],[-41.04865155560467,65.5098173757091]]],"type":"Polygon"},"id":"00000000000000000022_00000000000000000022","properties":{"area":561465.6526363376,"elevation":1547.4866759632469,"id":"00000000000000000022","region":"SE","surface":0.0,"year":2019},"type":"Feature"},{"geometry":{"coordinates":[[[-41.1430641341679,65.42913887264883],[-41.142511258248334,65.42764062541622],[-41.1398001024869,65.42607996475157],[-41.136388844799924,65.425161393981],[-41.13277708373045,65.42547350816774],[-41.129075977990865,65.4263563887626],[-41.12545068690698,65.4267487700716],[-41.1228466073061,65.42815788467816],[-41.11948443582491,65.42937971920695],[-41.11766956160916,65.43081107998084],[-41.11545791050091,65.43222907868108],[-41.11521702888606,65.43370497820929],[-41.11458396829148,65.43517207395126],[-41.114735476613,65.43665693243943],[-41.1162693836977,65.4381819654883],[-41.1196806196868,65.43910053838393],[-41.12318551805947,65.43944835835664],[-41.1267840184451,65.43922091197014],[-41.13040932412973,65.43882852954415],[-41.13416817716863,65.43761562000972],[-41.13775339405344,65.43746846534287],[-41.14070968705431,65.43631805139634],[-41.13878350293613,65.43477966851032],[-41.13998289737155,65.43349988635228],[-41.141797748731854,65.43206855856664],[-41.14262723806133,65.43060594404643],[-41.1430641341679,65.42913887264883]]],"type":"Polygon"},"id":"00000000000000000023_00000000000000000023","properties":{"area":1579508.7273777712,"elevation":1480.8316214092047,"id":"00000000000000000023","region":"SE","surface":0.0,"year":2019},"type":"Feature"},{"geometry":{"coordinates":[[[-40.34329760518903,65.71076231281928],[-40.341152824046965,65.70945139100347],[-40.338147489917645,65.70844359491174],[-40.33507502781673,65.7077613687542],[-40.332020578102515,65.70699888447206],[-40.32898401941248,65.7061560798396],[-40.325715429231494,65.70645931521398],[-40.32250036993026,65.70651276411441],[-40.31924956498151,65.70673576395788],[-40.31782723234621,65.70784162060062],[-40.316172871320994,65.70910800843113],[-40.31631113584551,65.71043240555348],[-40.31565115042096,65.71172994719754],[-40.31339946004142,65.71297404979565],[-40.311744912382714,65.71424042059006],[-40.31088901532319,65.71552911505295],[-40.31409048798469,65.71555586205778],[-40.31740349688084,65.71500739099885],[-40.320640834878105,65.7148691449565],[-40.3237267292586,65.71546668714569],[-40.326896993759576,65.71565845354803],[-40.33014766140389,65.71543548834266],[-40.333496499974736,65.71472200496977],[-40.33680965674556,65.71417350599755],[-40.34018964075529,65.71329960704081],[-40.34283831609922,65.71206887906273],[-40.34329760518903,65.71076231281928]]],"type":"Polygon"},"id":"00000000000000000024_00000000000000000024","properties":{"area":1110996.3488085736,"elevation":1361.565028349263,"id":"00000000000000000024","region":"SE","surface":0.0,"year":2019},"type":"Feature"},{"geometry":{"coordinates":[[[-41.78624945540407,65.10516291629504],[-41.786102189582074,65.10445840456553],[-41.785486788133646,65.10374048130518],[-41.78486695583358,65.10302699371513],[-41.784251615018185,65.10230906890193],[-41.78315914417745,65.1015822674356],[-41.78206658275458,65.10085539609881],[-41.78097426189245,65.10012408310465],[-41.77940453076697,65.09938836000781],[-41.77781269062635,65.09884880180945],[-41.77619409038055,65.09850989635734],[-41.77448174882228,65.09886660945226],[-41.77343830268574,65.09954443086392],[-41.7719756589124,65.0998119766775],[-41.770250119362494,65.10027125661458],[-41.769929090287995,65.100864294211],[-41.77054877930363,65.10158224089017],[-41.771641386162614,65.10230911200016],[-41.773233304272125,65.10284864415345],[-41.77385297201901,65.10356651794775],[-41.775418315546744,65.10430676417378],[-41.77703677665019,65.104645617963],[-41.77863319306468,65.10518519847034],[-41.7801983273656,65.10592093700545],[-41.7818037437478,65.10636241111183],[-41.783466889738875,65.10640255245778],[-41.785205910722354,65.10584068146652],[-41.78624945540407,65.10516291629504]]],"type":"Polygon"},"id":"00000000000000000027_00000000000000000027","properties":{"area":396671.7057180443,"elevation":1620.7281442758178,"id":"00000000000000000027","region":"SE","surface":0.0,"year":2019},"type":"Feature"},{"geometry":{"coordinates":[[[-41.81447988619939,64.98109291021417],[-41.81387797568394,64.98027687029433],[-41.814453238930575,64.97949203627743],[-41.81432392479993,64.978684980825],[-41.81301295988164,64.97785109258056],[-41.811215892761716,64.9771109249286],[-41.80935651552198,64.9768656345151],[-41.80750590369273,64.97652230897887],[-41.80565977642207,64.97617452092668],[-41.803827135637576,64.97573302740489],[-41.801909713619345,64.97588468720834],[-41.79994312928988,64.97644202943097],[-41.79960423517308,64.97723574872359],[-41.79855195807801,64.97801164666559],[-41.79892213212134,64.97882319667062],[-41.79834248108221,64.97961245949541],[-41.79918070071626,64.98043293265131],[-41.800991147007736,64.98107500343656],[-41.8008840873858,64.98187769366584],[-41.80266783262312,64.98272041486678],[-41.80450040647557,64.98316636336602],[-41.806364442136704,64.98340712229046],[-41.80825054936576,64.98345172128361],[-41.810060886337226,64.98409831958175],[-41.81204079143042,64.98344277579528],[-41.8130886369166,64.98266697515905],[-41.813668407588324,64.98187770063063],[-41.81447988619939,64.98109291021417]]],"type":"Polygon"},"id":"00000000000000000029_00000000000000000029","properties":{"area":527901.4429479613,"elevation":1753.1977207119705,"id":"00000000000000000029","region":"SE","surface":0.0,"year":2019},"type":"Feature"},{"geometry":{"coordinates":[[[-41.58887625157373,65.02462707661475],[-41.58827869491141,65.02381102317368],[-41.58839450637325,65.02300841818885],[-41.58779714048488,65.02219243118981],[-41.58625430413768,65.0213496484528],[-41.58442142362926,65.02090373614797],[-41.582557633037524,65.02065844564947],[-41.580666911248244,65.02060939300577],[-41.578789674613546,65.02046229384854],[-41.576814233409245,65.02101074876519],[-41.576524449941274,65.02140757301454],[-41.574754105526296,65.0221656237029],[-41.572751993842964,65.02291479691135],[-41.571013124089724,65.02347216635114],[-41.57066514625435,65.0242658995882],[-41.57031288486473,65.02505962957184],[-41.57138302293936,65.02588898319796],[-41.57268513248015,65.02672286971493],[-41.57375540029302,65.02755220847038],[-41.57557466431242,65.02810068704738],[-41.57749641943101,65.027949093426],[-41.579413893289434,65.02779746414497],[-41.58130468478492,65.02784208683755],[-41.58325318693698,65.02749429816214],[-41.58522871333179,65.02694133151167],[-41.58723068925872,65.02618772742684],[-41.588764620185756,65.02542525223623],[-41.58887625157373,65.02462707661475]]],"type":"Polygon"},"id":"0000000000000000002a_0000000000000000002a","properties":{"area":566544.1916580616,"elevation":1357.7017877640576,"id":"0000000000000000002a","region":"SE","surface":0.0,"year":2019},"type":"Feature"},{"geometry":{"coordinates":[[[-41.554260127846995,65.03813817173754],[-41.55413533739715,65.03733109706508],[-41.55330589213117,65.03651057283132],[-41.55365372650546,65.03571687630755],[-41.55306058723294,65.03490082176712],[-41.55125466826393,65.03424980861652],[-41.54946219387576,65.0335051824026],[-41.54765614336151,65.0328541101912],[-41.545778894621925,65.03270697139116],[-41.54384373734982,65.03296112253146],[-41.541868310346906,65.0335095509694],[-41.54133763813912,65.0338975055845],[-41.5402763966061,65.03467347274636],[-41.53992851874279,65.03546713656277],[-41.5386310064153,65.03623410786979],[-41.537569767353546,65.0370100067739],[-41.537453786179285,65.03780816308927],[-41.5368696661604,65.03859739581895],[-41.537935371576694,65.03942687363083],[-41.53974139287541,65.0400733755462],[-41.541547262056554,65.04072440100539],[-41.54344249688406,65.04076902672621],[-41.54533309512367,65.04081810262166],[-41.54728160586122,65.04046581243568],[-41.5491856383733,65.04041674190877],[-41.551192219596544,65.03966317895222],[-41.55225358156616,65.03889171704665],[-41.554260127846995,65.03813817173754]]],"type":"Polygon"},"id":"0000000000000000002b_0000000000000000002b","properties":{"area":556948.3413072096,"elevation":1319.8986366407664,"id":"0000000000000000002b","region":"SE","surface":0.0,"year":2019},"type":"Feature"},{"geometry":{"coordinates":[[[-41.9735003106877,64.51236108582158],[-41.971988778149175,64.51142465048612],[-41.970017714306344,64.5104793363191],[-41.96795769633898,64.51023408782719],[-41.96589756925993,64.50998437490807],[-41.96381533065926,64.50993532876738],[-41.961692668902124,64.51018953013714],[-41.959574474139984,64.51043921044894],[-41.95748771294543,64.51039465203655],[-41.955391969234654,64.51044367923643],[-41.95332291080357,64.51029656666188],[-41.95116485109286,64.51084945659599],[-41.95060283530833,64.51163424334187],[-41.94979572458548,64.51251713299514],[-41.94945690711167,64.5134089593512],[-41.950268518697094,64.51432757756122],[-41.9523063048779,64.51477343530743],[-41.954361860616714,64.51502315144484],[-41.956435435189185,64.5151703564492],[-41.95844654460728,64.51581687173375],[-41.96054222368208,64.51576335106226],[-41.962624561307855,64.51581244741521],[-41.96473384777404,64.51566080502566],[-41.96686972948954,64.51530853152985],[-41.96900121667512,64.51495628291738],[-41.971195077671155,64.51410907595263],[-41.973156969564435,64.51325290069278],[-41.9735003106877,64.51236108582158]]],"type":"Polygon"},"id":"0000000000000000002c_0000000000000000002c","properties":{"area":607780.4134358303,"elevation":1701.9326410212586,"id":"0000000000000000002c","region":"SE","surface":0.0,"year":2019},"type":"Feature"},{"geometry":{"coordinates":[[[-41.55727463169909,64.64720875753285],[-41.556935536476956,64.64629463537212],[-41.555664829898205,64.64536268823873],[-41.55393012467177,64.64441737173671],[-41.55190577179661,64.64386442904775],[-41.54982782299744,64.64370840596068],[-41.5477053425956,64.64385548778024],[-41.54556926660591,64.64410076011941],[-41.543375499645194,64.64474283286886],[-41.542577347003274,64.64542513458673],[-41.5403567807628,64.64626788618163],[-41.53906791823084,64.647137431434],[-41.53870685594032,64.64802925414173],[-41.53904563035384,64.64893889882879],[-41.54078479048769,64.64988418562261],[-41.54112364936872,64.65079383283472],[-41.54314812237071,64.65134679994868],[-41.54517251805084,64.65189978749851],[-41.54722359459284,64.65225200476358],[-41.54931943569671,64.6523100127042],[-41.5514553273784,64.65206469632025],[-41.55361801791403,64.65161884540531],[-41.55583861204674,64.6507760541364],[-41.55619994093733,64.64988424830788],[-41.556324703756374,64.64898345402067],[-41.55668599480363,64.64809165518444],[-41.55727463169909,64.64720875753285]]],"type":"Polygon"},"id":"0000000000000000002d_0000000000000000002d","properties":{"area":669245.7251423831,"elevation":1567.3052209910722,"id":"0000000000000000002d","region":"SE","surface":0.0,"year":2019},"type":"Feature"},{"geometry":{"coordinates":[[[-41.8949979219102,64.47341088039025],[-41.89439148674359,64.47269738744443],[-41.89286199852639,64.47196164709783],[-41.8919969150285,64.47143987530507],[-41.892086144777444,64.47074430479913],[-41.89147967875366,64.4700308607433],[-41.89041400185465,64.46930398433572],[-41.88934373895852,64.46857715279106],[-41.887791955954015,64.46804212292183],[-41.88620910364622,64.46770318529258],[-41.884643866935036,64.4672662539295],[-41.88303858400418,64.46712798017936],[-41.881420025060955,64.46709231161505],[-41.8797789598306,64.46725284354865],[-41.8780711463511,64.46791280209729],[-41.87636774263723,64.46857274123991],[-41.87634101106748,64.46877333599932],[-41.87671558855812,64.46948233213575],[-41.878244995799975,64.47021811185019],[-41.879774480280986,64.47095387434592],[-41.88131745963265,64.47159153408471],[-41.88242328400041,64.47201516428385],[-41.88395264966898,64.47275535304658],[-41.88550460265303,64.47329044638788],[-41.88706064431793,64.47382556917506],[-41.88859008850829,64.47456127623715],[-41.89020874200042,64.47460143653247],[-41.89185419079846,64.47444091624335],[-41.893521916807074,64.4740797127894],[-41.8949979219102,64.47341088039025]]],"type":"Polygon"},"id":"0000000000000000002e_0000000000000000002e","properties":{"area":438167.27480248193,"elevation":1590.335076993496,"id":"0000000000000000002e","region":"SE","surface":0.0,"year":2019},"type":"Feature"},{"geometry":{"coordinates":[[[-41.93011329739694,64.43075957563033],[-41.92949795604816,64.43014868313854],[-41.92818699649167,64.42951539417422],[-41.92684925247566,64.42908741404328],[-41.925538243488994,64.42845415297904],[-41.924169313819526,64.42832487475629],[-41.92277372545728,64.42839176843653],[-41.921373357119485,64.42845863674043],[-41.91996433655332,64.42862361816697],[-41.91855528652301,64.42879306386523],[-41.917123989723855,64.42915868156152],[-41.91566129063243,64.42972500425665],[-41.91538051557062,64.4301174004608],[-41.91507717213093,64.43071045998438],[-41.91569713628571,64.43132586669161],[-41.91700359621013,64.43195901411615],[-41.91831459454538,64.4325877852236],[-41.91966131049119,64.4329177461121],[-41.921021324715994,64.43314962282533],[-41.92238136161518,64.43338148403545],[-41.92376795225177,64.43341270930614],[-41.9251280256019,64.43364453898243],[-41.92652370303121,64.43357766878619],[-41.92796851034854,64.433109438651],[-41.92943112016703,64.43254766606161],[-41.929966158305035,64.43195906039843],[-41.930037412107865,64.43136152623185],[-41.93011329739694,64.43075957563033]]],"type":"Polygon"},"id":"0000000000000000002f_0000000000000000002f","properties":{"area":331056.8371029937,"elevation":1613.8636427818872,"id":"0000000000000000002f","region":"SE","surface":0.0,"year":2019},"type":"Feature"},{"geometry":{"coordinates":[[[-41.973023181592275,64.22223860690059],[-41.97259968983671,64.22143146177498],[-41.97086951242397,64.22059322185758],[-41.96911263869228,64.21998224757967],[-41.967328999975514,64.21960324324588],[-41.966120477807145,64.2187783294083],[-41.96437700097257,64.21805149028441],[-41.96259339765083,64.21766799552405],[-41.960751803707396,64.21773933424676],[-41.95882984069182,64.2184929657627],[-41.95848655933729,64.21917069774561],[-41.9602167413304,64.22000906941066],[-41.961478591046706,64.22037912067131],[-41.961121833468226,64.22116841633571],[-41.96102371479086,64.22196213189385],[-41.96066707932052,64.2227513791066],[-41.961090713062326,64.22355852801364],[-41.96229913956685,64.22438345379834],[-41.964042651598504,64.22510574885766],[-41.965812914664106,64.22560525617693],[-41.967641058908974,64.2256453157882],[-41.96950503394059,64.2253466159983],[-41.97143131681482,64.22459300305303],[-41.97256844223218,64.22382160791415],[-41.972929524185254,64.22303232761341],[-41.973023181592275,64.22223860690059]]],"type":"Polygon"},"id":"00000000000000000030_00000000000000000030","properties":{"area":411720.43493165454,"elevation":1429.228463568519,"id":"00000000000000000030","region":"SE","surface":0.0,"year":2019},"type":"Feature"},{"geometry":{"coordinates":[[[-42.718687470557384,63.44018809843574],[-42.71830399525225,63.43923387189522],[-42.7167478718683,63.43826174317379],[-42.71519159565059,63.4372851991002],[-42.71314498265141,63.43651377773496],[-42.71106693925176,63.4361615502799],[-42.70898447059267,63.43580925332729],[-42.70691101338601,63.43534995133345],[-42.70481074508804,63.435207236145466],[-42.70269271726524,63.43527419896297],[-42.700623686005535,63.43481926496438],[-42.6984922462621,63.434988805450885],[-42.696374228225146,63.43505565075758],[-42.69419818792098,63.43575573429898],[-42.693917146429825,63.43627300934214],[-42.69523699986472,63.43724506787116],[-42.69731955576028,63.437597333521715],[-42.69939302527142,63.438056585434566],[-42.70126572778874,63.43808782697145],[-42.70212196672264,63.439051024712334],[-42.70422220065354,63.43919367088754],[-42.705328041224476,63.439947289869025],[-42.7073703098241,63.440723174824306],[-42.70939484880348,63.441704182428744],[-42.711441425574215,63.44247557404712],[-42.71352393751623,63.44282788845947],[-42.7157087897028,63.44202522771977],[-42.71790269973917,63.44112007247593],[-42.718687470557384,63.44018809843574]]],"type":"Polygon"},"id":"00000000000000000032_00000000000000000032","properties":{"area":603656.2636918231,"elevation":1886.9386256622404,"id":"00000000000000000032","region":"SE","surface":0.0,"year":2019},"type":"Feature"},{"geometry":{"coordinates":[[[-26.959105137030807,69.7041771286946],[-26.959024982242543,69.70336558919693],[-26.95780302899541,69.70242026293793],[-26.956264745319285,69.70159086104981],[-26.95448111527763,69.70102011032577],[-26.952385382655986,69.70078380269413],[-26.95022707180417,69.70061436929718],[-26.947823560431807,69.70070797235044],[-26.94529541270165,69.7009354295655],[-26.94422506439596,69.70139911332174],[-26.942972265210656,69.70205910700419],[-26.941906350857323,69.70274580459676],[-26.941794984610965,69.70353506335296],[-26.94092096405252,69.7042440716914],[-26.94043037495783,69.70499314443177],[-26.940889659752962,69.70584934313129],[-26.942423694310538,69.70668321123385],[-26.943074657254815,69.70756159461865],[-26.94529529974575,69.7076641685059],[-26.947123647405938,69.70706665884673],[-26.948380948988994,69.70662524493699],[-26.949031945350786,69.70750363401869],[-26.951497875475653,69.70734315702512],[-26.951801125117296,69.70657171709017],[-26.954008285625115,69.70601431816344],[-26.956786487757178,69.70552380984103],[-26.958231231360337,69.70488618832755],[-26.959105137030807,69.7041771286946]]],"type":"Polygon"},"id":"00000000000000000038_00000000000000000038","properties":{"area":415966.388138729,"elevation":1649.236032293668,"id":"00000000000000000038","region":"SE","surface":0.0,"year":2019},"type":"Feature"},{"geometry":{"coordinates":[[[-43.47596328592215,61.75211506175572],[-43.47557538304723,61.750924496881154],[-43.4742776156801,61.74972057577904],[-43.47343497769746,61.748521112684095],[-43.471004749004564,61.7473036836237],[-43.468525485762896,61.746844431312404],[-43.46602393508641,61.74681325146577],[-43.46354460000566,61.74645648226641],[-43.46102968148208,61.746639333998424],[-43.458505900085406,61.74704062414789],[-43.45595518109193,61.747870038023905],[-43.45590628886974,61.74873064388663],[-43.45652154870491,61.7499257062268],[-43.4566820632011,61.75111624871072],[-43.456405612443255,61.75197243841156],[-43.453868454580736,61.75258780124615],[-43.45289185413073,61.75376050563104],[-43.45350723511821,61.754955575644026],[-43.45596873134478,61.75563334821793],[-43.458479167680146,61.755557530347254],[-43.460967354371206,61.75580720805364],[-43.463460015527005,61.755945488409715],[-43.46595694708272,61.756083714549646],[-43.468454101070066,61.75622639943145],[-43.47101363928716,61.75517846604438],[-43.47199031401208,61.75400576810983],[-43.473399201173706,61.75326556282972],[-43.47596328592215,61.75211506175572]]],"type":"Polygon"},"id":"0000000000000000003a_0000000000000000003a","properties":{"area":1033539.1952692099,"elevation":1329.1033375698598,"id":"0000000000000000003a","region":"SE","surface":88.0,"year":2019},"type":"Feature"},{"geometry":{"coordinates":[[[-30.826015363101952,69.3535179283772],[-30.824004315419256,69.35259932416999],[-30.823246153306293,69.35205980016845],[-30.823518158419958,69.35114125468726],[-30.82307675890191,69.35016019332588],[-30.82156072825174,69.34908560000721],[-30.819010037794488,69.34892509059799],[-30.81668235638678,69.34844791245449],[-30.813993715387,69.34847469278994],[-30.811710532723033,69.34793514315433],[-30.8091598433506,69.34777461342536],[-30.808437460520533,69.34825171918172],[-30.80798275800567,69.34915242191222],[-30.806809838858157,69.34998629500961],[-30.805998481054896,69.35085582708413],[-30.80518237652753,69.35172536147128],[-30.80401398125427,69.35256367938902],[-30.804451064565676,69.35354468980758],[-30.805967171527225,69.35462382065144],[-30.80833949361121,69.35503399166211],[-30.811121849961502,69.35488238188532],[-30.81326684433147,69.35560924499681],[-30.81582183249589,69.35576973811753],[-30.818421396534536,69.35586785378858],[-30.821154816892772,69.35577418566741],[-30.82420921646071,69.35523911540764],[-30.82591709224837,69.354449849008],[-30.826015363101952,69.3535179283772]]],"type":"Polygon"},"id":"00000000000000000040_00000000000000000040","properties":{"area":564797.445081966,"elevation":1918.3444083196007,"id":"00000000000000000040","region":"SE","surface":0.0,"year":2019},"type":"Feature"},{"geometry":{"coordinates":[[[-30.75206100263311,69.32508669322655],[-30.752029918685615,69.32407449387638],[-30.74998315800734,69.32295074757528],[-30.747298885849595,69.32270999913796],[-30.74484172745125,69.32215261911038],[-30.74216191473431,69.32191185043891],[-30.739522211562477,69.32160861241675],[-30.736703867362472,69.32155508692452],[-30.734113112032045,69.32118944420729],[-30.731067616562818,69.32145248927145],[-30.727883845333114,69.32190738509017],[-30.725150512141788,69.32226408321874],[-30.722055887276547,69.32259405654739],[-30.720348081778308,69.32338330193451],[-30.72226091183023,69.32442671430425],[-30.724624192517002,69.3251134405042],[-30.727081215257797,69.32567082224233],[-30.729716555196685,69.32597405788852],[-30.732173419353934,69.3265314311308],[-30.734947096114173,69.32664734962454],[-30.737676031133756,69.32682575205841],[-30.740632457812797,69.32668309233716],[-30.743678011982478,69.3264199578284],[-30.74667896181271,69.32621925992036],[-30.749773633456847,69.32588933267881],[-30.75206100263311,69.32508669322655]]],"type":"Polygon"},"id":"00000000000000000041_00000000000000000041","properties":{"area":554103.5618086731,"elevation":1846.7214572949347,"id":"00000000000000000041","region":"SE","surface":0.0,"year":2019},"type":"Feature"},{"geometry":{"coordinates":[[[-29.407753579377893,69.10648368287258],[-29.407031228150736,69.10546261977622],[-29.406313299743346,69.10444587218227],[-29.40489081652058,69.10335793537739],[-29.4038162312221,69.10230109055213],[-29.40175166006011,69.10155640354985],[-29.39978063537437,69.10068242045497],[-29.397564548599345,69.1001250503156],[-29.395152215750382,69.09981294756116],[-29.39298504676252,69.09919307128982],[-29.390425544501152,69.09907265539479],[-29.387915055294094,69.09888991519465],[-29.385061180406314,69.09914853617114],[-29.382207471440324,69.09940263181379],[-29.38183280177858,69.0996345129429],[-29.381850724403545,69.10058437342808],[-29.383821506603788,69.1014583053664],[-29.385788089798027,69.10233232135526],[-29.387660810835452,69.1033311366986],[-29.389631788261912,69.10420513881547],[-29.391446636252645,69.10478930423321],[-29.393515640952277,69.10553842360164],[-29.395486643803807,69.1064124188242],[-29.39755573892164,69.10716151615492],[-29.399968114018602,69.10746917793301],[-29.40252750109848,69.10758509579438],[-29.40548395244102,69.10720609360914],[-29.407753579377893,69.10648368287258]]],"type":"Polygon"},"id":"00000000000000000044_00000000000000000044","properties":{"area":566294.5887403922,"elevation":1800.1942634050042,"id":"00000000000000000044","region":"SE","surface":0.0,"year":2019},"type":"Feature"},{"geometry":{"coordinates":[[[-29.6113607199976,69.04395374316985],[-29.608118910949376,69.04325808453734],[-29.605091100935617,69.04228608507017],[-29.601795818953253,69.04165732224914],[-29.59823310487589,69.04138083039312],[-29.597715769309993,69.04178216670877],[-29.595771558783923,69.0429415029181],[-29.592467337172945,69.04396710551285],[-29.588962508125704,69.04497484391145],[-29.59144172586647,69.04612085246859],[-29.593698024016376,69.04754330634283],[-29.597051336985555,69.04810070198653],[-29.60040012083005,69.04865366744062],[-29.60374894310863,69.04921102203119],[-29.60708430578347,69.04923774056795],[-29.605595076473406,69.04871606111297],[-29.6036864766146,69.04792676563957],[-29.60012365424835,69.04765036798774],[-29.596828343673863,69.04702603916095],[-29.59493786757379,69.04593807469115],[-29.594625585577607,69.04470734255537],[-29.597907562393594,69.0448054073847],[-29.60152388028397,69.04501058347748],[-29.605033178036543,69.0453583846955],[-29.60827488021617,69.04605395996852],[-29.61097712583731,69.04526915558739],[-29.6113607199976,69.04395374316985]]],"type":"Polygon"},"id":"00000000000000000000_00000000000000000000","properties":{"area":333424.71860301844,"elevation":1803.8795488027433,"id":"00000000000000000000","region":"SE","surface":0.0,"year":2019},"type":"Feature"},{"geometry":{"coordinates":[[[-35.32192618053098,66.85907452410255],[-35.31983051186266,66.85836547974468],[-35.317609738257225,66.85793293144569],[-35.31664217031628,66.85739791747818],[-35.31473814544941,66.85679588075259],[-35.312325835885176,66.85682268069229],[-35.31175061626537,66.85593085782676],[-35.310239028326414,66.85498105311049],[-35.308410788226986,66.85476255246682],[-35.30677877625089,66.85408475603097],[-35.30464280016812,66.85346941828888],[-35.30406741489877,66.8525775894068],[-35.30173551754375,66.85242153825763],[-35.29927846022787,66.85254190732682],[-35.29958166195838,66.85350505852114],[-35.30104866902654,66.8545529472334],[-35.30310442753207,66.85535115903355],[-35.30532055842775,66.85578364061698],[-35.30734053480926,66.85667547438797],[-35.30959690727246,66.85701885788383],[-35.31161239676985,66.85791067960547],[-35.313320176824526,66.85840111965406],[-35.31534011642782,66.85929750303244],[-35.31587513881496,66.86027843801004],[-35.31813156290622,66.86061734666116],[-35.32082469358462,66.85994846543552],[-35.32192618053098,66.85907452410255]]],"type":"Polygon"},"id":"00000000000000000010_00000000000000000010","properties":{"area":250895.6648997653,"elevation":1513.6849436738562,"id":"00000000000000000010","region":"SE","surface":0.0,"year":2019},"type":"Feature"},{"geometry":{"coordinates":[[[-40.23997576332266,65.58001260553375],[-40.23900360904418,65.57933476433821],[-40.238071794132985,65.57847865018692],[-40.23801387944763,65.57765372032667],[-40.23708181724281,65.57679307506302],[-40.236586904301944,65.57595474817558],[-40.234700734869705,65.57542863527873],[-40.23273869160866,65.57526811912106],[-40.23077655251402,65.57511202464718],[-40.22868983984114,65.57558914659465],[-40.22839546132563,65.57594585983723],[-40.22984462672207,65.57645419169829],[-40.23173088486513,65.57697592874013],[-40.23310436108852,65.5778499165413],[-40.23161943998496,65.57862136612744],[-40.22958601521253,65.57882644089798],[-40.227641933474395,65.57857674736965],[-40.225849367081864,65.57869711312345],[-40.22458307183655,65.57947747300474],[-40.22603219518611,65.57998579304618],[-40.22793616247108,65.58041836057838],[-40.229858051090176,65.58076167518932],[-40.231748787033446,65.58128340882422],[-40.23374641627388,65.58126113303149],[-40.235708406714366,65.58142167533364],[-40.237683877383844,65.58148850763969],[-40.239373871396396,65.5808152078058],[-40.23997576332266,65.58001260553375]]],"type":"Polygon"},"id":"00000000000000000026_00000000000000000026","properties":{"area":285763.5336139183,"elevation":999.2659117532215,"id":"00000000000000000026","region":"SE","surface":0.0,"year":2019},"type":"Feature"},{"geometry":{"coordinates":[[[-42.02210452369899,64.22783479288215],[-42.02185939689679,64.22744679884995],[-42.02161412344364,64.2270633352732],[-42.020789180309286,64.22666651664207],[-42.019968564626765,64.22626515271013],[-42.01909921305441,64.22624734995722],[-42.018211685790384,64.22635434372637],[-42.01734233384161,64.22633205196897],[-42.016517327855006,64.2259351427777],[-42.01564783667584,64.22591736854388],[-42.01477820534502,64.22589505014942],[-42.0139533889928,64.22549818543581],[-42.01308391436043,64.22547591620904],[-42.012200982576935,64.22558292331182],[-42.01216975921445,64.22583707732646],[-42.01183524152535,64.22620715879142],[-42.01236591413849,64.22659958519655],[-42.01174154736647,64.22696526429823],[-42.011407164444385,64.2273397686897],[-42.01136261133165,64.22771879506425],[-42.01160789896183,64.22810234374451],[-42.01244622408492,64.22837430571865],[-42.01331562866768,64.22839215797285],[-42.01418518813473,64.22841442554889],[-42.01504128979378,64.2285616118638],[-42.01589755423851,64.22870426180958],[-42.016766972827995,64.22872656437785],[-42.01760535402493,64.22899860603896],[-42.01847478338272,64.22901641990833],[-42.019330926172266,64.22916357516701],[-42.02023181842481,64.2289316990853],[-42.02114582392741,64.22857052290887],[-42.0220599623925,64.2282137621565],[-42.02210452369899,64.22783479288215]]],"type":"Polygon"},"id":"00000000000000000031_00000000000000000031","properties":{"area":150429.23063406532,"elevation":1539.215597532217,"id":"00000000000000000031","region":"SE","surface":0.0,"year":2019},"type":"Feature"},{"geometry":{"coordinates":[[[-43.420420715259866,61.77085225490794],[-43.41920336764307,61.76999609461445],[-43.41742871842152,61.770089762660064],[-43.41568513113565,61.76959031203845],[-43.413910413849955,61.769688434920816],[-43.412140134690446,61.7696616915331],[-43.41036991619302,61.76963937683395],[-43.40862188841858,61.76925585020874],[-43.406869508458875,61.768992848692264],[-43.40509919449015,61.768970503199206],[-43.40334233928368,61.768707435932974],[-43.40158551388144,61.76844434071459],[-43.39979733032636,61.76878326709193],[-43.39978847796089,61.76889918264732],[-43.39948974214886,61.76973750020379],[-43.401242236318375,61.77000056724638],[-43.40299900842947,61.77026361185216],[-43.40473351840806,61.77088347095726],[-43.406490503313265,61.771146519806],[-43.40824299014956,61.771409645707585],[-43.40999975512738,61.77167274889987],[-43.411756689649835,61.77193576905083],[-43.41350912599164,61.77219886647724],[-43.4152883638805,61.772100812003835],[-43.41707200166499,61.771886744988564],[-43.418855554360796,61.77166830566177],[-43.420420715259866,61.77085225490794]]],"type":"Polygon"},"id":"0000000000000000003b_0000000000000000003b","properties":{"area":252220.83056029407,"elevation":1261.5940889752912,"id":"0000000000000000003b","region":"SE","surface":124.0,"year":2019},"type":"Feature"},{"geometry":{"coordinates":[[[-30.271044529933288,69.29104144796024],[-30.269786996646523,69.29017642037294],[-30.26766896488239,69.28960113920513],[-30.26487746672943,69.28994448764779],[-30.263062739222576,69.29067137773617],[-30.26243834162875,69.2915140905402],[-30.26023113662771,69.29220531476801],[-30.258416279083047,69.29293658173951],[-30.255624979335444,69.29327547733851],[-30.252726459783762,69.29375707466485],[-30.25030075182862,69.29360544654476],[-30.247977510222753,69.2933155975372],[-30.24549382414297,69.29323085739266],[-30.24498541829293,69.29363216242554],[-30.246996542652685,69.29434563872147],[-30.24952942539454,69.2943590384279],[-30.251852595704854,69.29464890068058],[-30.254175841058498,69.29493872501035],[-30.256811062991012,69.29480938251486],[-30.259450875283935,69.29468011966586],[-30.262032661374548,69.294622137855],[-30.26419080525932,69.29399788523968],[-30.266402559292537,69.29330665013859],[-30.26820396597973,69.29287416625168],[-30.267731413274163,69.29208038825371],[-30.270027773926735,69.29184407490911],[-30.271044529933288,69.29104144796024]]],"type":"Polygon"},"id":"00000000000000000047_00000000000000000047","properties":{"area":227542.0718718472,"elevation":1724.8735677912164,"id":"00000000000000000047","region":"SE","surface":0.0,"year":2019},"type":"Feature"},{"geometry":{"coordinates":[[[-31.749093750557236,68.79020864269457],[-31.74843396155604,68.78982513850859],[-31.7486390460374,68.78951296344833],[-31.747979036499842,68.78912499521599],[-31.7470693435856,68.78912949114229],[-31.74626235347494,68.78898237806008],[-31.74545060087454,68.7888307174626],[-31.744590073382806,68.78875498411931],[-31.74383199411602,68.78852749569609],[-31.743073957207763,68.78829568943412],[-31.742110762081737,68.78838035862648],[-31.742008285245067,68.7885364209056],[-31.741589210839734,68.78883075512893],[-31.7413883920456,68.78913842390354],[-31.74118781308136,68.78945055465023],[-31.7414150809552,68.78979834984492],[-31.741424169008525,68.79012838051986],[-31.741223445011542,68.79044043768776],[-31.74123692230729,68.79077047544729],[-31.74146420138621,68.79111827111315],[-31.74169168462963,68.7914660252137],[-31.742601252575533,68.79146160433136],[-31.74335951556057,68.79169348738091],[-31.74422002926546,68.79176483958156],[-31.745080462090318,68.79184061566852],[-31.745994779878618,68.79183621218766],[-31.747007034094935,68.79167565562499],[-31.74764018758323,68.7913992008525],[-31.74826893501304,68.79112273700602],[-31.748474082579058,68.79081506478387],[-31.74889311929155,68.79052070973698],[-31.749093750557236,68.79020864269457]]],"type":"Polygon"},"id":"00000000000000000005_00000000000000000005","properties":{"area":94094.99123745947,"elevation":1817.5993533662995,"id":"00000000000000000005","region":"SE","surface":0.0,"year":2019},"type":"Feature"},{"geometry":{"coordinates":[[[-30.759601486060454,69.31914269520988],[-30.75895485842394,69.31886175116773],[-30.758263780671417,69.31864777475867],[-30.757518934335884,69.31850951888522],[-30.75677438251823,69.31836682610208],[-30.755980610452305,69.31829549608997],[-30.755084391164438,69.31836238522352],[-30.754188088421937,69.31843366183719],[-30.7531937238098,69.31864330689099],[-30.752346449187545,69.31864324639744],[-30.751499258464246,69.318638787956],[-30.75110252833319,69.3189019336181],[-30.750897282108195,69.31918280869972],[-30.750500536312515,69.31944595303736],[-30.749702281066345,69.31967330214385],[-30.749300836079115,69.31993644712234],[-30.74969324598986,69.32027084452636],[-30.75048704826049,69.32034220867286],[-30.751334296923467,69.32034667235766],[-30.7522305375093,69.32027533719649],[-30.753073259622983,69.32027528617354],[-30.75387155636758,69.3203466679618],[-30.75461614459017,69.32048937547515],[-30.75551244501904,69.32042248815975],[-30.756506804985843,69.32021294133943],[-30.757505693813705,69.32000330894537],[-30.758397581071552,69.31993197488806],[-30.759396243720936,69.31972236983796],[-30.759596924970438,69.31944144748907],[-30.759601486060454,69.31914269520988]]],"type":"Polygon"},"id":"00000000000000000046_00000000000000000046","properties":{"area":68718.10177504522,"elevation":1859.8202599029264,"id":"00000000000000000046","region":"SE","surface":0.0,"year":2019},"type":"Feature"}]}